UNITID,EFTOTLT,EFTOTLM,EFTOTLW,W/M_Ratio,INSTNM,CITY,STABBR,ZIP,LATITUDE,LONGITUDE,geometry
100654,578,434,144,0.3317972350230415,Alabama A & M University,Normal,AL,35762,34.783368,-86.568502,POINT (-86.568502 34.783368)
100663,558,382,176,0.4607329842931937,University of Alabama at Birmingham,Birmingham,AL,35294-0110,33.505697,-86.799345,POINT (-86.799345 33.505697)
100706,2792,2203,589,0.2673626872446664,University of Alabama in Huntsville,Huntsville,AL,35899,34.724557,-86.640449,POINT (-86.640449 34.724557)
100724,60,28,32,1.1428571428571428,Alabama State University,Montgomery,AL,36104-0271,32.364317,-86.295677,POINT (-86.295677 32.364317)
100751,4383,3405,978,0.2872246696035242,The University of Alabama,Tuscaloosa,AL,35487-0100,33.211875,-87.545978,POINT (-87.54597800000001 33.211875)
100858,5058,4063,995,0.24489293625399952,Auburn University,Auburn,AL,36849,32.599378,-85.488258,POINT (-85.488258 32.599378)
100937,5,5,0,0.0,Birmingham-Southern College,Birmingham,AL,35254,33.513774,-86.850552,POINT (-86.85055199999999 33.513774)
102049,6,5,1,0.2,Samford University,Birmingham,AL,35229-2240,33.464128,-86.791799,POINT (-86.791799 33.464128)
102094,956,755,201,0.2662251655629139,University of South Alabama,Mobile,AL,36688-0002,30.696033,-88.178711,POINT (-88.17871100000001 30.696033)
102234,19,15,4,0.26666666666666666,Spring Hill College,Mobile,AL,36608-1791,30.694751,-88.138199,POINT (-88.138199 30.694751)
102377,404,267,137,0.5131086142322098,Tuskegee University,Tuskegee,AL,36088-1920,32.4309,-85.708492,POINT (-85.70849200000001 32.4309)
102553,527,409,118,0.2885085574572127,University of Alaska Anchorage,Anchorage,AK,99508,61.190163,-149.82619,POINT (-149.82619 61.190163)
102614,413,312,101,0.32371794871794873,University of Alaska Fairbanks,Fairbanks,AK,99775,64.85756,-147.823146,POINT (-147.823146 64.85756000000001)
104151,7621,5917,1704,0.28798377556194016,Arizona State University Campus Immersion,Tempe,AZ,85287,33.417721,-111.934383,POINT (-111.934383 33.417721)
104179,2551,1891,660,0.3490216816499207,University of Arizona,Tucson,AZ,85721-0066,32.232672,-110.950815,POINT (-110.950815 32.232672)
104586,1166,910,256,0.2813186813186813,Embry-Riddle Aeronautical University-Prescott,Prescott,AZ,86301-3720,34.616766,-112.449741,POINT (-112.449741 34.616766)
104717,813,646,167,0.2585139318885449,Grand Canyon University,Phoenix,AZ,85017,33.513231,-112.129929,POINT (-112.129929 33.513231)
105297,51,34,17,0.5,Dine College,Tsaile,AZ,86556,36.293328,-109.21684,POINT (-109.21684 36.293328)
105330,1390,1082,308,0.2846580406654344,Northern Arizona University,Flagstaff,AZ,86011-4092,35.188449,-111.653724,POINT (-111.653724 35.188449)
106245,177,144,33,0.22916666666666666,University of Arkansas at Little Rock,Little Rock,AR,72204,34.723254,-92.339778,POINT (-92.339778 34.723254)
106397,2685,2031,654,0.32200886262924666,University of Arkansas,Fayetteville,AR,72701,36.070009,-94.176981,POINT (-94.176981 36.070009)
106412,17,15,2,0.13333333333333333,University of Arkansas at Pine Bluff,Pine Bluff,AR,71601,34.244031,-92.018683,POINT (-92.018683 34.244031)
106458,307,268,39,0.1455223880597015,Arkansas State University,Jonesboro,AR,72401,35.842388,-90.679988,POINT (-90.67998799999999 35.842388)
106467,482,434,48,0.11059907834101383,Arkansas Tech University,Russellville,AR,72801-2222,35.293237,-93.13562,POINT (-93.13562 35.293237)
106704,74,71,3,0.04225352112676056,University of Central Arkansas,Conway,AR,72035-0001,35.077945,-92.457672,POINT (-92.457672 35.077945)
107044,188,159,29,0.18238993710691823,Harding University,Searcy,AR,72149-5615,35.247386,-91.726143,POINT (-91.72614299999999 35.247386)
107071,62,59,3,0.05084745762711865,Henderson State University,Arkadelphia,AR,71999-0001,34.128155,-93.059703,POINT (-93.059703 34.128155)
107141,104,85,19,0.2235294117647059,John Brown University,Siloam Springs,AR,72761,36.189812,-94.560283,POINT (-94.560283 36.189812)
107512,20,15,5,0.3333333333333333,Ouachita Baptist University,Arkadelphia,AR,71998-0001,34.126093,-93.052471,POINT (-93.052471 34.126093)
107983,97,87,10,0.11494252873563218,Southern Arkansas University Main Campus,Magnolia,AR,71753,33.291618,-93.235922,POINT (-93.235922 33.291618)
108092,165,147,18,0.12244897959183673,University of Arkansas-Fort Smith,Fort Smith,AR,72913-3649,35.384184,-94.373729,POINT (-94.373729 35.384184)
109350,475,383,92,0.2402088772845953,Antelope Valley College,Lancaster,CA,93536-5426,34.676207,-118.186166,POINT (-118.186166 34.676207)
109785,57,49,8,0.16326530612244897,Azusa Pacific University,Azusa,CA,91702-7000,34.130047,-117.888375,POINT (-117.888375 34.130047)
109819,754,609,145,0.23809523809523808,Bakersfield College,Bakersfield,CA,93305-1299,35.40911,-118.973753,POINT (-118.973753 35.40911)
110097,81,63,18,0.2857142857142857,Biola University,La Mirada,CA,90639-0001,33.906203,-118.014374,POINT (-118.014374 33.906203)
110361,652,535,117,0.21869158878504674,California Baptist University,Riverside,CA,92504-3297,33.929321,-117.425619,POINT (-117.425619 33.929321)
110404,220,101,119,1.1782178217821782,California Institute of Technology,Pasadena,CA,91125,34.137349,-118.125878,POINT (-118.125878 34.137349)
110422,6092,4459,1633,0.3662256111235703,California Polytechnic State University-San Luis Obispo,San Luis Obispo,CA,93407,35.299513,-120.657311,POINT (-120.657311 35.299513)
110486,507,423,84,0.19858156028368795,California State University-Bakersfield,Bakersfield,CA,93311-1099,35.350005,-119.104711,POINT (-119.104711 35.350005)
110510,294,268,26,0.09701492537313433,California State University-San Bernardino,San Bernardino,CA,92407-2393,34.182622,-117.323801,POINT (-117.323801 34.182622)
110529,5334,4197,1137,0.27090779127948533,California State Polytechnic University-Pomona,Pomona,CA,91768,34.057912,-117.821476,POINT (-117.821476 34.057912)
110538,1169,1013,156,0.1539980256663376,California State University-Chico,Chico,CA,95929-0150,39.729712,-121.844859,POINT (-121.844859 39.729712)
110556,1230,1044,186,0.1781609195402299,California State University-Fresno,Fresno,CA,93740,36.811154,-119.744569,POINT (-119.744569 36.811154)
110565,2191,1819,372,0.2045079714128642,California State University-Fullerton,Fullerton,CA,92831-3599,33.881506,-117.885446,POINT (-117.885446 33.881506)
110574,205,186,19,0.10215053763440861,California State University-East Bay,Hayward,CA,94542,37.657694,-122.054135,POINT (-122.054135 37.657694)
110583,3475,2765,710,0.25678119349005424,California State University-Long Beach,Long Beach,CA,90840-0115,33.782818,-118.11204,POINT (-118.11204 33.782818)
110592,1593,1326,267,0.20135746606334842,California State University-Los Angeles,Los Angeles,CA,90032-8506,34.066927,-118.168965,POINT (-118.168965 34.066927)
110608,3434,2747,687,0.2500910083727703,California State University-Northridge,Northridge,CA,91330,34.240126,-118.529319,POINT (-118.529319 34.240126)
110617,2504,2100,404,0.19238095238095237,California State University-Sacramento,Sacramento,CA,95819-2694,38.559415,-121.423549,POINT (-121.423549 38.559415)
110635,4341,3025,1316,0.43504132231404957,University of California-Berkeley,Berkeley,CA,94720,37.871918,-122.260463,POINT (-122.260463 37.871918)
110644,3602,2421,1181,0.4878149524989674,University of California-Davis,Davis,CA,95616-8678,38.539667,-121.749567,POINT (-121.749567 38.539667)
110653,4026,2958,1068,0.36105476673427994,University of California-Irvine,Irvine,CA,92697,33.648434,-117.841248,POINT (-117.841248 33.648434)
110662,2944,2037,907,0.44526264113892977,University of California-Los Angeles,Los Angeles,CA,90095-1405,34.07178,-118.442179,POINT (-118.442179 34.07178)
110671,2006,1482,524,0.3535762483130904,University of California-Riverside,Riverside,CA,92521,33.97246,-117.32741,POINT (-117.32741 33.97246)
110680,4341,3260,1081,0.33159509202453985,University of California-San Diego,La Jolla,CA,92093,32.877749,-117.235866,POINT (-117.235866 32.877749)
110705,1048,866,182,0.21016166281755197,University of California-Santa Barbara,Santa Barbara,CA,93106,34.416297,-119.846426,POINT (-119.846426 34.416297)
110714,438,343,95,0.27696793002915454,University of California-Santa Cruz,Santa Cruz,CA,95064-1011,36.995584,-122.058801,POINT (-122.058801 36.995584)
111188,166,145,21,0.14482758620689656,California State University Maritime Academy,Vallejo,CA,94590-8181,38.069061,-122.231551,POINT (-122.231551 38.069061)
111948,65,48,17,0.3541666666666667,Chapman University,Orange,CA,92866,33.79302,-117.852518,POINT (-117.852518 33.79302)
112260,28,22,6,0.2727272727272727,Claremont McKenna College,Claremont,CA,91711-6400,34.102154,-117.711188,POINT (-117.711188 34.102154)
113236,319,246,73,0.2967479674796748,Cypress College,Cypress,CA,90630-5897,33.82833,-118.025143,POINT (-118.025143 33.82833)
114716,436,357,79,0.22128851540616246,Foothill College,Los Altos Hills,CA,94022,37.361655,-122.127964,POINT (-122.127964 37.361655)
115409,112,47,65,1.3829787234042554,Harvey Mudd College,Claremont,CA,91711,34.106515,-117.709837,POINT (-117.709837 34.106515)
115755,209,138,71,0.5144927536231884,Humboldt State University,Arcata,CA,95521-8299,40.877481,-124.078293,POINT (-124.078293 40.877481)
117946,363,270,93,0.34444444444444444,Loyola Marymount University,Los Angeles,CA,90045-2659,33.97085,-118.415744,POINT (-118.415744 33.97085)
119605,245,201,44,0.21890547263681592,National University,La Jolla,CA,92037-1011,32.909894,-117.243026,POINT (-117.243026 32.909894)
120865,4,2,2,1.0,Pacific Union College,Angwin,CA,94508-9707,38.570585,-122.440308,POINT (-122.440308 38.570585)
120883,394,303,91,0.30033003300330036,University of the Pacific,Stockton,CA,95211-0197,37.981424,-121.312301,POINT (-121.312301 37.981424)
121257,1,1,0,0.0,Pitzer College,Claremont,CA,91711-6101,34.104107,-117.706675,POINT (-117.706675 34.104107)
121309,38,33,5,0.15151515151515152,Point Loma Nazarene University,San Diego,CA,92106-2899,32.718391,-117.250265,POINT (-117.250265 32.718391)
121345,1,0,1,inf,Pomona College,Claremont,CA,91711-6319,34.099027,-117.714556,POINT (-117.714556 34.099027)
121619,182,145,37,0.25517241379310346,Santa Ana College,Santa Ana,CA,92706-3398,33.759309,-117.887558,POINT (-117.887558 33.759309)
121886,324,270,54,0.2,Rio Hondo College,Whittier,CA,90601-1616,34.019821,-118.033506,POINT (-118.033506 34.019821)
122375,266,222,44,0.1981981981981982,San Diego Mesa College,San Diego,CA,92111-4998,32.803825,-117.169165,POINT (-117.169165 32.803825)
122409,3384,2729,655,0.24001465738365702,San Diego State University,San Diego,CA,92182-0001,32.77525,-117.071228,POINT (-117.071228 32.77525)
122436,441,328,113,0.3445121951219512,University of San Diego,San Diego,CA,92110-2492,32.770816,-117.192073,POINT (-117.192073 32.770816)
122597,1327,1100,227,0.20636363636363636,San Francisco State University,San Francisco,CA,94132,37.721224,-122.476799,POINT (-122.476799 37.721224)
122612,30,15,15,1.0,University of San Francisco,San Francisco,CA,94117-1080,37.776618,-122.450477,POINT (-122.450477 37.776618)
122755,3937,3119,818,0.262263546008336,San Jose State University,San Jose,CA,95192-0001,37.336569,-121.880621,POINT (-121.880621 37.336569)
122931,927,682,245,0.3592375366568915,Santa Clara University,Santa Clara,CA,95053,37.348362,-121.93784,POINT (-121.93784 37.348362)
122977,195,148,47,0.31756756756756754,Santa Monica College,Santa Monica,CA,90405-1628,34.017022,-118.469765,POINT (-118.469765 34.017022)
123165,5,0,5,inf,Scripps College,Claremont,CA,91711-3905,34.104147,-117.711294,POINT (-117.711294 34.104147)
123299,253,206,47,0.22815533980582525,Shasta College,Redding,CA,96003,40.625731,-122.317982,POINT (-122.317982 40.625731)
123554,10,8,2,0.25,Saint Mary's College of California,Moraga,CA,94575,37.840731,-122.109031,POINT (-122.109031 37.840731)
123563,285,235,50,0.2127659574468085,Solano Community College,Fairfield,CA,94534-3197,38.235881,-122.122368,POINT (-122.122368 38.235881)
123572,127,112,15,0.13392857142857142,Sonoma State University,Rohnert Park,CA,94928-3609,38.340274,-122.677066,POINT (-122.677066 38.340274)
123961,1829,1094,735,0.6718464351005484,University of Southern California,Los Angeles,CA,90089,34.021281,-118.284169,POINT (-118.284169 34.021281)
125471,144,118,26,0.22033898305084745,West Los Angeles College,Culver City,CA,90230-3519,34.004512,-118.386664,POINT (-118.386664 34.004512)
125727,8,6,2,0.3333333333333333,Westmont College,Santa Barbara,CA,93108-1089,34.450151,-119.662517,POINT (-119.662517 34.450151)
125763,14,13,1,0.07692307692307693,Whittier College,Whittier,CA,90601,33.978773,-118.032299,POINT (-118.032299 33.978773)
126562,922,683,239,0.34992679355783307,University of Colorado Denver/Anschutz Medical Campus,Denver,CO,80217-3364,39.745149,-104.837722,POINT (-104.837722 39.745149)
126580,672,553,119,0.21518987341772153,University of Colorado Colorado Springs,Colorado Springs,CO,80918,38.892735,-104.800296,POINT (-104.800296 38.892735)
126614,4062,2868,1194,0.41631799163179917,University of Colorado Boulder,Boulder,CO,80309-0017,40.008781,-105.270823,POINT (-105.270823 40.008781)
126669,28,20,8,0.4,Colorado Christian University,Lakewood,CO,80226,39.71388,-105.09456,POINT (-105.09456 39.71388)
126775,3947,2694,1253,0.4651076466221232,Colorado School of Mines,Golden,CO,80401,39.751443,-105.223364,POINT (-105.223364 39.751443)
126818,2427,1791,636,0.35510887772194305,Colorado State University-Fort Collins,Fort Collins,CO,80523-0100,40.574805,-105.080732,POINT (-105.080732 40.574805)
126827,45,38,7,0.18421052631578946,Colorado Technical University-Colorado Springs,Colorado Springs,CO,80907-3812,38.894265,-104.833928,POINT (-104.833928 38.894265)
127060,298,229,69,0.30131004366812225,University of Denver,Denver,CO,80208,39.678005,-104.963259,POINT (-104.963259 39.678005)
127185,286,225,61,0.27111111111111114,Fort Lewis College,Durango,CO,81301-3999,37.275939,-107.867422,POINT (-107.867422 37.275939)
127565,190,125,65,0.52,Metropolitan State University of Denver,Denver,CO,80217-3362,39.744202,-105.00504,POINT (-105.00504 39.744202)
127741,71,62,9,0.14516129032258066,University of Northern Colorado,Greeley,CO,80639,40.410855,-104.692777,POINT (-104.692777 40.410855)
128106,90,74,16,0.21621621621621623,Colorado State University Pueblo,Pueblo,CO,81001-4901,38.30859,-104.579033,POINT (-104.579033 38.30859)
128328,1068,870,198,0.22758620689655173,United States Air Force Academy,USAF Academy,CO,80840-5002,39.010957,-104.891358,POINT (-104.891358 39.010957)
128744,216,191,25,0.13089005235602094,University of Bridgeport,Bridgeport,CT,06604-5620,41.164741,-73.190166,POINT (-73.190166 41.164741)
128771,371,324,47,0.14506172839506173,Central Connecticut State University,New Britain,CT,6050,41.692502,-72.765991,POINT (-72.765991 41.692502)
129020,2788,2063,725,0.3514299563742123,University of Connecticut,Storrs,CT,6269,41.809098,-72.249948,POINT (-72.249948 41.809098)
129242,311,231,80,0.3463203463203463,Fairfield University,Fairfield,CT,06824-5195,41.157673,-73.255903,POINT (-73.255903 41.157673)
129525,520,419,101,0.24105011933174225,University of Hartford,West Hartford,CT,06117-1599,41.798591,-72.715213,POINT (-72.71521300000001 41.798591)
129941,402,330,72,0.21818181818181817,University of New Haven,West Haven,CT,06516-1916,41.291314,-72.961472,POINT (-72.961472 41.291314)
130226,280,222,58,0.26126126126126126,Quinnipiac University,Hamden,CT,6518,41.418915,-72.894117,POINT (-72.89411699999999 41.418915)
130253,34,29,5,0.1724137931034483,Sacred Heart University,Fairfield,CT,06825-1000,41.220893,-73.243332,POINT (-73.243332 41.220893)
130590,55,36,19,0.5277777777777778,Trinity College,Hartford,CT,06106-3100,41.747451,-72.690882,POINT (-72.690882 41.747451)
130624,482,349,133,0.38108882521489973,United States Coast Guard Academy,New London,CT,06320-4195,41.375823,-72.101583,POINT (-72.10158300000001 41.375823)
130794,188,108,80,0.7407407407407407,Yale University,New Haven,CT,6520,41.311158,-72.926688,POINT (-72.926688 41.311158)
130907,139,123,16,0.13008130081300814,Delaware Technical Community College-Terry,Dover,DE,19901,39.198371,-75.56012,POINT (-75.56012 39.198371)
130934,94,69,25,0.36231884057971014,Delaware State University,Dover,DE,19901,39.187173,-75.54053,POINT (-75.54053 39.187173)
130943,1918,1360,558,0.4102941176470588,University of Delaware,Newark,DE,19716,39.679577,-75.752822,POINT (-75.75282199999999 39.679577)
131283,303,206,97,0.470873786407767,The Catholic University of America,Washington,DC,20064,38.933651,-76.997909,POINT (-76.99790900000001 38.933651)
131399,175,132,43,0.32575757575757575,University of the District of Columbia,Washington,DC,20008,38.943819,-77.066247,POINT (-77.066247 38.943819)
131469,615,344,271,0.7877906976744186,George Washington University,Washington,DC,20052,38.89923,-77.048363,POINT (-77.04836299999999 38.89923)
131520,438,264,174,0.6590909090909091,Howard University,Washington,DC,20059,38.922392,-77.018966,POINT (-77.01896600000001 38.922392)
132602,42,39,3,0.07692307692307693,Bethune-Cookman University,Daytona Beach,FL,32114-3099,29.207195,-81.032946,POINT (-81.032946 29.207195)
132903,7378,5839,1539,0.2635725295427299,University of Central Florida,Orlando,FL,32816,28.602159,-81.200889,POINT (-81.200889 28.602159)
133553,2476,1886,590,0.31283138918345704,Embry-Riddle Aeronautical University-Daytona Beach,Daytona Beach,FL,32114-3900,29.189903,-81.048367,POINT (-81.048367 29.189903)
133650,375,263,112,0.42585551330798477,Florida Agricultural and Mechanical University,Tallahassee,FL,32307,30.428504,-84.290226,POINT (-84.290226 30.428504)
133669,1898,1553,345,0.22215067611075337,Florida Atlantic University,Boca Raton,FL,33431-0991,26.372421,-80.102978,POINT (-80.10297799999999 26.372421)
133881,1435,1107,328,0.2962962962962963,Florida Institute of Technology,Melbourne,FL,32901-6975,28.065815,-80.622893,POINT (-80.622893 28.065815)
133951,3359,2682,677,0.2524235645041014,Florida International University,Miami,FL,33199,25.75732,-80.373928,POINT (-80.37392800000001 25.75732)
134097,1886,1346,540,0.4011887072808321,Florida State University,Tallahassee,FL,32306-1037,30.440756,-84.291921,POINT (-84.291921 30.440756)
134130,5681,3866,1815,0.4694774961200207,University of Florida,Gainesville,FL,32611,29.64629,-82.347911,POINT (-82.347911 29.64629)
134237,99,84,15,0.17857142857142858,Full Sail University,Winter Park,FL,32792-7429,28.596546,-81.301286,POINT (-81.301286 28.596546)
134945,86,75,11,0.14666666666666667,Jacksonville University,Jacksonville,FL,32211-3394,30.353227,-81.60458,POINT (-81.60458 30.353227)
135081,76,63,13,0.20634920634920634,Keiser University-Ft Lauderdale,Fort Lauderdale,FL,33309,26.185869,-80.163959,POINT (-80.16395900000001 26.185869)
135726,967,653,314,0.48085758039816234,University of Miami,Coral Gables,FL,33146,25.72126,-80.278662,POINT (-80.278662 25.72126)
136172,820,670,150,0.22388059701492538,University of North Florida,Jacksonville,FL,32224-7699,30.27194,-81.509144,POINT (-81.50914400000001 30.27194)
136215,69,47,22,0.46808510638297873,Nova Southeastern University,Fort Lauderdale,FL,33314-7796,26.079337,-80.24248,POINT (-80.24248 26.079337)
136950,10,3,7,2.3333333333333335,Rollins College,Winter Park,FL,32789-4499,28.592787,-81.349239,POINT (-81.349239 28.592787)
137351,3375,2567,808,0.3147643163225555,University of South Florida,Tampa,FL,33620-9951,28.061458,-82.413232,POINT (-82.41323199999999 28.061458)
137476,6,6,0,0.0,St. Thomas University,Miami Gardens,FL,33054-6459,25.922071,-80.253273,POINT (-80.25327299999999 25.922071)
138309,57,31,26,0.8387096774193549,Rasmussen University-Florida,Ocala,FL,34474-6226,29.140099,-82.197343,POINT (-82.197343 29.140099)
138354,690,590,100,0.1694915254237288,The University of West Florida,Pensacola,FL,32514-5750,30.549076,-87.218511,POINT (-87.21851100000001 30.549076)
138761,7,5,2,0.4,Andrew College,Cuthbert,GA,39840-5550,31.772321,-84.795021,POINT (-84.79502100000001 31.772321)
139366,104,87,17,0.19540229885057472,Columbus State University,Columbus,GA,31907-5645,32.50096,-84.94106,POINT (-84.94105999999999 32.50096)
139755,8730,5572,3158,0.5667623833452979,Georgia Institute of Technology-Main Campus,Atlanta,GA,30332-0530,33.77242,-84.394832,POINT (-84.39483199999999 33.77242)
139931,2036,1752,284,0.16210045662100456,Georgia Southern University,Statesboro,GA,30460-8126,32.426153,-81.784045,POINT (-81.78404500000001 32.426153)
139959,2233,1633,600,0.3674219228413962,University of Georgia,Athens,GA,30602,33.956262,-83.374039,POINT (-83.374039 33.956262)
139968,93,84,9,0.10714285714285714,Gordon State College,Barnesville,GA,30204,33.04571,-84.154508,POINT (-84.15450800000001 33.04571)
140234,7,5,2,0.4,LaGrange College,Lagrange,GA,30240-2999,33.038564,-85.043113,POINT (-85.04311300000001 33.038564)
140447,619,415,204,0.491566265060241,Mercer University,Macon,GA,31207,32.831787,-83.648295,POINT (-83.648295 32.831787)
140553,133,133,0,0.0,Morehouse College,Atlanta,GA,30314,33.745982,-84.414917,POINT (-84.414917 33.745982)
140696,84,59,25,0.423728813559322,Oglethorpe University,Atlanta,GA,30319-2797,33.875441,-84.333687,POINT (-84.333687 33.875441)
140818,20,18,2,0.1111111111111111,Piedmont University,Demorest,GA,30535-0010,34.566042,-83.542126,POINT (-83.542126 34.566042)
140951,39,18,21,1.1666666666666667,Savannah College of Art and Design,Savannah,GA,31402-3146,32.072963,-81.093849,POINT (-81.09384900000001 32.072963)
141060,23,0,23,inf,Spelman College,Atlanta,GA,30314-4399,33.745279,-84.411527,POINT (-84.41152700000001 33.745279)
141264,111,101,10,0.09900990099009901,Valdosta State University,Valdosta,GA,31698,30.847402,-83.289282,POINT (-83.289282 30.847402)
141325,1,0,1,inf,Wesleyan College,Macon,GA,31210-4462,32.876037,-83.715417,POINT (-83.715417 32.876037)
141574,992,727,265,0.36451169188445665,University of Hawaii at Manoa,Honolulu,HI,96822-2217,21.298598,-157.818979,POINT (-157.818979 21.298598)
141644,58,34,24,0.7058823529411765,Hawaii Pacific University,Honolulu,HI,96813,21.310306,-157.859645,POINT (-157.859645 21.310306)
142115,1127,870,257,0.29540229885057473,Boise State University,Boise,ID,83725,43.604284,-116.203301,POINT (-116.203301 43.604284)
142276,355,301,54,0.17940199335548174,Idaho State University,Pocatello,ID,83209,42.863832,-112.432312,POINT (-112.432312 42.863832)
142285,789,626,163,0.26038338658146964,University of Idaho,Moscow,ID,83844-2282,46.727406,-117.014167,POINT (-117.014167 46.727406)
142328,13,10,3,0.3,Lewis-Clark State College,Lewiston,ID,83501-2698,46.412199,-117.024875,POINT (-117.024875 46.412199)
142461,72,63,9,0.14285714285714285,Northwest Nazarene University,Nampa,ID,83686-5897,43.562411,-116.565783,POINT (-116.565783 43.562411)
142522,1472,1341,131,0.0976882923191648,Brigham Young University-Idaho,Rexburg,ID,83460-1690,43.818408,-111.782431,POINT (-111.782431 43.818408)
142559,67,57,10,0.17543859649122806,College of Southern Idaho,Twin Falls,ID,83301,42.579837,-114.473901,POINT (-114.473901 42.579837)
143084,29,22,7,0.3181818181818182,Augustana College,Rock Island,IL,61201-2296,41.502365,-90.55057,POINT (-90.55056999999999 41.502365)
143118,7,6,1,0.16666666666666666,Aurora University,Aurora,IL,60506-4892,41.753631,-88.349023,POINT (-88.349023 41.753631)
143358,752,610,142,0.23278688524590163,Bradley University,Peoria,IL,61625-0001,40.696896,-89.616786,POINT (-89.616786 40.696896)
144050,91,55,36,0.6545454545454545,University of Chicago,Chicago,IL,60637,41.787994,-87.599539,POINT (-87.59953899999999 41.787994)
144740,13,11,2,0.18181818181818182,DePaul University,Chicago,IL,60604,41.877618,-87.62724,POINT (-87.62724 41.877618)
144892,28,24,4,0.16666666666666666,Eastern Illinois University,Charleston,IL,61920,39.479843,-88.175658,POINT (-88.175658 39.479843)
145372,31,27,4,0.14814814814814814,Greenville University,Greenville,IL,62246,38.894162,-89.40824,POINT (-89.40824000000001 38.894162)
145600,2546,1919,627,0.32673267326732675,University of Illinois Chicago,Chicago,IL,60607,41.871837,-87.650503,POINT (-87.650503 41.871837)
145619,44,29,15,0.5172413793103449,Benedictine University,Lisle,IL,60532-0900,41.777569,-88.097307,POINT (-88.097307 41.777569)
145637,7104,5406,1698,0.31409544950055496,University of Illinois Urbana-Champaign,Champaign,IL,61820-5711,40.104718,-88.229114,POINT (-88.229114 40.104718)
145725,1283,910,373,0.4098901098901099,Illinois Institute of Technology,Chicago,IL,60616,41.8313,-87.627321,POINT (-87.62732099999999 41.8313)
146612,27,24,3,0.125,Lewis University,Romeoville,IL,60446-2200,41.605432,-88.079032,POINT (-88.079032 41.605432)
146719,178,107,71,0.6635514018691588,Loyola University Chicago,Chicago,IL,60660,42.000765,-87.656872,POINT (-87.65687200000001 42.000765)
147341,13,12,1,0.08333333333333333,Monmouth College,Monmouth,IL,61462-1998,40.914824,-90.63731,POINT (-90.63731 40.914824)
147660,102,95,7,0.07368421052631578,North Central College,Naperville,IL,60540,41.77576,-88.14279,POINT (-88.14279000000001 41.77576)
147679,35,31,4,0.12903225806451613,North Park University,Chicago,IL,60625-4895,41.975268,-87.709948,POINT (-87.709948 41.975268)
147703,996,847,149,0.17591499409681227,Northern Illinois University,Dekalb,IL,60115-2828,41.933869,-88.766428,POINT (-88.766428 41.933869)
147767,1337,845,492,0.5822485207100592,Northwestern University,Evanston,IL,60208,42.050356,-87.679858,POINT (-87.679858 42.050356)
147828,207,170,37,0.21764705882352942,Olivet Nazarene University,Bourbonnais,IL,60914-2271,41.155237,-87.875165,POINT (-87.875165 41.155237)
148016,13,9,4,0.4444444444444444,Principia College,Elsah,IL,62028-9799,38.948835,-90.350285,POINT (-90.350285 38.948835)
149222,431,363,68,0.18732782369146006,Southern Illinois University-Carbondale,Carbondale,IL,62901-4512,37.714193,-89.217273,POINT (-89.21727300000001 37.714193)
149231,493,409,84,0.20537897310513448,Southern Illinois University-Edwardsville,Edwardsville,IL,62026-1259,38.793949,-89.997779,POINT (-89.99777899999999 38.793949)
149772,157,128,29,0.2265625,Western Illinois University,Macomb,IL,61455,40.468086,-90.686899,POINT (-90.686899 40.468086)
149781,28,23,5,0.21739130434782608,Wheaton College,Wheaton,IL,60187-5593,41.870176,-88.099643,POINT (-88.099643 41.870176)
150066,51,44,7,0.1590909090909091,Anderson University,Anderson,IN,46012-3495,40.112768,-85.664315,POINT (-85.664315 40.112768)
150136,20,17,3,0.17647058823529413,Ball State University,Muncie,IN,47306,40.203431,-85.409043,POINT (-85.409043 40.203431)
150145,13,10,3,0.3,Bethel University,Mishawaka,IN,46545-5591,41.678399,-86.194686,POINT (-86.194686 41.678399)
150163,10,7,3,0.42857142857142855,Butler University,Indianapolis,IN,46208,39.8374,-86.172167,POINT (-86.172167 39.8374)
150534,175,146,29,0.19863013698630136,University of Evansville,Evansville,IN,47722,37.971549,-87.531644,POINT (-87.531644 37.971549)
150604,14,13,1,0.07692307692307693,Franklin College,Franklin,IN,46131-2623,39.478298,-86.047182,POINT (-86.04718200000001 39.478298)
150668,13,13,0,0.0,Goshen College,Goshen,IN,46526-4794,41.563582,-85.827795,POINT (-85.82779499999999 41.563582)
150677,25,22,3,0.13636363636363635,Grace College and Theological Seminary,Winona Lake,IN,46590-1274,41.22595,-85.814228,POINT (-85.814228 41.22595)
150756,13,12,1,0.08333333333333333,Hanover College,Hanover,IN,47243,38.715642,-85.460051,POINT (-85.46005100000001 38.715642)
151102,417,367,50,0.1362397820163488,Purdue University Fort Wayne,Fort Wayne,IN,46805-1499,41.117278,-85.108962,POINT (-85.10896200000001 41.117278)
151111,1693,1387,306,0.220620043258832,Indiana University-Purdue University-Indianapolis,Indianapolis,IN,46202-5143,39.772948,-86.172217,POINT (-86.172217 39.772948)
151263,143,119,24,0.20168067226890757,University of Indianapolis,Indianapolis,IN,46227-3697,39.709571,-86.133969,POINT (-86.13396899999999 39.709571)
151290,343,258,85,0.32945736434108525,Indiana Institute of Technology,Fort Wayne,IN,46803-1228,41.078365,-85.116479,POINT (-85.116479 41.078365)
151306,403,339,64,0.1887905604719764,University of Southern Indiana,Evansville,IN,47712,37.962374,-87.677214,POINT (-87.67721400000001 37.962374)
151324,48,39,9,0.23076923076923078,Indiana State University,Terre Haute,IN,47809,39.469073,-87.407846,POINT (-87.40784600000001 39.469073)
151351,157,124,33,0.2661290322580645,Indiana University-Bloomington,Bloomington,IN,47405-7000,39.16609,-86.526559,POINT (-86.52655900000001 39.16609)
151777,34,32,2,0.0625,Manchester University,North Manchester,IN,46962,41.010549,-85.762643,POINT (-85.762643 41.010549)
152080,1348,856,492,0.5747663551401869,University of Notre Dame,Notre Dame,IN,46556,41.703058,-86.238959,POINT (-86.23895899999999 41.703058)
152318,1460,1100,360,0.32727272727272727,Rose-Hulman Institute of Technology,Terre Haute,IN,47803-3920,39.483602,-87.326749,POINT (-87.32674900000001 39.483602)
152530,67,54,13,0.24074074074074073,Taylor University,Upland,IN,46989-1001,40.456246,-85.497034,POINT (-85.497034 40.456246)
152567,750,601,149,0.24792013311148087,Trine University,Angola,IN,46703-1764,41.632502,-85.008009,POINT (-85.008009 41.632502)
152600,486,373,113,0.30294906166219837,Valparaiso University,Valparaiso,IN,46383,41.462239,-87.040172,POINT (-87.040172 41.462239)
152637,63,56,7,0.125,Vincennes University,Vincennes,IN,47591,38.687766,-87.519939,POINT (-87.51993899999999 38.687766)
153108,18,16,2,0.125,Central College,Pella,IA,50219,41.401539,-92.922199,POINT (-92.92219900000001 41.401539)
153162,24,18,6,0.3333333333333333,Cornell College,Mount Vernon,IA,52314-1098,41.924554,-91.423741,POINT (-91.42374100000001 41.924554)
153250,202,185,17,0.0918918918918919,Dordt University,Sioux Center,IA,51250-1606,43.082527,-96.166562,POINT (-96.166562 43.082527)
153603,7306,6079,1227,0.2018424082908373,Iowa State University,Ames,IA,50011-2103,42.026212,-93.648504,POINT (-93.648504 42.026212)
153658,2088,1515,573,0.3782178217821782,University of Iowa,Iowa City,IA,52242-1316,41.661935,-91.536425,POINT (-91.53642499999999 41.661935)
153825,37,29,8,0.27586206896551724,Loras College,Dubuque,IA,52004-0178,42.503908,-90.679023,POINT (-90.679023 42.503908)
154004,2,1,1,1.0,Morningside College,Sioux City,IA,51106-1751,42.473891,-96.359464,POINT (-96.359464 42.473891)
154022,227,169,58,0.3431952662721893,Ashford University,San Diego,CA,92123,32.8273,-117.141961,POINT (-117.141961 32.8273)
154095,1,1,0,0.0,University of Northern Iowa,Cedar Falls,IA,50614-0005,42.514923,-92.459703,POINT (-92.459703 42.514923)
154235,117,103,14,0.13592233009708737,Saint Ambrose University,Davenport,IA,52803-2898,41.54065,-90.579854,POINT (-90.579854 41.54065)
154493,26,20,6,0.3,Upper Iowa University,Fayette,IA,52142-1857,42.838283,-91.799543,POINT (-91.799543 42.838283)
154527,71,61,10,0.16393442622950818,Wartburg College,Waverly,IA,50677-0903,42.7277,-92.483387,POINT (-92.48338699999999 42.7277)
154590,41,33,8,0.24242424242424243,William Penn University,Oskaloosa,IA,52577,41.310111,-92.647095,POINT (-92.64709499999999 41.310111)
154712,120,92,28,0.30434782608695654,Benedictine College,Atchison,KS,66002-1499,39.572646,-95.111473,POINT (-95.111473 39.572646)
154721,9,6,3,0.5,Bethany College,Lindsborg,KS,67456-1897,38.580598,-97.67367,POINT (-97.67367 38.580598)
155061,29,18,11,0.6111111111111112,Fort Hays State University,Hays,KS,67601-4099,38.872156,-99.342503,POINT (-99.34250299999999 38.872156)
155317,1921,1405,516,0.36725978647686836,University of Kansas,Lawrence,KS,66045,38.958549,-95.247567,POINT (-95.247567 38.958549)
155399,2121,1687,434,0.2572614107883817,Kansas State University,Manhattan,KS,66506,39.188648,-96.581077,POINT (-96.58107699999999 39.188648)
155414,5,4,1,0.25,Kansas Wesleyan University,Salina,KS,67401-6146,38.813795,-97.607973,POINT (-97.607973 38.813795)
155627,26,23,3,0.13043478260869565,Ottawa University-Ottawa,Ottawa,KS,66067-3399,38.603173,-95.264187,POINT (-95.26418700000001 38.603173)
156082,7,7,0,0.0,Washburn University,Topeka,KS,66621-0001,39.033778,-95.702222,POINT (-95.70222200000001 39.033778)
156125,1639,1310,329,0.2511450381679389,Wichita State University,Wichita,KS,67260-0124,37.718882,-97.292361,POINT (-97.292361 37.718882)
156213,10,8,2,0.25,Asbury University,Wilmore,KY,40390-1198,37.862029,-84.662606,POINT (-84.662606 37.862029)
156286,19,17,2,0.11764705882352941,Bellarmine University,Louisville,KY,40205-0671,38.219279,-85.704997,POINT (-85.70499700000001 38.219279)
156356,4,2,2,1.0,Brescia University,Owensboro,KY,42301-3023,37.769041,-87.111639,POINT (-87.111639 37.769041)
156541,10,10,0,0.0,University of the Cumberlands,Williamsburg,KY,40769,36.737048,-84.161646,POINT (-84.161646 36.737048)
157085,2509,1945,564,0.289974293059126,University of Kentucky,Lexington,KY,40506-0032,38.038911,-84.504747,POINT (-84.50474699999999 38.038911)
157216,11,10,1,0.1,Lindsey Wilson College,Columbia,KY,42728-1223,37.101502,-85.299997,POINT (-85.299997 37.101502)
157289,1882,1443,439,0.3042273042273042,University of Louisville,Louisville,KY,40292-0001,38.216862,-85.760412,POINT (-85.760412 38.216862)
157386,103,78,25,0.32051282051282054,Morehead State University,Morehead,KY,40351,38.186768,-83.434021,POINT (-83.434021 38.186768)
157401,168,145,23,0.15862068965517243,Murray State University,Murray,KY,42071-3318,36.612419,-88.323629,POINT (-88.323629 36.612419)
157447,8,8,0,0.0,Northern Kentucky University,Highland Heights,KY,41099,39.029714,-84.463483,POINT (-84.463483 39.029714)
157951,512,448,64,0.14285714285714285,Western Kentucky University,Bowling Green,KY,42101-1000,36.985035,-86.456828,POINT (-86.456828 36.985035)
159391,3863,2887,976,0.3380671977831659,Louisiana State University and Agricultural & Mechanical College,Baton Rouge,LA,70803-2750,30.414986,-91.178921,POINT (-91.178921 30.414986)
159647,1621,1317,304,0.2308276385725133,Louisiana Tech University,Ruston,LA,71272,32.528297,-92.649963,POINT (-92.649963 32.528297)
159717,591,470,121,0.2574468085106383,McNeese State University,Lake Charles,LA,70605,30.178187,-93.217222,POINT (-93.21722200000001 30.178187)
159939,943,756,187,0.24735449735449735,University of New Orleans,New Orleans,LA,70148,30.027704,-90.067142,POINT (-90.067142 30.027704)
160621,442,332,110,0.3313253012048193,Southern University and A & M College,Baton Rouge,LA,70813,30.524558,-91.190105,POINT (-91.190105 30.524558)
160658,1488,1218,270,0.22167487684729065,University of Louisiana at Lafayette,Lafayette,LA,70503,30.212191,-92.020165,POINT (-92.02016500000001 30.212191)
160755,319,158,161,1.018987341772152,Tulane University of Louisiana,New Orleans,LA,70118-5698,29.940069,-90.122144,POINT (-90.12214400000001 29.940069)
160977,3,3,0,0.0,Bates College,Lewiston,ME,4240,44.105299,-70.203333,POINT (-70.203333 44.105299)
161253,1320,1028,292,0.2840466926070039,University of Maine,Orono,ME,4469,44.899257,-68.669332,POINT (-68.669332 44.899257)
161299,362,349,13,0.03724928366762178,Maine Maritime Academy,Castine,ME,04420-0001,44.389654,-68.804347,POINT (-68.80434700000001 44.389654)
161554,230,204,26,0.12745098039215685,University of Southern Maine,Portland,ME,4103,43.662863,-70.274247,POINT (-70.274247 43.662863)
162061,127,101,26,0.25742574257425743,Capitol Technology University,Laurel,MD,20708,39.046673,-76.850231,POINT (-76.85023099999999 39.046673)
162584,123,93,30,0.3225806451612903,Frostburg State University,Frostburg,MD,21532-1099,39.650918,-78.934293,POINT (-78.934293 39.650918)
162928,1224,687,537,0.7816593886462883,Johns Hopkins University,Baltimore,MD,21218-2688,39.328977,-76.621595,POINT (-76.621595 39.328977)
163046,149,112,37,0.33035714285714285,Loyola University Maryland,Baltimore,MD,21210-2699,39.346358,-76.621872,POINT (-76.621872 39.346358)
163268,1270,986,284,0.2880324543610548,University of Maryland-Baltimore County,Baltimore,MD,21250,39.256686,-76.711607,POINT (-76.711607 39.256686)
163286,4228,3130,1098,0.35079872204472845,University of Maryland-College Park,College Park,MD,20742,38.988178,-76.944721,POINT (-76.944721 38.988178)
163338,128,103,25,0.24271844660194175,University of Maryland Eastern Shore,Princess Anne,MD,21853-1299,38.207386,-75.686852,POINT (-75.686852 38.207386)
163453,834,661,173,0.2617246596066566,Morgan State University,Baltimore,MD,21251-0001,39.344161,-76.585565,POINT (-76.585565 39.344161)
164155,1159,888,271,0.30518018018018017,United States Naval Academy,Annapolis,MD,21402-1300,38.980507,-76.481692,POINT (-76.481692 38.980507)
164173,18,11,7,0.6363636363636364,Stevenson University,Stevenson,MD,21153-0641,39.421988,-76.702092,POINT (-76.70209199999999 39.421988)
164988,1625,1105,520,0.47058823529411764,Boston University,Boston,MA,2215,42.351118,-71.107942,POINT (-71.10794199999999 42.351118)
165644,36,33,3,0.09090909090909091,Eastern Nazarene College,Quincy,MA,02170-2999,42.271228,-71.011079,POINT (-71.011079 42.271228)
165699,47,33,14,0.42424242424242425,Endicott College,Beverly,MA,1915,42.553296,-70.840847,POINT (-70.840847 42.553296)
165866,12,12,0,0.0,Framingham State University,Framingham,MA,01701-9101,42.297116,-71.437565,POINT (-71.43756500000001 42.297116)
165884,30,28,2,0.07142857142857142,Benjamin Franklin Institute of Technology,Boston,MA,2116,42.346023,-71.070231,POINT (-71.07023100000001 42.346023)
166027,115,64,51,0.796875,Harvard University,Cambridge,MA,2138,42.374471,-71.118313,POINT (-71.118313 42.374471)
166513,2910,2383,527,0.22114981116240034,University of Massachusetts-Lowell,Lowell,MA,01854-5104,42.652864,-71.326809,POINT (-71.326809 42.652864)
166629,2285,1759,526,0.29903354178510516,University of Massachusetts-Amherst,Amherst,MA,1003,42.385999,-72.526728,POINT (-72.52672800000001 42.385999)
166638,228,198,30,0.15151515151515152,University of Massachusetts-Boston,Boston,MA,02125-3393,42.312881,-71.036865,POINT (-71.03686500000001 42.312881)
166683,1161,557,604,1.0843806104129263,Massachusetts Institute of Technology,Cambridge,MA,02139-4307,42.359243,-71.093226,POINT (-71.093226 42.359243)
166692,632,584,48,0.0821917808219178,Massachusetts Maritime Academy,Buzzards Bay,MA,02532-1803,41.739072,-70.624084,POINT (-70.624084 41.739072)
166850,306,261,45,0.1724137931034483,Merrimack College,North Andover,MA,1845,42.668344,-71.124216,POINT (-71.124216 42.668344)
167358,2975,2006,969,0.4830508474576271,Northeastern University,Boston,MA,02115-5005,42.339992,-71.088782,POINT (-71.08878199999999 42.339992)
167598,11,6,5,0.8333333333333334,Regis College,Weston,MA,02493-1571,42.351291,-71.310561,POINT (-71.31056100000001 42.351291)
167792,5,5,0,0.0,Bard College at Simon's Rock,Great Barrington,MA,01230-9702,42.208803,-73.379201,POINT (-73.37920099999999 42.208803)
167835,113,0,113,inf,Smith College,Northampton,MA,1063,42.318111,-72.638097,POINT (-72.638097 42.318111)
167987,739,623,116,0.18619582664526485,University of Massachusetts-Dartmouth,North Dartmouth,MA,02747-2300,41.62869,-71.004552,POINT (-71.004552 41.62869)
167996,28,26,2,0.07692307692307693,Stonehill College,Easton,MA,02357-6110,42.05905,-71.080632,POINT (-71.08063199999999 42.05905)
168148,884,461,423,0.9175704989154013,Tufts University,Medford,MA,02155-5555,42.40855,-71.118293,POINT (-71.11829299999999 42.40855)
168227,1558,1256,302,0.24044585987261147,Wentworth Institute of Technology,Boston,MA,2115,42.336632,-71.094983,POINT (-71.094983 42.336632)
168254,586,469,117,0.24946695095948826,Western New England University,Springfield,MA,01119-2684,42.115017,-72.520466,POINT (-72.520466 42.115017)
168421,3092,1855,1237,0.6668463611859838,Worcester Polytechnic Institute,Worcester,MA,01609-2280,42.274853,-71.808339,POINT (-71.808339 42.274853)
168607,27,25,2,0.08,Alpena Community College,Alpena,MI,49707,45.081647,-83.445069,POINT (-83.445069 45.081647)
168740,80,64,16,0.25,Andrews University,Berrien Springs,MI,49104,41.963859,-86.355815,POINT (-86.35581500000001 41.963859)
168847,41,37,4,0.10810810810810811,Baker College,Owosso,MI,48867,42.984804,-84.172404,POINT (-84.172404 42.984804)
169080,359,287,72,0.2508710801393728,Calvin University,Grand Rapids,MI,49546,42.929916,-85.587548,POINT (-85.587548 42.929916)
169248,333,269,64,0.2379182156133829,Central Michigan University,Mount Pleasant,MI,48859,43.591203,-84.77525,POINT (-84.77525 43.591203)
169716,190,143,47,0.32867132867132864,University of Detroit Mercy,Detroit,MI,48221-3038,42.414222,-83.139158,POINT (-83.13915799999999 42.414222)
169798,253,205,48,0.23414634146341465,Eastern Michigan University,Ypsilanti,MI,48197,42.251675,-83.627443,POINT (-83.627443 42.251675)
169910,146,129,17,0.13178294573643412,Ferris State University,Big Rapids,MI,49307-2251,43.687724,-85.481925,POINT (-85.481925 43.687724)
169983,1349,1065,284,0.26666666666666666,Kettering University,Flint,MI,48504-6214,43.012468,-83.71282,POINT (-83.71281999999999 43.012468)
170037,34,23,11,0.4782608695652174,Cornerstone University,Grand Rapids,MI,49525-5897,42.979966,-85.595328,POINT (-85.59532799999999 42.979966)
170082,1083,891,192,0.21548821548821548,Grand Valley State University,Allendale,MI,49401-9403,42.963001,-85.889826,POINT (-85.889826 42.963001)
170240,544,467,77,0.16488222698072805,Henry Ford College,Dearborn,MI,48128-1495,42.324639,-83.236056,POINT (-83.236056 42.324639)
170301,138,88,50,0.5681818181818182,Hope College,Holland,MI,49422-9000,42.787298,-86.102089,POINT (-86.10208900000001 42.787298)
170444,21,20,1,0.05,Jackson College,Jackson,MI,49201-8399,42.16483,-84.403942,POINT (-84.403942 42.16483)
170639,140,118,22,0.1864406779661017,Lake Superior State University,Sault Ste Marie,MI,49783,46.492849,-84.365573,POINT (-84.365573 46.492849)
170675,805,621,184,0.2962962962962963,Lawrence Technological University,Southfield,MI,48075-1058,42.474072,-83.25003,POINT (-83.25003 42.474072)
170976,5367,3732,1635,0.43810289389067525,University of Michigan-Ann Arbor,Ann Arbor,MI,48109,42.275921,-83.742769,POINT (-83.742769 42.275921)
171100,4184,3136,1048,0.33418367346938777,Michigan State University,East Lansing,MI,48824-1046,42.73212,-84.476111,POINT (-84.476111 42.73212)
171128,3457,2603,854,0.32808298117556667,Michigan Technological University,Houghton,MI,49931-1295,47.11866,-88.548092,POINT (-88.548092 47.11866)
171137,1687,1332,355,0.26651651651651653,University of Michigan-Dearborn,Dearborn,MI,48128-1491,42.317287,-83.231417,POINT (-83.23141699999999 42.317287)
171146,278,230,48,0.20869565217391303,University of Michigan-Flint,Flint,MI,48502-1950,43.01875,-83.690276,POINT (-83.690276 43.01875)
171456,8,6,2,0.3333333333333333,Northern Michigan University,Marquette,MI,49855-5301,46.559751,-87.406568,POINT (-87.40656799999999 46.559751)
171483,99,87,12,0.13793103448275862,Northwestern Michigan College,Traverse City,MI,49686,44.765436,-85.585517,POINT (-85.585517 44.765436)
171571,1876,1501,375,0.2498334443704197,Oakland University,Rochester Hills,MI,48309-4401,42.674573,-83.216418,POINT (-83.216418 42.674573)
172051,422,369,53,0.14363143631436315,Saginaw Valley State University,University Center,MI,48710,43.51176,-83.964273,POINT (-83.96427300000001 43.51176)
172200,290,233,57,0.2446351931330472,Schoolcraft College,Livonia,MI,48152-2696,42.419279,-83.430958,POINT (-83.430958 42.419279)
172264,37,30,7,0.23333333333333334,Siena Heights University,Adrian,MI,49221,41.905624,-84.018841,POINT (-84.01884099999999 41.905624)
172334,18,15,3,0.2,Spring Arbor University,Spring Arbor,MI,49283-9799,42.206568,-84.556074,POINT (-84.556074 42.206568)
172644,1428,1040,388,0.3730769230769231,Wayne State University,Detroit,MI,48202,42.358994,-83.068998,POINT (-83.06899799999999 42.358994)
172699,1730,1402,328,0.23395149786019973,Western Michigan University,Kalamazoo,MI,49008-5200,42.282194,-85.613759,POINT (-85.613759 42.282194)
173142,38,33,5,0.15151515151515152,Bethany Lutheran College,Mankato,MN,56001,44.166649,-93.990805,POINT (-93.99080499999999 44.166649)
173160,98,87,11,0.12643678160919541,Bethel University,Saint Paul,MN,55112,45.057655,-93.161663,POINT (-93.161663 45.057655)
173665,5,4,1,0.25,Hamline University,Saint Paul,MN,55104-1284,44.966246,-93.164479,POINT (-93.164479 44.966246)
173920,787,676,111,0.16420118343195267,Minnesota State University-Mankato,Mankato,MN,56001,44.146712,-93.99945,POINT (-93.99945 44.146712)
174066,4219,2966,1253,0.4224544841537424,University of Minnesota-Twin Cities,Minneapolis,MN,55455-0213,44.972851,-93.235464,POINT (-93.23546399999999 44.972851)
174075,37,30,7,0.23333333333333334,University of Minnesota-Crookston,Crookston,MN,56716-5001,47.802536,-96.606188,POINT (-96.606188 47.802536)
174233,625,524,101,0.19274809160305342,University of Minnesota-Duluth,Duluth,MN,55812,46.817126,-92.084385,POINT (-92.084385 46.817126)
174358,8,5,3,0.6,Minnesota State University Moorhead,Moorhead,MN,56563,46.867153,-96.759532,POINT (-96.75953199999999 46.867153)
174491,91,72,19,0.2638888888888889,University of Northwestern-St Paul,Saint Paul,MN,55113-1598,45.033703,-93.167822,POINT (-93.167822 45.033703)
174783,543,484,59,0.12190082644628099,Saint Cloud State University,Saint Cloud,MN,56301-4498,45.553227,-94.152657,POINT (-94.152657 45.553227)
174817,4,3,1,0.3333333333333333,Saint Mary's University of Minnesota,Winona,MN,55987-1399,44.044736,-91.695449,POINT (-91.695449 44.044736)
174914,654,521,133,0.255278310940499,University of St Thomas,Saint Paul,MN,55105-1078,44.943439,-93.188986,POINT (-93.188986 44.943439)
175014,33,22,11,0.5,Rasmussen University-Minnesota,St. Cloud,MN,56301-3713,45.548117,-94.206254,POINT (-94.206254 45.548117)
175227,170,156,14,0.08974358974358974,Dunwoody College of Technology,Minneapolis,MN,55403-1192,44.97281,-93.290608,POINT (-93.29060800000001 44.97281)
175272,107,96,11,0.11458333333333333,Winona State University,Winona,MN,55987-5838,44.046159,-91.643723,POINT (-91.64372299999999 44.046159)
175856,318,241,77,0.31950207468879666,Jackson State University,Jackson,MS,39217,32.296105,-90.207405,POINT (-90.20740499999999 32.296105)
176017,971,720,251,0.3486111111111111,University of Mississippi,University,MS,38677-1848,34.365529,-89.537434,POINT (-89.537434 34.365529)
176053,29,23,6,0.2608695652173913,Mississippi College,Clinton,MS,39058,32.335515,-90.329821,POINT (-90.329821 32.335515)
176080,3740,2902,838,0.28876636802205374,Mississippi State University,Mississippi State,MS,39762,33.454852,-88.790139,POINT (-88.790139 33.454852)
176372,141,102,39,0.38235294117647056,University of Southern Mississippi,Hattiesburg,MS,39406-0001,31.32661,-89.331236,POINT (-89.331236 31.32661)
176965,30,24,6,0.25,University of Central Missouri,Warrensburg,MO,64093,38.759111,-93.737428,POINT (-93.73742799999999 38.759111)
177065,8,4,4,1.0,Columbia College,Columbia,MO,65216,38.957388,-92.326354,POINT (-92.32635399999999 38.957388)
177214,46,36,10,0.2777777777777778,Drury University,Springfield,MO,65802-3791,37.219681,-93.286192,POINT (-93.286192 37.219681)
177339,2,2,0,0.0,Evangel University,Springfield,MO,65802-2125,37.220956,-93.262614,POINT (-93.262614 37.220956)
178396,2046,1591,455,0.28598365807668136,University of Missouri-Columbia,Columbia,MO,65211,38.94531,-92.328843,POINT (-92.32884300000001 38.94531)
178402,561,468,93,0.1987179487179487,University of Missouri-Kansas City,Kansas City,MO,64110,39.034179,-94.582141,POINT (-94.58214099999999 39.034179)
178411,4089,3246,843,0.25970425138632164,Missouri University of Science and Technology,Rolla,MO,65409,37.953426,-91.775583,POINT (-91.775583 37.953426)
178420,290,228,62,0.2719298245614035,University of Missouri-St Louis,Saint Louis,MO,63121-4400,38.710312,-90.311091,POINT (-90.311091 38.710312)
178697,73,65,8,0.12307692307692308,College of the Ozarks,Point Lookout,MO,65726-0017,36.616019,-93.238174,POINT (-93.238174 36.616019)
178721,3,2,1,0.5,Park University,Parkville,MO,64152-3795,39.189256,-94.679041,POINT (-94.679041 39.189256)
179043,66,54,12,0.2222222222222222,Rockhurst University,Kansas City,MO,64110-2561,39.032318,-94.573003,POINT (-94.573003 39.032318)
179159,657,432,225,0.5208333333333334,Saint Louis University,Saint Louis,MO,63103-2097,38.636801,-90.2351,POINT (-90.2351 38.636801)
179557,75,60,15,0.25,Southeast Missouri State University,Cape Girardeau,MO,63701,37.311107,-89.531187,POINT (-89.531187 37.311107)
179566,216,188,28,0.14893617021276595,Missouri State University-Springfield,Springfield,MO,65897,37.199258,-93.281281,POINT (-93.28128100000001 37.199258)
179867,822,525,297,0.5657142857142857,Washington University in St Louis,Saint Louis,MO,63130-4899,38.647929,-90.310604,POINT (-90.310604 38.647929)
179894,6,6,0,0.0,Webster University,Saint Louis,MO,63119-3194,38.588875,-90.345151,POINT (-90.345151 38.588875)
179955,38,34,4,0.11764705882352941,William Jewell College,Liberty,MO,64068-1896,39.247844,-94.413126,POINT (-94.41312600000001 39.247844)
179964,3,3,0,0.0,William Woods University,Fulton,MO,65251-2388,38.860287,-91.950416,POINT (-91.950416 38.860287)
180106,51,39,12,0.3076923076923077,Carroll College,Helena,MT,59625-0002,46.600771,-112.040285,POINT (-112.040285 46.600771)
180416,690,574,116,0.20209059233449478,Montana Technological University,Butte,MT,59701-8997,46.012868,-112.559511,POINT (-112.559511 46.012868)
180461,2463,1941,522,0.2689335394126739,Montana State University,Bozeman,MT,59717,45.666726,-111.048812,POINT (-111.048812 45.666726)
180647,3,2,1,0.5,Salish Kootenai College,Pablo,MT,59855,47.598592,-114.111635,POINT (-114.111635 47.598592)
181020,51,43,8,0.18604651162790697,Doane University,Crete,NE,68333,40.622952,-96.950932,POINT (-96.95093199999999 40.622952)
181464,2557,2156,401,0.1859925788497217,University of Nebraska-Lincoln,Lincoln,NE,68588-0419,40.817598,-96.700508,POINT (-96.700508 40.817598)
182005,24,23,1,0.043478260869565216,College of Southern Nevada,Las Vegas,NV,89146-1164,36.158114,-115.233099,POINT (-115.233099 36.158114)
182281,1686,1366,320,0.2342606149341142,University of Nevada-Las Vegas,Las Vegas,NV,89154,36.106047,-115.138462,POINT (-115.138462 36.106047)
182290,2687,2152,535,0.24860594795539034,University of Nevada-Reno,Reno,NV,89557,39.543642,-119.815377,POINT (-119.815377 39.543642)
182670,202,129,73,0.5658914728682171,Dartmouth College,Hanover,NH,03755-3529,43.704115,-72.289949,POINT (-72.28994899999999 43.704115)
183026,127,106,21,0.19811320754716982,Southern New Hampshire University,Manchester,NH,03106-1045,43.038922,-71.451842,POINT (-71.451842 43.038922)
183044,1200,934,266,0.284796573875803,University of New Hampshire-Main Campus,Durham,NH,03824-3547,43.135934,-70.932465,POINT (-70.93246499999999 43.135934)
183239,6,6,0,0.0,Saint Anselm College,Manchester,NH,03102-1310,42.986889,-71.503622,POINT (-71.50362199999999 42.986889)
184603,207,175,32,0.18285714285714286,Fairleigh Dickinson University-Metropolitan Campus,Teaneck,NJ,7666,40.897209,-74.028986,POINT (-74.028986 40.897209)
184782,1448,1137,311,0.27352682497801234,Rowan University,Glassboro,NJ,8028,39.709108,-75.119119,POINT (-75.119119 39.709108)
185572,42,34,8,0.23529411764705882,Monmouth University,West Long Branch,NJ,07764-1898,40.280066,-74.006447,POINT (-74.00644699999999 40.280066)
185828,3414,2714,700,0.2579218865143699,New Jersey Institute of Technology,Newark,NJ,7102,40.741997,-74.177113,POINT (-74.17711300000001 40.741997)
186131,625,360,265,0.7361111111111112,Princeton University,Princeton,NJ,08544-0070,40.348732,-74.659365,POINT (-74.65936499999999 40.348732)
186380,3016,2185,831,0.38032036613272313,Rutgers University-New Brunswick,New Brunswick,NJ,08901-1281,40.498769,-74.446251,POINT (-74.446251 40.498769)
186399,5,3,2,0.6666666666666666,Rutgers University-Newark,Newark,NJ,7102,40.739122,-74.175809,POINT (-74.175809 40.739122)
186618,26,23,3,0.13043478260869565,Saint Elizabeth University,Morristown,NJ,7960,40.78182,-74.438221,POINT (-74.438221 40.78182)
186867,1941,1391,550,0.39539899352983465,Stevens Institute of Technology,Hoboken,NJ,07030-5991,40.744776,-74.025334,POINT (-74.025334 40.744776)
187134,680,500,180,0.36,The College of New Jersey,Ewing,NJ,08628-7718,40.268651,-74.778791,POINT (-74.778791 40.268651)
187596,60,38,22,0.5789473684210527,Navajo Technical University,Crownpoint,NM,87313-0849,35.687431,-108.149392,POINT (-108.149392 35.687431)
187897,12,10,2,0.2,New Mexico Highlands University,Las Vegas,NM,87701,35.596233,-105.219197,POINT (-105.219197 35.596233)
187967,673,507,166,0.32741617357001973,New Mexico Institute of Mining and Technology,Socorro,NM,87801,34.067041,-106.905211,POINT (-106.905211 34.067041)
187985,1479,1071,408,0.38095238095238093,University of New Mexico-Main Campus,Albuquerque,NM,87106,35.083868,-106.620155,POINT (-106.620155 35.083868)
188030,1411,1049,362,0.34509056244041947,New Mexico State University-Main Campus,Las Cruces,NM,88003-8001,32.281568,-106.752069,POINT (-106.752069 32.281568)
188058,7,4,3,0.75,Northern New Mexico College,Espanola,NM,87532,36.004073,-106.084395,POINT (-106.084395 36.004073)
188340,132,112,20,0.17857142857142858,Vaughn College of Aeronautics and Technology,Flushing,NY,11369,40.768348,-73.881721,POINT (-73.881721 40.768348)
188641,349,313,36,0.11501597444089456,Alfred University,Alfred,NY,14802-1205,42.254476,-77.788106,POINT (-77.788106 42.254476)
189705,11,8,3,0.375,Canisius College,Buffalo,NY,14208-1098,42.925206,-78.852577,POINT (-78.852577 42.925206)
190044,1626,1255,371,0.29561752988047807,Clarkson University,Potsdam,NY,13699,44.662716,-74.999359,POINT (-74.999359 44.662716)
190150,580,310,270,0.8709677419354839,Columbia University in the City of New York,New York,NY,10027,40.808286,-73.961885,POINT (-73.961885 40.808286)
190372,439,306,133,0.434640522875817,Cooper Union for the Advancement of Science and Art,New York,NY,10003-7120,40.728148,-73.991609,POINT (-73.991609 40.728148)
190415,2654,1324,1330,1.0045317220543806,Cornell University,Ithaca,NY,14853,42.4472,-76.483084,POINT (-76.48308400000001 42.4472)
190558,557,490,67,0.13673469387755102,College of Staten Island CUNY,Staten Island,NY,10314,40.601831,-74.14849,POINT (-74.14849 40.601831)
190567,1947,1437,510,0.35490605427974947,CUNY City College,New York,NY,10031,40.819846,-73.948542,POINT (-73.948542 40.819846)
191241,78,51,27,0.5294117647058824,Fordham University,Bronx,NY,10458,40.859354,-73.882705,POINT (-73.882705 40.859354)
191649,516,401,115,0.286783042394015,Hofstra University,Hempstead,NY,11549,40.715959,-73.60078,POINT (-73.60078 40.715959)
191676,4,4,0,0.0,Houghton College,Houghton,NY,14744,42.426137,-78.155426,POINT (-78.15542600000001 42.426137)
192703,982,767,215,0.2803129074315515,Manhattan College,Riverdale,NY,10471-4098,40.889756,-73.901893,POINT (-73.901893 40.889756)
193900,1210,787,423,0.5374841168996188,New York University,New York,NY,10012-1091,40.729452,-73.997264,POINT (-73.997264 40.729452)
194091,463,394,69,0.1751269035532995,New York Institute of Technology,Old Westbury,NY,11568-8000,40.812447,-73.6078,POINT (-73.6078 40.812447)
194310,3,3,0,0.0,Pace University,New York,NY,10038-1598,40.711014,-74.004719,POINT (-74.00471899999999 40.711014)
194824,2878,1987,891,0.44841469552088575,Rensselaer Polytechnic Institute,Troy,NY,12180-3590,42.729978,-73.676646,POINT (-73.67664600000001 42.729978)
195003,3131,2415,716,0.29648033126293993,Rochester Institute of Technology,Rochester,NY,14623-5603,43.084188,-77.67386,POINT (-77.67386 43.084188)
195030,897,544,353,0.6488970588235294,University of Rochester,Rochester,NY,14627-0011,43.126397,-77.631202,POINT (-77.631202 43.126397)
195474,36,22,14,0.6363636363636364,Siena College,Loudonville,NY,12211-1462,42.717602,-73.7526,POINT (-73.7526 42.717602)
196006,6,6,0,0.0,SUNY College of Technology at Alfred,Alfred,NY,14802,42.255262,-77.794632,POINT (-77.79463199999999 42.255262)
196015,31,26,5,0.19230769230769232,SUNY College of Technology at Canton,Canton,NY,13617-1098,44.604096,-75.182906,POINT (-75.182906 44.604096)
196051,9,5,4,0.8,SUNY Morrisville,Morrisville,NY,13408,42.893962,-75.640583,POINT (-75.64058300000001 42.893962)
196060,127,107,20,0.18691588785046728,SUNY at Albany,Albany,NY,12222,42.685489,-73.824662,POINT (-73.824662 42.685489)
196079,1449,1064,385,0.3618421052631579,Binghamton University,Vestal,NY,13850-6000,42.087868,-75.966889,POINT (-75.96688899999999 42.087868)
196088,3705,2927,778,0.2658011615989067,University at Buffalo,Buffalo,NY,14260-1660,43.000942,-78.789458,POINT (-78.789458 43.000942)
196097,1314,1014,300,0.2958579881656805,Stony Brook University,Stony Brook,NY,11794-0701,40.91476,-73.12046,POINT (-73.12045999999999 40.91476)
196103,226,130,96,0.7384615384615385,SUNY College of Environmental Science and Forestry,Syracuse,NY,13210,43.034765,-76.138724,POINT (-76.138724 43.034765)
196112,365,296,69,0.23310810810810811,SUNY Polytechnic Institute,Utica,NY,13502,43.137701,-75.229841,POINT (-75.22984099999999 43.137701)
196176,331,280,51,0.18214285714285713,State University of New York at New Paltz,New Paltz,NY,12561-2443,41.740936,-74.082188,POINT (-74.082188 41.740936)
196194,101,92,9,0.09782608695652174,SUNY College at Oswego,Oswego,NY,13126,43.454287,-76.540798,POINT (-76.540798 43.454287)
196291,590,514,76,0.14785992217898833,SUNY Maritime College,Throggs Neck,NY,10465-4198,40.807217,-73.795309,POINT (-73.795309 40.807217)
196413,990,693,297,0.42857142857142855,Syracuse University,Syracuse,NY,13244,43.040176,-76.136975,POINT (-76.13697500000001 43.040176)
196866,408,289,119,0.4117647058823529,Union College,Schenectady,NY,12308-2311,42.818097,-73.928788,POINT (-73.928788 42.818097)
197027,540,449,91,0.2026726057906459,United States Merchant Marine Academy,Kings Point,NY,11024-1634,40.81357,-73.763004,POINT (-73.763004 40.81357)
197036,767,612,155,0.25326797385620914,United States Military Academy,West  Point,NY,10996-1905,41.390479,-73.956603,POINT (-73.956603 41.390479)
197142,14,12,2,0.16666666666666666,Villa Maria College,Buffalo,NY,14225-3999,42.91223,-78.796823,POINT (-78.796823 42.91223)
197221,101,77,24,0.3116883116883117,Webb Institute,Glen Cove,NY,11542-1398,40.884444,-73.644909,POINT (-73.644909 40.884444)
197708,38,31,7,0.22580645161290322,Yeshiva University,New York,NY,10033-3299,40.850605,-73.929873,POINT (-73.929873 40.850605)
198136,190,160,30,0.1875,Campbell University,Buies Creek,NC,27506,35.409149,-78.738238,POINT (-78.738238 35.409149)
198419,1211,774,437,0.5645994832041343,Duke University,Durham,NC,27708,36.001135,-78.937624,POINT (-78.937624 36.001135)
198464,449,348,101,0.29022988505747127,East Carolina University,Greenville,NC,27858-4353,35.607186,-77.368291,POINT (-77.368291 35.607186)
198516,105,70,35,0.5,Elon University,Elon,NC,27244-2010,36.104148,-79.50344,POINT (-79.50344 36.104148)
198695,22,17,5,0.29411764705882354,High Point University,High Point,NC,27268,35.972035,-79.994675,POINT (-79.994675 35.972035)
198756,26,23,3,0.13043478260869565,Johnson C Smith University,Charlotte,NC,28216-5398,35.243033,-80.857251,POINT (-80.85725100000001 35.243033)
198969,53,46,7,0.15217391304347827,Methodist University,Fayetteville,NC,28311-1420,35.135058,-78.874426,POINT (-78.874426 35.135058)
199102,1594,1052,542,0.5152091254752852,North Carolina A & T State University,Greensboro,NC,27411,36.07282,-79.773375,POINT (-79.773375 36.07282)
199111,97,80,17,0.2125,University of North Carolina at Asheville,Asheville,NC,28804-8510,35.617068,-82.565392,POINT (-82.565392 35.617068)
199120,220,111,109,0.9819819819819819,University of North Carolina at Chapel Hill,Chapel Hill,NC,27599,35.911769,-79.050969,POINT (-79.05096899999999 35.911769)
199139,2420,2108,312,0.14800759013282733,University of North Carolina at Charlotte,Charlotte,NC,28223-0001,35.306022,-80.730919,POINT (-80.730919 35.306022)
199193,6808,4595,2213,0.4816104461371056,North Carolina State University at Raleigh,Raleigh,NC,27695-7001,35.785111,-78.674517,POINT (-78.67451699999999 35.785111)
199218,44,33,11,0.3333333333333333,University of North Carolina Wilmington,Wilmington,NC,28403-5963,34.225223,-77.875527,POINT (-77.87552700000001 34.225223)
199412,1,0,1,inf,Queens University of Charlotte,Charlotte,NC,28274-0001,35.189051,-80.833509,POINT (-80.83350900000001 35.189051)
199582,33,24,9,0.375,Saint Augustine's University,Raleigh,NC,27610-2298,35.785468,-78.621301,POINT (-78.621301 35.785468)
199847,88,50,38,0.76,Wake Forest University,Winston-Salem,NC,27106,36.133609,-80.277446,POINT (-80.277446 36.133609)
200004,344,300,44,0.14666666666666667,Western Carolina University,Cullowhee,NC,28723-9646,35.308979,-83.186258,POINT (-83.186258 35.308979)
200013,11,7,4,0.5714285714285714,Rasmussen University-North Dakota,Fargo,ND,58103-7196,46.848362,-96.848937,POINT (-96.84893700000001 46.848362)
200086,4,2,2,1.0,Nueta Hidatsa Sahnish College,New Town,ND,58763,47.983311,-102.472814,POINT (-102.472814 47.983311)
200156,51,46,5,0.10869565217391304,University of Jamestown,Jamestown,ND,58405,46.914302,-98.698416,POINT (-98.69841599999999 46.914302)
200217,93,80,13,0.1625,University of Mary,Bismarck,ND,58504,46.723767,-100.75274,POINT (-100.75274 46.723767)
200280,1646,1338,308,0.23019431988041852,University of North Dakota,Grand Forks,ND,58202-8193,47.921654,-97.071738,POINT (-97.071738 47.921654)
200332,1843,1575,268,0.17015873015873015,North Dakota State University-Main Campus,Fargo,ND,58108-6050,46.893127,-96.800838,POINT (-96.800838 46.893127)
200466,3,3,0,0.0,Sitting Bull College,Fort Yates,ND,58538-9721,46.085288,-100.674735,POINT (-100.674735 46.085288)
200554,13,9,4,0.4444444444444444,United Tribes Technical College,Bismarck,ND,58504,46.767157,-100.755131,POINT (-100.755131 46.767157)
200572,12,11,1,0.09090909090909091,Valley City State University,Valley City,ND,58072,46.918517,-98.00389,POINT (-98.00389 46.918517)
200800,2479,1929,550,0.28512182477967857,University of Akron Main Campus,Akron,OH,44325-4702,41.078551,-81.511679,POINT (-81.511679 41.078551)
201195,55,45,10,0.2222222222222222,Baldwin Wallace University,Berea,OH,44017-2088,41.373017,-81.851145,POINT (-81.851145 41.373017)
201371,6,5,1,0.2,Bluffton University,Bluffton,OH,45817-2104,40.895606,-83.899439,POINT (-83.899439 40.895606)
201441,583,529,54,0.10207939508506617,Bowling Green State University-Main Campus,Bowling Green,OH,43403,41.375513,-83.640896,POINT (-83.640896 41.375513)
201645,1023,686,337,0.4912536443148688,Case Western Reserve University,Cleveland,OH,44106,41.507419,-81.609596,POINT (-81.609596 41.507419)
201654,396,338,58,0.17159763313609466,Cedarville University,Cedarville,OH,45314-0601,39.749237,-83.814692,POINT (-83.81469199999999 39.749237)
201690,82,56,26,0.4642857142857143,Central State University,Wilberforce,OH,45384-1004,39.715787,-83.880186,POINT (-83.88018599999999 39.715787)
201885,4794,3791,1003,0.2645739910313901,University of Cincinnati-Main Campus,Cincinnati,OH,45221-0063,39.131159,-84.51428,POINT (-84.51428 39.131159)
201928,42,33,9,0.2727272727272727,Cincinnati State Technical and Community College,Cincinnati,OH,45223-2690,39.149915,-84.536936,POINT (-84.536936 39.149915)
201946,490,393,97,0.24681933842239187,University of Cincinnati-Clermont College,Batavia,OH,45103,39.080645,-84.19437,POINT (-84.19437000000001 39.080645)
201955,209,178,31,0.17415730337078653,University of Cincinnati-Blue Ash College,Blue Ash,OH,45236-1096,39.234333,-84.399956,POINT (-84.399956 39.234333)
202134,1401,1118,283,0.25313059033989266,Cleveland State University,Cleveland,OH,44115-2214,41.502281,-81.674355,POINT (-81.67435500000001 41.502281)
202480,1672,1256,416,0.33121019108280253,University of Dayton,Dayton,OH,45469,39.739547,-84.176113,POINT (-84.176113 39.739547)
203368,27,24,3,0.125,John Carroll University,University Heights,OH,44118-4538,41.491321,-81.531338,POINT (-81.53133800000001 41.491321)
203517,167,143,24,0.16783216783216784,Kent State University at Kent,Kent,OH,44242-0001,41.146653,-81.342533,POINT (-81.342533 41.146653)
203748,59,44,15,0.3409090909090909,Lorain County Community College,Elyria,OH,44035-1691,41.413293,-82.073549,POINT (-82.073549 41.413293)
203845,122,104,18,0.17307692307692307,Marietta College,Marietta,OH,45750,39.41668,-81.450045,POINT (-81.450045 39.41668)
204006,49,44,5,0.11363636363636363,Miami University-Hamilton,Hamilton,OH,45011,39.377448,-84.563385,POINT (-84.563385 39.377448)
204015,22,18,4,0.2222222222222222,Miami University-Middletown,Middletown,OH,45042,39.523776,-84.35724,POINT (-84.35724 39.523776)
204024,1127,869,258,0.29689298043728424,Miami University-Oxford,Oxford,OH,45056,39.507757,-84.732954,POINT (-84.73295400000001 39.507757)
204185,99,82,17,0.2073170731707317,University of Mount Union,Alliance,OH,44601-3929,40.905256,-81.111029,POINT (-81.111029 40.905256)
204194,51,48,3,0.0625,Mount Vernon Nazarene University,Mount Vernon,OH,43050-9500,40.372901,-82.471074,POINT (-82.471074 40.372901)
204255,40,34,6,0.17647058823529413,Zane State College,Zanesville,OH,43701-2626,39.96241,-82.031198,POINT (-82.031198 39.96241)
204264,31,27,4,0.14814814814814814,Muskingum University,New Concord,OH,43762,39.996585,-81.737127,POINT (-81.737127 39.996585)
204501,9,5,4,0.8,Oberlin College,Oberlin,OH,44074,41.291992,-82.216795,POINT (-82.216795 41.291992)
204617,9,8,1,0.125,Ohio Dominican University,Columbus,OH,43219,39.992764,-82.940689,POINT (-82.94068900000001 39.992764)
204635,524,442,82,0.18552036199095023,Ohio Northern University,Ada,OH,45810-1599,40.7662,-83.827441,POINT (-83.82744099999999 40.7662)
204671,10,8,2,0.25,Ohio State University-Lima Campus,Lima,OH,45804,40.738521,-84.02384,POINT (-84.02384000000001 40.738521)
204680,10,10,0,0.0,Ohio State University-Mansfield Campus,Mansfield,OH,44906,40.796536,-82.580194,POINT (-82.58019400000001 40.796536)
204699,46,39,7,0.1794871794871795,Ohio State University-Marion Campus,Marion,OH,43302-5695,40.577779,-83.090597,POINT (-83.090597 40.577779)
204705,16,14,2,0.14285714285714285,Ohio State University-Newark Campus,Newark,OH,43055,40.069314,-82.447441,POINT (-82.447441 40.069314)
204796,7687,5921,1766,0.29826042898159094,Ohio State University-Main Campus,Columbus,OH,43210,39.999324,-83.014853,POINT (-83.014853 39.999324)
204802,16,16,0,0.0,Ohio University-Eastern Campus,Saint Clairsville,OH,43950,40.073392,-80.976073,POINT (-80.976073 40.073392)
204820,28,25,3,0.12,Ohio University-Chillicothe Campus,Chillicothe,OH,45601-0629,39.329404,-83.002175,POINT (-83.00217499999999 39.329404)
204839,23,19,4,0.21052631578947367,Ohio University-Southern Campus,Ironton,OH,45638,38.524781,-82.666876,POINT (-82.666876 38.524781)
204848,65,55,10,0.18181818181818182,Ohio University-Lancaster Campus,Lancaster,OH,43130-1037,39.738752,-82.586069,POINT (-82.58606899999999 39.738752)
204857,1268,1032,236,0.22868217054263565,Ohio University-Main Campus,Athens,OH,45701-2979,39.326798,-82.100985,POINT (-82.10098499999999 39.326798)
204866,17,13,4,0.3076923076923077,Ohio University-Zanesville Campus,Zanesville,OH,43701,39.96098,-82.031063,POINT (-82.031063 39.96098)
204936,100,90,10,0.1111111111111111,Otterbein University,Westerville,OH,43081,40.125327,-82.936444,POINT (-82.93644399999999 40.125327)
205443,34,26,8,0.3076923076923077,Shawnee State University,Portsmouth,OH,45662,38.730867,-82.993769,POINT (-82.993769 38.730867)
205470,427,359,68,0.1894150417827298,Sinclair Community College,Dayton,OH,45402-1460,39.757598,-84.200628,POINT (-84.20062799999999 39.757598)
205957,34,29,5,0.1724137931034483,Franciscan University of Steubenville,Steubenville,OH,43952-1763,40.376919,-80.620524,POINT (-80.620524 40.376919)
206084,2628,2100,528,0.25142857142857145,University of Toledo,Toledo,OH,43606-3390,41.660572,-83.614714,POINT (-83.61471400000001 41.660572)
206491,12,11,1,0.09090909090909091,Wilberforce University,Wilberforce,OH,45384-1001,39.707291,-83.880595,POINT (-83.880595 39.707291)
206604,951,761,190,0.24967148488830487,Wright State University-Main Campus,Dayton,OH,45435-0001,39.780634,-84.064881,POINT (-84.064881 39.780634)
206613,160,153,7,0.0457516339869281,Wright State University-Lake Campus,Celina,OH,45822-2952,40.546074,-84.509194,POINT (-84.50919399999999 40.546074)
206622,28,18,10,0.5555555555555556,Xavier University,Cincinnati,OH,45207-1092,39.149547,-84.47465,POINT (-84.47465 39.149547)
206695,949,774,175,0.22609819121447028,Youngstown State University,Youngstown,OH,44555-0001,41.104928,-80.64659,POINT (-80.64659 41.104928)
206914,40,30,10,0.3333333333333333,Cameron University,Lawton,OK,73505-6377,34.606487,-98.434163,POINT (-98.434163 34.606487)
206941,469,369,100,0.27100271002710025,University of Central Oklahoma,Edmond,OK,73034,35.6552,-97.471508,POINT (-97.471508 35.6552)
207263,13,13,0,0.0,Northeastern State University,Tahlequah,OK,74464-2399,35.919939,-94.967229,POINT (-94.967229 35.919939)
207324,183,163,20,0.12269938650306748,Oklahoma Christian University,Edmond,OK,73013,35.611412,-97.469526,POINT (-97.469526 35.611412)
207388,2454,1941,513,0.2642967542503864,Oklahoma State University-Main Campus,Stillwater,OK,74078-1015,36.123085,-97.069743,POINT (-97.069743 36.123085)
207500,2884,2123,761,0.35845501648610456,University of Oklahoma-Norman Campus,Norman,OK,73019-3072,35.209407,-97.444211,POINT (-97.444211 35.209407)
207582,157,130,27,0.2076923076923077,Oral Roberts University,Tulsa,OK,74171,36.049129,-95.952547,POINT (-95.952547 36.049129)
207865,25,19,6,0.3157894736842105,Southwestern Oklahoma State University,Weatherford,OK,73096-3001,35.535281,-98.707768,POINT (-98.707768 35.535281)
207971,599,458,141,0.3078602620087336,University of Tulsa,Tulsa,OK,74104-3189,36.152324,-95.945941,POINT (-95.945941 36.152324)
208822,257,199,58,0.2914572864321608,George Fox University,Newberg,OR,97132,45.303629,-122.967494,POINT (-122.967494 45.303629)
209065,8,8,0,0.0,Linfield University-McMinnville Campus,McMinnville,OR,97128-6894,45.201173,-123.199642,POINT (-123.199642 45.201173)
209506,742,643,99,0.15396578538102643,Oregon Institute of Technology,Klamath Falls,OR,97601-8801,42.257152,-121.785177,POINT (-121.785177 42.257152)
209542,5060,3954,1106,0.2797167425392008,Oregon State University,Corvallis,OR,97331,44.56395,-123.274723,POINT (-123.274723 44.56395)
209551,3,2,1,0.5,University of Oregon,Eugene,OR,97403,44.045146,-123.075792,POINT (-123.075792 44.045146)
209807,1204,981,223,0.2273190621814475,Portland State University,Portland,OR,97201,45.511601,-122.686289,POINT (-122.686289 45.511601)
209825,427,318,109,0.34276729559748426,University of Portland,Portland,OR,97203-5798,45.572724,-122.726691,POINT (-122.726691 45.572724)
211158,46,44,2,0.045454545454545456,Bloomsburg University of Pennsylvania,Bloomsburg,PA,17815,41.00782,-76.447844,POINT (-76.447844 41.00782)
211291,707,481,226,0.4698544698544699,Bucknell University,Lewisburg,PA,17837,40.954317,-76.882616,POINT (-76.882616 40.954317)
211361,105,93,12,0.12903225806451613,California University of Pennsylvania,California,PA,15419-1394,40.064964,-79.88679,POINT (-79.88679 40.064964)
211440,1583,928,655,0.7058189655172413,Carnegie Mellon University,Pittsburgh,PA,15213-3890,40.44357,-79.941993,POINT (-79.941993 40.44357)
212054,3106,2278,828,0.36347673397717295,Drexel University,Philadelphia,PA,19104,39.955217,-75.190051,POINT (-75.190051 39.955217)
212106,110,48,62,1.2916666666666667,Duquesne University,Pittsburgh,PA,15282,40.43589,-79.993123,POINT (-79.993123 40.43589)
212197,180,146,34,0.2328767123287671,Elizabethtown College,Elizabethtown,PA,17022-2298,40.149236,-76.593224,POINT (-76.59322400000001 40.149236)
212601,245,169,76,0.44970414201183434,Gannon University,Erie,PA,16541-0001,42.128403,-80.087166,POINT (-80.087166 42.128403)
212656,182,146,36,0.2465753424657534,Geneva College,Beaver Falls,PA,15010-3599,40.772518,-80.321826,POINT (-80.321826 40.772518)
212805,289,239,50,0.20920502092050208,Grove City College,Grove City,PA,16127-2104,41.1558,-80.081481,POINT (-80.081481 41.1558)
213020,33,21,12,0.5714285714285714,Indiana University of Pennsylvania-Main Campus,Indiana,PA,15705-1098,40.617531,-79.159332,POINT (-79.15933200000001 40.617531)
213251,25,21,4,0.19047619047619047,Juniata College,Huntingdon,PA,16652-2196,40.500523,-78.017292,POINT (-78.017292 40.500523)
213321,41,33,8,0.24242424242424243,King's College,Wilkes-Barre,PA,18711-0801,41.250097,-75.879822,POINT (-75.879822 41.250097)
213385,644,431,213,0.494199535962877,Lafayette College,Easton,PA,18042-1768,40.69956,-75.209786,POINT (-75.20978599999999 40.69956)
213543,958,632,326,0.5158227848101266,Lehigh University,Bethlehem,PA,18015,40.606822,-75.380236,POINT (-75.380236 40.606822)
213598,31,23,8,0.34782608695652173,Lincoln University,Lincoln University,PA,19352-0999,39.807723,-75.926458,POINT (-75.926458 39.807723)
213996,237,181,56,0.30939226519337015,Messiah University,Mechanicsburg,PA,17055,40.156579,-76.988269,POINT (-76.988269 40.156579)
214041,10,10,0,0.0,Millersville University of Pennsylvania,Millersville,PA,17551-0302,40.000337,-76.357381,POINT (-76.357381 40.000337)
214272,4,3,1,0.3333333333333333,Neumann University,Aston,PA,19014-1298,39.874876,-75.440022,POINT (-75.440022 39.874876)
215062,926,525,401,0.7638095238095238,University of Pennsylvania,Philadelphia,PA,19104-6303,39.950929,-75.19391,POINT (-75.19391 39.950929)
215266,64,57,7,0.12280701754385964,University of Pittsburgh-Bradford,Bradford,PA,16701,41.943415,-78.673701,POINT (-78.67370099999999 41.943415)
215284,579,484,95,0.1962809917355372,University of Pittsburgh-Johnstown,Johnstown,PA,15904,40.265957,-78.834163,POINT (-78.834163 40.265957)
215293,2734,1815,919,0.50633608815427,University of Pittsburgh-Pittsburgh Campus,Pittsburgh,PA,15260,40.444388,-79.953254,POINT (-79.953254 40.444388)
215442,83,70,13,0.18571428571428572,Point Park University,Pittsburgh,PA,15222-1984,40.438768,-80.002061,POINT (-80.002061 40.438768)
215655,289,218,71,0.3256880733944954,Robert Morris University,Moon Township,PA,15108-1189,40.520415,-80.210468,POINT (-80.21046800000001 40.520415)
215743,71,57,14,0.24561403508771928,Saint Francis University,Loretto,PA,15940,40.506734,-78.63904,POINT (-78.63903999999999 40.506734)
215798,57,44,13,0.29545454545454547,Saint Vincent College,Latrobe,PA,15650-2690,40.29265,-79.403762,POINT (-79.403762 40.29265)
215929,55,48,7,0.14583333333333334,University of Scranton,Scranton,PA,18510-4699,41.406556,-75.656915,POINT (-75.656915 41.406556)
216010,229,198,31,0.15656565656565657,Shippensburg University of Pennsylvania,Shippensburg,PA,17257-2299,40.057933,-77.522335,POINT (-77.522335 40.057933)
216038,148,126,22,0.1746031746031746,Slippery Rock University of Pennsylvania,Slippery Rock,PA,16057-1383,41.062719,-80.045965,POINT (-80.045965 41.062719)
216287,44,30,14,0.4666666666666667,Swarthmore College,Swarthmore,PA,19081,39.905159,-75.354278,POINT (-75.35427799999999 39.905159)
216339,1360,997,363,0.3640922768304915,Temple University,Philadelphia,PA,19122-6096,39.980546,-75.156859,POINT (-75.156859 39.980546)
216357,8,7,1,0.14285714285714285,Thiel College,Greenville,PA,16125-2181,41.41354,-80.384383,POINT (-80.384383 41.41354)
216366,59,41,18,0.43902439024390244,Thomas Jefferson University,Philadelphia,PA,19107,39.948274,-75.158266,POINT (-75.158266 39.948274)
216524,7,6,1,0.16666666666666666,Ursinus College,Collegeville,PA,19426-1000,40.193023,-75.456505,POINT (-75.45650500000001 40.193023)
216597,1064,716,348,0.4860335195530726,Villanova University,Villanova,PA,19085-1699,40.039388,-75.345457,POINT (-75.345457 40.039388)
216764,36,22,14,0.6363636363636364,West Chester University of Pennsylvania,West Chester,PA,19383,39.953398,-75.59812,POINT (-75.59811999999999 39.953398)
216807,10,9,1,0.1111111111111111,Westminster College,New Wilmington,PA,16172,41.119272,-80.331017,POINT (-80.331017 41.119272)
216852,466,354,112,0.3163841807909605,Widener University,Chester,PA,19013-5792,39.861689,-75.355363,POINT (-75.355363 39.861689)
216931,311,255,56,0.2196078431372549,Wilkes University,Wilkes-Barre,PA,18766,41.244199,-75.890262,POINT (-75.89026200000001 41.244199)
217059,395,347,48,0.138328530259366,York College of Pennsylvania,York,PA,17403-3651,39.94614,-76.727984,POINT (-76.72798400000001 39.94614)
217156,202,118,84,0.711864406779661,Brown University,Providence,RI,2912,41.82617,-71.40385,POINT (-71.40385000000001 41.82617)
217235,67,45,22,0.4888888888888889,Johnson & Wales University-Providence,Providence,RI,02903-3703,41.819956,-71.41277,POINT (-71.41276999999999 41.819956)
217402,31,18,13,0.7222222222222222,Providence College,Providence,RI,02918-0001,41.842742,-71.437446,POINT (-71.43744599999999 41.842742)
217484,1476,1121,355,0.31668153434433544,University of Rhode Island,Kingston,RI,2881,41.484691,-71.527356,POINT (-71.527356 41.484691)
217518,255,205,50,0.24390243902439024,Roger Williams University,Bristol,RI,02809-2921,41.650214,-71.260374,POINT (-71.260374 41.650214)
217688,33,26,7,0.2692307692307692,Charleston Southern University,Charleston,SC,29406-9121,32.983047,-80.072587,POINT (-80.072587 32.983047)
217721,66,45,21,0.4666666666666667,Benedict College,Columbia,SC,29204-1086,34.012941,-81.020403,POINT (-81.020403 34.012941)
217749,94,82,12,0.14634146341463414,Bob Jones University,Greenville,SC,29614-0001,34.874016,-82.365838,POINT (-82.365838 34.874016)
217819,19,13,6,0.46153846153846156,College of Charleston,Charleston,SC,29424-0001,32.784225,-79.939794,POINT (-79.93979400000001 32.784225)
217864,637,590,47,0.07966101694915254,Citadel Military College of South Carolina,Charleston,SC,29409,32.797183,-79.958775,POINT (-79.958775 32.797183)
217873,53,37,16,0.43243243243243246,Claflin University,Orangeburg,SC,29115-4498,33.498444,-80.854319,POINT (-80.854319 33.498444)
217882,3132,2346,786,0.3350383631713555,Clemson University,Clemson,SC,29634,34.679381,-82.835114,POINT (-82.835114 34.679381)
218061,111,92,19,0.20652173913043478,Francis Marion University,Florence,SC,29506,34.189777,-79.652854,POINT (-79.652854 34.189777)
218070,1,1,0,0.0,Furman University,Greenville,SC,29613-6162,34.924676,-82.440458,POINT (-82.44045800000001 34.924676)
218113,20,19,1,0.05263157894736842,Greenville Technical College,Greenville,SC,29606,34.826212,-82.371178,POINT (-82.371178 34.826212)
218645,109,88,21,0.23863636363636365,University of South Carolina Aiken,Aiken,SC,29801,33.572704,-81.767612,POINT (-81.767612 33.572704)
218663,2108,1603,505,0.31503431066749843,University of South Carolina-Columbia,Columbia,SC,29208,33.996788,-81.026935,POINT (-81.02693499999999 33.996788)
218724,123,95,28,0.29473684210526313,Coastal Carolina University,Conway,SC,29526,33.794995,-79.011767,POINT (-79.01176700000001 33.794995)
218733,65,42,23,0.5476190476190477,South Carolina State University,Orangeburg,SC,29117-0001,33.497968,-80.848722,POINT (-80.848722 33.497968)
218742,13,12,1,0.08333333333333333,University of South Carolina-Upstate,Spartanburg,SC,29303-4999,34.996403,-81.970583,POINT (-81.970583 34.996403)
219000,15,13,2,0.15384615384615385,Augustana University,Sioux Falls,SD,57197-0001,43.525148,-96.736975,POINT (-96.736975 43.525148)
219277,14,7,7,1.0,Oglala Lakota College,Kyle,SD,57752-0490,43.366813,-102.240331,POINT (-102.240331 43.366813)
219347,1476,1173,303,0.25831202046035806,South Dakota School of Mines and Technology,Rapid City,SD,57701-3995,44.075439,-103.205753,POINT (-103.205753 44.075439)
219356,831,730,101,0.13835616438356163,South Dakota State University,Brookings,SD,57007-1898,44.317485,-96.782139,POINT (-96.782139 44.317485)
219471,23,12,11,0.9166666666666666,University of South Dakota,Vermillion,SD,57069-2390,42.786019,-96.925283,POINT (-96.92528299999999 42.786019)
219602,34,29,5,0.1724137931034483,Austin Peay State University,Clarksville,TN,37044,36.533319,-87.354081,POINT (-87.35408099999999 36.533319)
219709,9,7,2,0.2857142857142857,Belmont University,Nashville,TN,37212-3757,36.135589,-86.794807,POINT (-86.79480700000001 36.135589)
219790,41,33,8,0.24242424242424243,Bryan College-Dayton,Dayton,TN,37321,35.497209,-84.999552,POINT (-84.99955199999999 35.497209)
219833,268,202,66,0.32673267326732675,Christian Brothers University,Memphis,TN,38104,35.127437,-89.983241,POINT (-89.98324100000001 35.127437)
219976,226,165,61,0.3696969696969697,Lipscomb University,Nashville,TN,37204-3951,36.106253,-86.799791,POINT (-86.799791 36.106253)
220075,41,40,1,0.025,East Tennessee State University,Johnson City,TN,37614,36.301643,-82.366954,POINT (-82.36695400000001 36.301643)
220215,7,7,0,0.0,Freed-Hardeman University,Henderson,TN,38340-2399,35.440611,-88.637964,POINT (-88.637964 35.440611)
220516,4,3,1,0.3333333333333333,King University,Bristol,TN,37620-2699,36.585309,-82.159421,POINT (-82.15942099999999 36.585309)
220613,15,13,2,0.15384615384615385,Lee University,Cleveland,TN,37311,35.166019,-84.871399,POINT (-84.871399 35.166019)
220710,9,5,4,0.8,Maryville College,Maryville,TN,37804-5907,35.751505,-83.964223,POINT (-83.964223 35.751505)
220862,989,756,233,0.3082010582010582,University of Memphis,Memphis,TN,38152,35.118878,-89.938068,POINT (-89.938068 35.118878)
220978,338,286,52,0.18181818181818182,Middle Tennessee State University,Murfreesboro,TN,37132,35.848005,-86.360618,POINT (-86.360618 35.848005)
221661,17,15,2,0.13333333333333333,Southern Adventist University,Collegedale,TN,37315-0370,35.048254,-85.052088,POINT (-85.052088 35.048254)
221731,14,10,4,0.4,Tennessee Wesleyan University,Athens,TN,37303,35.446331,-84.592728,POINT (-84.59272799999999 35.446331)
221740,812,678,134,0.1976401179941003,The University of Tennessee-Chattanooga,Chattanooga,TN,37403-2598,35.047519,-85.300247,POINT (-85.300247 35.047519)
221759,2934,2185,749,0.34279176201372996,The University of Tennessee-Knoxville,Knoxville,TN,37996,35.952082,-83.925852,POINT (-83.92585200000001 35.952082)
221768,266,220,46,0.20909090909090908,The University of Tennessee-Martin,Martin,TN,38238,36.340338,-88.864211,POINT (-88.864211 36.340338)
221838,414,301,113,0.3754152823920266,Tennessee State University,Nashville,TN,37209-1561,36.166321,-86.828275,POINT (-86.828275 36.166321)
221847,1737,1452,285,0.1962809917355372,Tennessee Technological University,Cookeville,TN,38505-0001,36.174754,-85.504039,POINT (-85.50403900000001 36.174754)
221892,19,14,5,0.35714285714285715,Trevecca Nazarene University,Nashville,TN,37210,36.141324,-86.754238,POINT (-86.754238 36.141324)
221971,39,37,2,0.05405405405405406,Union University,Jackson,TN,38305-3697,35.676896,-88.858524,POINT (-88.858524 35.676896)
221999,858,506,352,0.6956521739130435,Vanderbilt University,Nashville,TN,37240,36.14659,-86.803369,POINT (-86.803369 36.14659)
222178,132,101,31,0.3069306930693069,Abilene Christian University,Abilene,TX,79699,32.468943,-99.709797,POINT (-99.70979699999999 32.468943)
222831,154,132,22,0.16666666666666666,Angelo State University,San Angelo,TX,76909,31.440914,-100.465051,POINT (-100.465051 31.440914)
222992,1387,1107,280,0.2529358626919603,Austin Community College District,Austin,TX,78752,30.322744,-97.712505,POINT (-97.71250499999999 30.322744)
223232,551,397,154,0.3879093198992443,Baylor University,Waco,TX,76798,31.546872,-97.121041,POINT (-97.12104100000001 31.546872)
224147,440,374,66,0.17647058823529413,Texas A & M University-Corpus Christi,Corpus Christi,TX,78412-5503,27.713723,-97.32395,POINT (-97.32395 27.713723)
224545,120,106,14,0.1320754716981132,Texas A&M University-Texarkana,Texarkana,TX,75503,33.490482,-94.103617,POINT (-94.103617 33.490482)
224554,270,231,39,0.16883116883116883,Texas A & M University-Commerce,Commerce,TX,75428-3011,33.243745,-95.908451,POINT (-95.908451 33.243745)
224615,45,35,10,0.2857142857142857,Dallas College,Dallas,TX,75215-3604,32.766319,-96.794036,POINT (-96.79403600000001 32.766319)
224961,40,31,9,0.2903225806451613,Galveston College,Galveston,TX,77550-7496,29.284735,-94.807686,POINT (-94.807686 29.284735)
225070,96,78,18,0.23076923076923078,Grayson College,Denison,TX,75020-8299,33.70574,-96.633891,POINT (-96.63389100000001 33.70574)
225399,81,60,21,0.35,Houston Baptist University,Houston,TX,77074-3298,29.693819,-95.515954,POINT (-95.51595399999999 29.693819)
225414,512,425,87,0.20470588235294118,University of Houston-Clear Lake,Houston,TX,77058-1002,29.582523,-95.098129,POINT (-95.098129 29.582523)
225511,3218,2346,872,0.37169650468883203,University of Houston,Houston,TX,77204-2018,29.720393,-95.343537,POINT (-95.343537 29.720393)
225548,23,22,1,0.045454545454545456,Howard Payne University,Brownwood,TX,76801-2794,31.716467,-98.985204,POINT (-98.985204 31.716467)
225627,86,76,10,0.13157894736842105,University of the Incarnate Word,San Antonio,TX,78209,29.46708,-98.46583,POINT (-98.46583 29.46708)
226091,1331,1051,280,0.2664129400570885,Lamar University,Beaumont,TX,77705,30.042738,-94.072244,POINT (-94.072244 30.042738)
226152,270,223,47,0.21076233183856502,Texas A & M International University,Laredo,TX,78041-1900,27.571172,-99.436043,POINT (-99.436043 27.571172)
226231,408,337,71,0.21068249258160238,LeTourneau University,Longview,TX,75602,32.46632,-94.726394,POINT (-94.726394 32.46632)
226471,95,78,17,0.21794871794871795,University of Mary Hardin-Baylor,Belton,TX,76513-2599,31.066793,-97.463471,POINT (-97.463471 31.066793)
226833,211,178,33,0.1853932584269663,Midwestern State University,Wichita Falls,TX,76308-2099,33.874809,-98.519386,POINT (-98.519386 33.874809)
227182,1562,1272,290,0.2279874213836478,Lone Star College System,The Woodlands,TX,77381-4399,30.18737,-95.488103,POINT (-95.488103 30.18737)
227216,2112,1700,412,0.24235294117647058,University of North Texas,Denton,TX,76203-1277,33.211178,-97.148422,POINT (-97.148422 33.211178)
227304,143,113,30,0.26548672566371684,Odessa College,Odessa,TX,79764,31.866812,-102.383477,POINT (-102.383477 31.866812)
227368,2501,2038,463,0.22718351324828262,The University of Texas Rio Grande Valley,Edinburg,TX,78539-2999,26.306759,-98.173567,POINT (-98.17356700000001 26.306759)
227526,941,685,256,0.37372262773722625,Prairie View A & M University,Prairie View,TX,77446,30.092425,-95.989475,POINT (-95.989475 30.092425)
227757,1053,673,380,0.5646359583952452,Rice University,Houston,TX,77005-1827,29.717897,-95.402035,POINT (-95.402035 29.717897)
227863,38,25,13,0.52,University of St Thomas,Houston,TX,77006-4696,29.736438,-95.393102,POINT (-95.393102 29.736438)
227979,763,616,147,0.23863636363636365,San Jacinto Community College,Pasadena,TX,77505,29.660032,-95.114677,POINT (-95.114677 29.660032)
228042,30,26,4,0.15384615384615385,Schreiner University,Kerrville,TX,78028-5697,30.031458,-99.130586,POINT (-99.13058599999999 30.031458)
228149,185,136,49,0.3602941176470588,St. Mary's University,San Antonio,TX,78228,29.453244,-98.562778,POINT (-98.56277799999999 29.453244)
228246,702,443,259,0.5846501128668171,Southern Methodist University,Dallas,TX,75275-0221,32.843612,-96.783365,POINT (-96.783365 32.843612)
228431,135,114,21,0.18421052631578946,Stephen F Austin State University,Nacogdoches,TX,75961,31.621056,-94.64908,POINT (-94.64908 31.621056)
228459,957,767,190,0.24771838331160365,Texas State University,San Marcos,TX,78666,29.888885,-97.943029,POINT (-97.943029 29.888885)
228529,379,324,55,0.1697530864197531,Tarleton State University,Stephenville,TX,76401-0000,32.214988,-98.214866,POINT (-98.214866 32.214988)
228705,1144,927,217,0.23408845738942827,Texas A & M University-Kingsville,Kingsville,TX,78363,27.525168,-97.882387,POINT (-97.88238699999999 27.525168)
228723,13303,10188,3115,0.3057518649391441,Texas A & M University-College Station,College Station,TX,77843-1248,30.618726,-96.336475,POINT (-96.33647499999999 30.618726)
228769,4116,3251,865,0.2660719778529683,The University of Texas at Arlington,Arlington,TX,76013,32.729718,-97.11296,POINT (-97.11296 32.729718)
228778,5671,3911,1760,0.4500127844541038,The University of Texas at Austin,Austin,TX,78705,30.282825,-97.738273,POINT (-97.73827300000001 30.282825)
228787,3272,2583,689,0.2667440960123887,The University of Texas at Dallas,Richardson,TX,75080-3021,32.984673,-96.749702,POINT (-96.749702 32.984673)
228796,2704,2084,620,0.29750479846449135,The University of Texas at El Paso,El Paso,TX,79968-0691,31.77015,-106.504098,POINT (-106.504098 31.77015)
228802,774,640,134,0.209375,The University of Texas at Tyler,Tyler,TX,75799-6699,32.315772,-95.254337,POINT (-95.25433700000001 32.315772)
228875,264,189,75,0.3968253968253968,Texas Christian University,Fort Worth,TX,76129,32.70961,-97.364758,POINT (-97.36475799999999 32.70961)
228981,24,20,4,0.2,Texas Lutheran University,Seguin,TX,78155-5999,29.573261,-97.982669,POINT (-97.982669 29.573261)
229018,461,359,102,0.2841225626740947,The University of Texas Permian Basin,Odessa,TX,79762-0001,31.889509,-102.329634,POINT (-102.329634 31.889509)
229027,3210,2477,733,0.29592248687928946,The University of Texas at San Antonio,San Antonio,TX,78249-1644,29.583709,-98.620657,POINT (-98.62065699999999 29.583709)
229063,180,143,37,0.25874125874125875,Texas Southern University,Houston,TX,77004,29.721046,-95.361113,POINT (-95.361113 29.721046)
229115,1881,1508,373,0.2473474801061008,Texas Tech University,Lubbock,TX,79409-5005,33.583448,-101.874783,POINT (-101.874783 33.583448)
229267,53,37,16,0.43243243243243246,Trinity University,San Antonio,TX,78212-7200,29.462682,-98.48186,POINT (-98.48186 29.462682)
229355,226,215,11,0.05116279069767442,Tyler Junior College,Tyler,TX,75701,32.33601,-95.284122,POINT (-95.284122 32.33601)
229814,441,364,77,0.21153846153846154,West Texas A & M University,Canyon,TX,79016-0001,34.982789,-101.914736,POINT (-101.914736 34.982789)
230038,3363,2804,559,0.199358059914408,Brigham Young University,Provo,UT,84602,40.250851,-111.649281,POINT (-111.649281 40.250851)
230171,169,150,19,0.12666666666666668,Dixie State University,Saint George,UT,84770-3876,37.102769,-113.565903,POINT (-113.565903 37.102769)
230597,141,124,17,0.13709677419354838,Snow College,Ephraim,UT,84627,39.360177,-111.58296,POINT (-111.58296 39.360177)
230603,258,215,43,0.2,Southern Utah University,Cedar City,UT,84720,37.674617,-113.070146,POINT (-113.070146 37.674617)
230728,1926,1646,280,0.1701093560145808,Utah State University,Logan,UT,84322-1400,41.740748,-111.81391,POINT (-111.81391 41.740748)
230737,1239,1116,123,0.11021505376344086,Utah Valley University,Orem,UT,84058-5999,40.281078,-111.716456,POINT (-111.716456 40.281078)
230764,2980,2294,686,0.2990409764603313,University of Utah,Salt Lake City,UT,84112-9008,40.762484,-111.846044,POINT (-111.846044 40.762484)
230782,631,569,62,0.10896309314586995,Weber State University,Ogden,UT,84408-1031,41.192591,-111.944845,POINT (-111.944845 41.192591)
230995,304,256,48,0.1875,Norwich University,Northfield,VT,05663-1035,44.140237,-72.659783,POINT (-72.659783 44.140237)
231059,25,20,5,0.25,Saint Michael's College,Colchester,VT,5439,44.494558,-73.167069,POINT (-73.167069 44.494558)
231165,67,60,7,0.11666666666666667,Vermont Technical College,Randolph,VT,5061,43.939623,-72.604498,POINT (-72.60449800000001 43.939623)
231174,899,652,247,0.37883435582822084,University of Vermont,Burlington,VT,05405-0160,44.477325,-73.196646,POINT (-73.196646 44.477325)
231712,157,130,27,0.2076923076923077,Christopher Newport University,Newport News,VA,23606-3072,37.062495,-76.494364,POINT (-76.494364 37.062495)
232025,1,1,0,0.0,Emory & Henry College,Emory,VA,24327-0947,36.772857,-81.829142,POINT (-81.829142 36.772857)
232043,33,29,4,0.13793103448275862,Eastern Mennonite University,Harrisonburg,VA,22802-2462,38.471134,-78.880326,POINT (-78.880326 38.471134)
232186,1573,1226,347,0.2830342577487765,George Mason University,Fairfax,VA,22030-4444,38.829976,-77.307428,POINT (-77.307428 38.829976)
232265,102,58,44,0.7586206896551724,Hampton University,Hampton,VA,23668-0099,37.019944,-76.339161,POINT (-76.339161 37.019944)
232423,427,338,89,0.26331360946745563,James Madison University,Harrisonburg,VA,22807,38.436311,-78.870484,POINT (-78.870484 38.436311)
232557,747,623,124,0.19903691813804172,Liberty University,Lynchburg,VA,24515,37.350232,-79.18222,POINT (-79.18222 37.350232)
232937,110,85,25,0.29411764705882354,Norfolk State University,Norfolk,VA,23504-8000,36.848429,-76.261375,POINT (-76.261375 36.848429)
232982,682,570,112,0.19649122807017544,Old Dominion University,Norfolk,VA,23529,36.886418,-76.30666,POINT (-76.30665999999999 36.886418)
233295,23,18,5,0.2777777777777778,Randolph-Macon College,Ashland,VA,23005-5505,37.76043,-77.478416,POINT (-77.478416 37.76043)
233301,5,4,1,0.25,Randolph College,Lynchburg,VA,24503-1555,37.437315,-79.171887,POINT (-79.171887 37.437315)
233718,13,0,13,inf,Sweet Briar College,Sweet Briar,VA,24595-9998,37.556725,-79.081014,POINT (-79.081014 37.556725)
233897,23,19,4,0.21052631578947367,The University of Virginia's College at Wise,Wise,VA,24293-4400,36.970602,-82.559656,POINT (-82.559656 36.970602)
233921,5418,4155,1263,0.303971119133574,Virginia Polytechnic Institute and State University,Blacksburg,VA,24061-0131,37.229012,-80.423675,POINT (-80.423675 37.229012)
234030,1220,864,356,0.41203703703703703,Virginia Commonwealth University,Richmond,VA,23284-2512,37.54962,-77.452697,POINT (-77.452697 37.54962)
234076,2179,1351,828,0.612879348630644,University of Virginia-Main Campus,Charlottesville,VA,22903-2628,38.035665,-78.503428,POINT (-78.503428 38.035665)
234085,473,442,31,0.07013574660633484,Virginia Military Institute,Lexington,VA,24450-0304,37.7896,-79.437067,POINT (-79.437067 37.7896)
234155,104,86,18,0.20930232558139536,Virginia State University,Petersburg,VA,23806,37.234692,-77.419026,POINT (-77.419026 37.234692)
234207,27,20,7,0.35,Washington and Lee University,Lexington,VA,24450-2116,37.788939,-79.443018,POINT (-79.443018 37.788939)
234845,2,2,0,0.0,Centralia College,Centralia,WA,98531-4099,46.715017,-122.960591,POINT (-122.960591 46.715017)
234933,397,321,76,0.2367601246105919,Clark College,Vancouver,WA,98663-3598,45.636133,-122.651257,POINT (-122.651257 45.636133)
235097,213,187,26,0.13903743315508021,Eastern Washington University,Cheney,WA,99004-2496,47.490667,-117.583808,POINT (-117.583808 47.490667)
235103,2,1,1,1.0,Edmonds College,Lynnwood,WA,98036-5912,47.816376,-122.327598,POINT (-122.327598 47.816376)
235316,584,440,144,0.32727272727272727,Gonzaga University,Spokane,WA,99258-0001,47.666531,-117.400625,POINT (-117.400625 47.666531)
235750,44,31,13,0.41935483870967744,Lower Columbia College,Longview,WA,98632,46.14214,-122.935928,POINT (-122.935928 46.14214)
236188,66,46,20,0.43478260869565216,Olympic College,Bremerton,WA,98337-1699,47.574769,-122.635113,POINT (-122.635113 47.574769)
236452,186,141,45,0.3191489361702128,Saint Martin's University,Lacey,WA,98503-7500,47.041068,-122.816354,POINT (-122.816354 47.041068)
236577,167,124,43,0.3467741935483871,Seattle Pacific University,Seattle,WA,98119-1997,47.650214,-122.361667,POINT (-122.361667 47.650214)
236595,272,198,74,0.37373737373737376,Seattle University,Seattle,WA,98122-4340,47.608859,-122.318851,POINT (-122.318851 47.608859)
236708,122,96,26,0.2708333333333333,Spokane Falls Community College,Spokane,WA,99224-5288,47.676741,-117.463538,POINT (-117.463538 47.676741)
236753,254,173,81,0.4682080924855491,Tacoma Community College,Tacoma,WA,98466-6100,47.244622,-122.524793,POINT (-122.524793 47.244622)
236896,210,172,38,0.22093023255813954,Walla Walla University,College Place,WA,99324-1198,46.048088,-118.389555,POINT (-118.389555 46.048088)
236939,1667,1298,369,0.2842835130970724,Washington State University,Pullman,WA,99164-5910,46.730448,-117.158168,POINT (-117.158168 46.730448)
236948,3424,2366,1058,0.44716821639898563,University of Washington-Seattle Campus,Seattle,WA,98195-4550,47.65538,-122.30514,POINT (-122.30514 47.65538)
237011,218,189,29,0.15343915343915343,Western Washington University,Bellingham,WA,98225-9008,48.737812,-122.485734,POINT (-122.485734 48.737812)
237057,6,2,4,2.0,Whitman College,Walla Walla,WA,99362,46.069815,-118.331546,POINT (-118.331546 46.069815)
237066,46,38,8,0.21052631578947367,Whitworth University,Spokane,WA,99251,47.753358,-117.416714,POINT (-117.416714 47.753358)
237525,361,295,66,0.22372881355932203,Marshall University,Huntington,WV,25755,38.422482,-82.428964,POINT (-82.42896399999999 38.422482)
237701,48,45,3,0.06666666666666667,Potomac State College of West Virginia University,Keyser,WV,26726,39.438323,-78.981441,POINT (-78.981441 39.438323)
237792,54,49,5,0.10204081632653061,Shepherd University,Shepherdstown,WV,25443,39.433071,-77.804101,POINT (-77.804101 39.433071)
237899,19,17,2,0.11764705882352941,West Virginia State University,Institute,WV,25112-1000,38.380541,-81.765034,POINT (-81.765034 38.380541)
237950,245,207,38,0.18357487922705315,West Virginia University Institute of Technology,Beckley,WV,25801,37.775924,-81.184072,POINT (-81.184072 37.775924)
238032,3278,2658,620,0.23325808878856283,West Virginia University,Morgantown,WV,26506,39.634371,-79.954391,POINT (-79.954391 39.634371)
238078,29,28,1,0.03571428571428571,Wheeling University,Wheeling,WV,26003,40.070873,-80.690804,POINT (-80.690804 40.070873)
238333,8,6,2,0.3333333333333333,Beloit College,Beloit,WI,53511-5595,42.504022,-89.029285,POINT (-89.029285 42.504022)
238458,30,19,11,0.5789473684210527,Carroll University,Waukesha,WI,53186,43.004527,-88.228114,POINT (-88.22811400000001 43.004527)
239105,1188,853,335,0.39273153575615477,Marquette University,Milwaukee,WI,53233,43.03903,-87.927961,POINT (-87.927961 43.03903)
239318,1831,1434,397,0.27684797768479774,Milwaukee School of Engineering,Milwaukee,WI,53202-3109,43.045364,-87.907691,POINT (-87.907691 43.045364)
239512,3,3,0,0.0,Northland College,Ashland,WI,54806-3999,46.579087,-90.87476,POINT (-90.87475999999999 46.579087)
240107,28,22,6,0.2727272727272727,Viterbo University,La Crosse,WI,54601-8804,43.803133,-91.244297,POINT (-91.244297 43.803133)
240268,36,26,10,0.38461538461538464,University of Wisconsin-Eau Claire,Eau Claire,WI,54701,44.798284,-91.501906,POINT (-91.50190600000001 44.798284)
240277,134,116,18,0.15517241379310345,University of Wisconsin-Green Bay,Green Bay,WI,54311-7001,44.532298,-87.919973,POINT (-87.919973 44.532298)
240329,11,9,2,0.2222222222222222,University of Wisconsin-La Crosse,La Crosse,WI,54601-9959,43.81568,-91.23186,POINT (-91.23186 43.81568)
240417,770,704,66,0.09375,University of Wisconsin-Stout,Menomonie,WI,54751,44.873187,-91.926653,POINT (-91.926653 44.873187)
240444,4512,3292,1220,0.370595382746051,University of Wisconsin-Madison,Madison,WI,53706-1380,43.075409,-89.404098,POINT (-89.404098 43.075409)
240453,1258,1028,230,0.2237354085603113,University of Wisconsin-Milwaukee,Milwaukee,WI,53211,43.076848,-87.880488,POINT (-87.880488 43.076848)
240462,2572,2230,342,0.15336322869955157,University of Wisconsin-Platteville,Platteville,WI,53818-3099,42.733451,-90.48622,POINT (-90.48622 42.733451)
240471,29,23,6,0.2608695652173913,University of Wisconsin-River Falls,River Falls,WI,54022-5001,44.8534,-92.622641,POINT (-92.622641 44.8534)
240480,90,64,26,0.40625,University of Wisconsin-Stevens Point,Stevens Point,WI,54481-3897,44.529582,-89.570934,POINT (-89.57093399999999 44.529582)
240514,25,15,10,0.6666666666666666,Central Wyoming College,Riverton,WY,82501,43.030556,-108.426738,POINT (-108.426738 43.030556)
240620,56,41,15,0.36585365853658536,Laramie County Community College,Cheyenne,WY,82007-3299,41.104288,-104.778789,POINT (-104.778789 41.104288)
240727,1121,888,233,0.26238738738738737,University of Wyoming,Laramie,WY,82071,41.311773,-105.57931,POINT (-105.57931 41.311773)
240736,40,13,27,2.076923076923077,American Samoa Community College,Pago Pago,AS,96799-2609,-14.322636,-170.742774,POINT (-170.742774 -14.322636)
240754,161,123,38,0.3089430894308943,University of Guam,Mangilao,GU,96923,13.433047,144.803978,POINT (144.803978 13.433047)
241377,86,76,10,0.13157894736842105,Caribbean University-Bayamon,Bayamon,PR,00960-0493,18.383136,-66.168315,POINT (-66.16831500000001 18.383136)
242705,663,551,112,0.20326678765880218,Inter American University of Puerto Rico-Bayamon,Bayamon,PR,00957-6257,18.351631,-66.182473,POINT (-66.182473 18.351631)
243179,26,16,10,0.625,University of Puerto Rico-Humacao,Humacao,PR,792,18.146589,-65.838602,POINT (-65.83860199999999 18.146589)
243197,2367,1541,826,0.536015574302401,University of Puerto Rico-Mayaguez,Mayaguez,PR,681,18.211142,-67.139172,POINT (-67.139172 18.211142)
243577,3007,2322,685,0.2950043066322136,Universidad Politecnica de Puerto Rico,Hato Rey,PR,919,18.422195,-66.056084,POINT (-66.056084 18.422195)
243601,782,700,82,0.11714285714285715,Universidad Ana G. Mendez-Gurabo Campus,Gurabo,PR,00778-3030,18.239647,-66.006259,POINT (-66.006259 18.239647)
243744,515,262,253,0.9656488549618321,Stanford University,Stanford,CA,94305,37.429434,-122.167359,POINT (-122.167359 37.429434)
243780,10046,7453,2593,0.3479135918422112,Purdue University-Main Campus,West Lafayette,IN,47907-2040,40.428206,-86.914435,POINT (-86.914435 40.428206)
247834,1295,1093,202,0.1848124428179323,Collin County Community College District,McKinney,TX,75069,33.16241,-96.63894,POINT (-96.63894000000001 33.16241)
363907,208,172,36,0.20930232558139536,Caribbean University-Ponce,Ponce,PR,00716-7733,18.006633,-66.59425,POINT (-66.59425 18.006633)
366252,124,115,9,0.0782608695652174,Pennsylvania College of Technology,Williamsport,PA,17701-5799,41.234145,-77.023665,POINT (-77.02366499999999 41.234145)
366553,105,97,8,0.08247422680412371,Southern Technical College,Fort Myers,FL,33907-1108,26.596097,-81.877644,POINT (-81.877644 26.596097)
366711,207,179,28,0.1564245810055866,California State University-San Marcos,San Marcos,CA,92096-0001,33.130569,-117.159013,POINT (-117.159013 33.130569)
377555,388,326,62,0.1901840490797546,University of Washington-Bothell Campus,Bothell,WA,98011-8246,47.759773,-122.191293,POINT (-122.191293 47.759773)
377564,81,69,12,0.17391304347826086,University of Washington-Tacoma Campus,Tacoma,WA,98402-3100,47.244594,-122.438541,POINT (-122.438541 47.244594)
399869,180,171,9,0.05263157894736842,Southern California Institute of Technology,Anaheim,CA,92801-3758,33.8381,-117.950661,POINT (-117.950661 33.8381)
409315,1034,840,194,0.23095238095238096,South Texas College,McAllen,TX,78502-9701,26.217591,-98.253634,POINT (-98.25363400000001 26.217591)
413617,2,2,0,0.0,College of Menominee Nation,Keshena,WI,54135-1179,44.859044,-88.625628,POINT (-88.62562800000001 44.859044)
426314,655,540,115,0.21296296296296297,Embry-Riddle Aeronautical University-Worldwide,Daytona Beach,FL,32114-3900,29.189903,-81.048367,POINT (-81.048367 29.189903)
433660,937,700,237,0.3385714285714286,Florida Gulf Coast University,Fort Myers,FL,33965-6565,26.463638,-81.7726,POINT (-81.7726 26.463638)
436818,35,29,6,0.20689655172413793,University of Connecticut-Waterbury Campus,Waterbury,CT,6702,41.555617,-73.039242,POINT (-73.039242 41.555617)
436827,33,27,6,0.2222222222222222,University of Connecticut-Avery Point,Groton,CT,06340-6097,41.316419,-72.065336,POINT (-72.065336 41.316419)
436836,70,59,11,0.1864406779661017,University of Connecticut-Stamford,Stamford,CT,06901-2315,41.056081,-73.542206,POINT (-73.54220599999999 41.056081)
437325,1,0,1,inf,Linfield University-Online and Continuing Education,McMinnville,OR,97128-6894,45.201148,-123.199637,POINT (-123.199637 45.201148)
439190,137,103,34,0.3300970873786408,Cascadia College,Bothell,WA,98011-8205,47.760915,-122.191572,POINT (-122.191572 47.760915)
440828,133,85,48,0.5647058823529412,Oregon State University-Cascades Campus,Bend,OR,97702,44.042795,-121.333703,POINT (-121.333703 44.042795)
441937,63,52,11,0.21153846153846154,California State University-Channel Islands,Camarillo,CA,93012,34.162949,-119.04356,POINT (-119.04356 34.162949)
441982,310,150,160,1.0666666666666667,Franklin W Olin College of Engineering,Needham,MA,02492-1200,42.293527,-71.263378,POINT (-71.263378 42.293527)
443410,40,32,8,0.25,DigiPen Institute of Technology,Redmond,WA,98052,47.68871,-122.150603,POINT (-122.150603 47.68871)
445188,2256,1800,456,0.25333333333333335,University of California-Merced,Merced,CA,95343-5603,37.366237,-120.424944,POINT (-120.424944 37.366237)
448673,7,4,3,0.75,Rasmussen University-Illinois,Rockford,IL,61108-2513,42.267628,-88.998854,POINT (-88.99885399999999 42.267628)
449339,313,291,22,0.07560137457044673,American Public University System,Charles Town,WV,25414,39.287826,-77.860121,POINT (-77.86012100000001 39.287826)
450571,3,3,0,0.0,Rasmussen University-Wisconsin,Green Bay,WI,54303-2349,44.526244,-88.080783,POINT (-88.080783 44.526244)
456490,136,95,41,0.43157894736842106,Polytechnic University of Puerto Rico-Orlando,Orlando,FL,32825,28.55158,-81.253943,POINT (-81.25394300000001 28.55158)
463056,1,1,0,0.0,University of Connecticut-Hartford Campus,Hartford,CT,6103,41.762673,-72.672175,POINT (-72.672175 41.762673)
464226,25,20,5,0.25,Ottawa University-Surprise,Surprise,AZ,85374,33.628923,-112.368233,POINT (-112.368233 33.628923)
480657,6,3,3,1.0,Rasmussen University-Kansas,Topeka,KS,66606,39.056302,-95.751719,POINT (-95.75171899999999 39.056302)
482149,39,32,7,0.21875,Augusta University,Augusta,GA,30912,33.47037,-81.989071,POINT (-81.989071 33.47037)
482477,283,208,75,0.3605769230769231,DeVry University-Illinois,Chicago,IL,60618,41.94219,-87.69146,POINT (-87.69146000000001 41.94219)
482936,584,483,101,0.20910973084886128,Florida Polytechnic University,Lakeland,FL,33805-8531,28.150149,-81.845995,POINT (-81.845995 28.150149)
483124,2818,2322,496,0.2136089577950043,Arizona State University Digital Immersion,Scottsdale,AZ,85257,33.463786,-111.923861,POINT (-111.923861 33.463786)
485768,2,2,0,0.0,Atlantis University,Miami,FL,33132,25.788978,-80.18942,POINT (-80.18942 25.788978)
486840,4400,3761,639,0.16990162190906674,Kennesaw State University,Kennesaw,GA,30144,34.038807,-84.583052,POINT (-84.583052 34.038807)
486901,90,75,15,0.2,Milligan University,Milligan,TN,37682,36.300147,-82.29407,POINT (-82.29407 36.300147)
490805,562,476,86,0.18067226890756302,Purdue University Northwest,Hammond,IN,46323,41.584324,-87.474236,POINT (-87.474236 41.584324)
492962,356,291,65,0.22336769759450173,Indiana Institute of Technology-College of Professional Studies,Fort Wayne,IN,46803,41.076613,-85.115424,POINT (-85.115424 41.076613)
