UNITID,efrace15,efrace16,W/M_Ratio,INSTNM,CITY,STABBR,ZIP,LATITUDE,LONGITUDE,geometry
100663,307,87,0.28338762214983715,University of Alabama at Birmingham,Birmingham,AL,35294-0110,33.505697,-86.799345,POINT (-86.799345 33.505697)
100706,650,224,0.3446153846153846,University of Alabama in Huntsville,Huntsville,AL,35899,34.724557,-86.640449,POINT (-86.640449 34.724557)
100751,887,252,0.28410372040586246,The University of Alabama,Tuscaloosa,AL,35487-0100,33.211875,-87.545978,POINT (-87.54597800000001 33.211875)
100858,2396,526,0.21953255425709517,Auburn University,Auburn,AL,36849,32.599378,-85.488258,POINT (-85.488258 32.599378)
101480,15,1,0.06666666666666667,Jacksonville State University,Jacksonville,AL,36265,33.822938,-85.765321,POINT (-85.765321 33.822938)
102094,366,95,0.25956284153005466,University of South Alabama,Mobile,AL,36688-0002,30.696033,-88.178711,POINT (-88.17871100000001 30.696033)
102234,6,1,0.16666666666666666,Spring Hill College,Mobile,AL,36608-1791,30.694751,-88.138199,POINT (-88.138199 30.694751)
102368,26,1,0.038461538461538464,Troy University,Troy,AL,36082-0001,31.800672,-85.957094,POINT (-85.957094 31.800672)
102377,115,105,0.9130434782608695,Tuskegee University,Tuskegee,AL,36088-1920,32.4309,-85.708492,POINT (-85.70849200000001 32.4309)
102553,77,26,0.33766233766233766,University of Alaska Anchorage,Anchorage,AK,99508,61.190163,-149.82619,POINT (-149.82619 61.190163)
102614,165,41,0.24848484848484848,University of Alaska Fairbanks,Fairbanks,AK,99775,64.85756,-147.823146,POINT (-147.823146 64.85756000000001)
104151,2157,620,0.28743625405656004,Arizona State University Campus Immersion,Tempe,AZ,85287,33.417721,-111.934383,POINT (-111.934383 33.417721)
104179,1562,366,0.23431498079385404,University of Arizona,Tucson,AZ,85721-0066,32.232672,-110.950815,POINT (-110.950815 32.232672)
105330,465,117,0.25161290322580643,Northern Arizona University,Flagstaff,AZ,86011-4092,35.188449,-111.653724,POINT (-111.653724 35.188449)
106397,1113,226,0.20305480682839172,University of Arkansas,Fayetteville,AR,72701,36.070009,-94.176981,POINT (-94.176981 36.070009)
106458,212,25,0.1179245283018868,Arkansas State University,Jonesboro,AR,72401,35.842388,-90.679988,POINT (-90.67998799999999 35.842388)
106467,144,12,0.08333333333333333,Arkansas Tech University,Russellville,AR,72801-2222,35.293237,-93.13562,POINT (-93.13562 35.293237)
107044,25,0,0.0,Harding University,Searcy,AR,72149-5615,35.247386,-91.726143,POINT (-91.72614299999999 35.247386)
107141,60,8,0.13333333333333333,John Brown University,Siloam Springs,AR,72761,36.189812,-94.560283,POINT (-94.560283 36.189812)
110422,3251,726,0.22331590279913874,California Polytechnic State University-San Luis Obispo,San Luis Obispo,CA,93407,35.299513,-120.657311,POINT (-120.657311 35.299513)
110529,2019,332,0.1644378405151065,California State Polytechnic University-Pomona,Pomona,CA,91768,34.057912,-117.821476,POINT (-117.821476 34.057912)
110538,801,116,0.14481897627965043,California State University-Chico,Chico,CA,95929-0150,39.729712,-121.844859,POINT (-121.844859 39.729712)
110556,487,59,0.12114989733059549,California State University-Fresno,Fresno,CA,93740,36.811154,-119.744569,POINT (-119.744569 36.811154)
110565,282,40,0.14184397163120568,California State University-Fullerton,Fullerton,CA,92831-3599,33.881506,-117.885446,POINT (-117.885446 33.881506)
110574,25,15,0.6,California State University-East Bay,Hayward,CA,94542,37.657694,-122.054135,POINT (-122.054135 37.657694)
110583,887,173,0.19503945885005636,California State University-Long Beach,Long Beach,CA,90840-0115,33.782818,-118.11204,POINT (-118.11204 33.782818)
110592,417,91,0.2182254196642686,California State University-Los Angeles,Los Angeles,CA,90032-8506,34.066927,-118.168965,POINT (-118.168965 34.066927)
110608,458,95,0.2074235807860262,California State University-Northridge,Northridge,CA,91330,34.240126,-118.529319,POINT (-118.529319 34.240126)
110617,935,201,0.21497326203208555,California State University-Sacramento,Sacramento,CA,95819-2694,38.559415,-121.423549,POINT (-121.423549 38.559415)
110635,2078,690,0.3320500481231954,University of California-Berkeley,Berkeley,CA,94720,37.871918,-122.260463,POINT (-122.260463 37.871918)
110644,1697,497,0.2928697701826753,University of California-Davis,Davis,CA,95616-8678,38.539667,-121.749567,POINT (-121.749567 38.539667)
110653,1325,342,0.2581132075471698,University of California-Irvine,Irvine,CA,92697,33.648434,-117.841248,POINT (-117.841248 33.648434)
110662,1850,488,0.2637837837837838,University of California-Los Angeles,Los Angeles,CA,90095-1405,34.07178,-118.442179,POINT (-118.442179 34.07178)
110671,972,164,0.16872427983539096,University of California-Riverside,Riverside,CA,92521,33.97246,-117.32741,POINT (-117.32741 33.97246)
110680,1831,510,0.2785363189513927,University of California-San Diego,La Jolla,CA,92093,32.877749,-117.235866,POINT (-117.235866 32.877749)
110705,829,149,0.17973462002412546,University of California-Santa Barbara,Santa Barbara,CA,93106,34.416297,-119.846426,POINT (-119.846426 34.416297)
110714,102,14,0.13725490196078433,University of California-Santa Cruz,Santa Cruz,CA,95064-1011,36.995584,-122.058801,POINT (-122.058801 36.995584)
111188,108,16,0.14814814814814814,California State University Maritime Academy,Vallejo,CA,94590-8181,38.069061,-122.231551,POINT (-122.231551 38.069061)
112260,20,4,0.2,Claremont McKenna College,Claremont,CA,91711-6400,34.102154,-117.711188,POINT (-117.711188 34.102154)
115755,107,42,0.3925233644859813,Humboldt State University,Arcata,CA,95521-8299,40.877481,-124.078293,POINT (-124.078293 40.877481)
117946,133,38,0.2857142857142857,Loyola Marymount University,Los Angeles,CA,90045-2659,33.97085,-118.415744,POINT (-118.415744 33.97085)
120883,249,79,0.3172690763052209,University of the Pacific,Stockton,CA,95211-0197,37.981424,-121.312301,POINT (-121.312301 37.981424)
121150,20,9,0.45,Pepperdine University,Malibu,CA,90263,34.037786,-118.707077,POINT (-118.707077 34.037786)
121309,12,0,0.0,Point Loma Nazarene University,San Diego,CA,92106-2899,32.718391,-117.250265,POINT (-117.250265 32.718391)
122409,896,149,0.16629464285714285,San Diego State University,San Diego,CA,92182-0001,32.77525,-117.071228,POINT (-117.071228 32.77525)
122436,64,15,0.234375,University of San Diego,San Diego,CA,92110-2492,32.770816,-117.192073,POINT (-117.192073 32.770816)
122597,306,66,0.21568627450980393,San Francisco State University,San Francisco,CA,94132,37.721224,-122.476799,POINT (-122.476799 37.721224)
122755,1938,496,0.25593395252837975,San Jose State University,San Jose,CA,95192-0001,37.336569,-121.880621,POINT (-121.880621 37.336569)
122931,481,153,0.3180873180873181,Santa Clara University,Santa Clara,CA,95053,37.348362,-121.93784,POINT (-121.93784 37.348362)
123165,0,5,inf,Scripps College,Claremont,CA,91711-3905,34.104147,-117.711294,POINT (-117.711294 34.104147)
123554,6,4,0.6666666666666666,Saint Mary's College of California,Moraga,CA,94575,37.840731,-122.109031,POINT (-122.109031 37.840731)
123961,1071,343,0.3202614379084967,University of Southern California,Los Angeles,CA,90089,34.021281,-118.284169,POINT (-118.284169 34.021281)
125727,14,0,0.0,Westmont College,Santa Barbara,CA,93108-1089,34.450151,-119.662517,POINT (-119.662517 34.450151)
126562,190,42,0.22105263157894736,University of Colorado Denver/Anschutz Medical Campus,Denver,CO,80217-3364,39.745149,-104.837722,POINT (-104.837722 39.745149)
126580,271,70,0.25830258302583026,University of Colorado Colorado Springs,Colorado Springs,CO,80918,38.892735,-104.800296,POINT (-104.800296 38.892735)
126614,1502,420,0.2796271637816245,University of Colorado Boulder,Boulder,CO,80309-0017,40.008781,-105.270823,POINT (-105.270823 40.008781)
126775,1254,418,0.3333333333333333,Colorado School of Mines,Golden,CO,80401,39.751443,-105.223364,POINT (-105.223364 39.751443)
126818,1012,251,0.24802371541501977,Colorado State University-Fort Collins,Fort Collins,CO,80523-0100,40.574805,-105.080732,POINT (-105.080732 40.574805)
126827,54,9,0.16666666666666666,Colorado Technical University-Colorado Springs,Colorado Springs,CO,80907-3812,38.894265,-104.833928,POINT (-104.833928 38.894265)
127060,103,31,0.30097087378640774,University of Denver,Denver,CO,80208,39.678005,-104.963259,POINT (-104.963259 39.678005)
128106,16,5,0.3125,Colorado State University Pueblo,Pueblo,CO,81001-4901,38.30859,-104.579033,POINT (-104.579033 38.30859)
128744,50,4,0.08,University of Bridgeport,Bridgeport,CT,06604-5620,41.164741,-73.190166,POINT (-73.190166 41.164741)
129020,737,112,0.1519674355495251,University of Connecticut,Storrs,CT,6269,41.809098,-72.249948,POINT (-72.249948 41.809098)
129242,37,7,0.1891891891891892,Fairfield University,Fairfield,CT,06824-5195,41.157673,-73.255903,POINT (-73.255903 41.157673)
129525,210,33,0.15714285714285714,University of Hartford,West Hartford,CT,06117-1599,41.798591,-72.715213,POINT (-72.71521300000001 41.798591)
129774,8,1,0.125,Mitchell College,New London,CT,6320,41.328013,-72.09523,POINT (-72.09523 41.328013)
129941,162,20,0.12345679012345678,University of New Haven,West Haven,CT,06516-1916,41.291314,-72.961472,POINT (-72.961472 41.291314)
130590,18,5,0.2777777777777778,Trinity College,Hartford,CT,06106-3100,41.747451,-72.690882,POINT (-72.690882 41.747451)
130624,296,52,0.17567567567567569,United States Coast Guard Academy,New London,CT,06320-4195,41.375823,-72.101583,POINT (-72.10158300000001 41.375823)
130794,53,30,0.5660377358490566,Yale University,New Haven,CT,6520,41.311158,-72.926688,POINT (-72.926688 41.311158)
130934,25,2,0.08,Delaware State University,Dover,DE,19901,39.187173,-75.54053,POINT (-75.54053 39.187173)
131283,163,61,0.37423312883435583,The Catholic University of America,Washington,DC,20064,38.933651,-76.997909,POINT (-76.99790900000001 38.933651)
131469,170,79,0.4647058823529412,George Washington University,Washington,DC,20052,38.89923,-77.048363,POINT (-77.04836299999999 38.89923)
131520,48,25,0.5208333333333334,Howard University,Washington,DC,20059,38.922392,-77.018966,POINT (-77.01896600000001 38.922392)
132903,1336,306,0.22904191616766467,University of Central Florida,Orlando,FL,32816,28.602159,-81.200889,POINT (-81.200889 28.602159)
133553,1314,273,0.20776255707762556,Embry-Riddle Aeronautical University-Daytona Beach,Daytona Beach,FL,32114-3900,29.189903,-81.048367,POINT (-81.048367 29.189903)
133650,418,208,0.49760765550239233,Florida Agricultural and Mechanical University,Tallahassee,FL,32307,30.428504,-84.290226,POINT (-84.290226 30.428504)
133669,452,96,0.21238938053097345,Florida Atlantic University,Boca Raton,FL,33431-0991,26.372421,-80.102978,POINT (-80.10297799999999 26.372421)
133881,650,116,0.17846153846153845,Florida Institute of Technology,Melbourne,FL,32901-6975,28.065815,-80.622893,POINT (-80.622893 28.065815)
133951,559,125,0.22361359570661896,Florida International University,Miami,FL,33199,25.75732,-80.373928,POINT (-80.37392800000001 25.75732)
134097,734,192,0.2615803814713896,Florida State University,Tallahassee,FL,32306-1037,30.440756,-84.291921,POINT (-84.291921 30.440756)
134130,3059,869,0.2840797646289637,University of Florida,Gainesville,FL,32611,29.64629,-82.347911,POINT (-82.347911 29.64629)
135726,575,193,0.3356521739130435,University of Miami,Coral Gables,FL,33146,25.72126,-80.278662,POINT (-80.278662 25.72126)
136172,62,14,0.22580645161290322,University of North Florida,Jacksonville,FL,32224-7699,30.27194,-81.509144,POINT (-81.50914400000001 30.27194)
137351,1294,359,0.27743431221020093,University of South Florida,Tampa,FL,33620-9951,28.061458,-82.413232,POINT (-82.41323199999999 28.061458)
138354,120,24,0.2,The University of West Florida,Pensacola,FL,32514-5750,30.549076,-87.218511,POINT (-87.21851100000001 30.549076)
138947,85,80,0.9411764705882353,Clark Atlanta University,Atlanta,GA,30314-4391,33.747628,-84.412584,POINT (-84.412584 33.747628)
139755,4306,1364,0.3167673014398514,Georgia Institute of Technology-Main Campus,Atlanta,GA,30332-0530,33.77242,-84.394832,POINT (-84.39483199999999 33.77242)
139959,137,39,0.2846715328467153,University of Georgia,Athens,GA,30602,33.956262,-83.374039,POINT (-83.374039 33.956262)
140447,263,135,0.5133079847908745,Mercer University,Macon,GA,31207,32.831787,-83.648295,POINT (-83.648295 32.831787)
140553,280,0,0.0,Morehouse College,Atlanta,GA,30314,33.745982,-84.414917,POINT (-84.414917 33.745982)
141574,405,100,0.24691358024691357,University of Hawaii at Manoa,Honolulu,HI,96822-2217,21.298598,-157.818979,POINT (-157.818979 21.298598)
142115,356,61,0.17134831460674158,Boise State University,Boise,ID,83725,43.604284,-116.203301,POINT (-116.203301 43.604284)
142276,241,43,0.17842323651452283,Idaho State University,Pocatello,ID,83209,42.863832,-112.432312,POINT (-112.432312 42.863832)
142285,844,143,0.16943127962085308,University of Idaho,Moscow,ID,83844-2282,46.727406,-117.014167,POINT (-117.014167 46.727406)
142461,20,2,0.1,Northwest Nazarene University,Nampa,ID,83686-5897,43.562411,-116.565783,POINT (-116.565783 43.562411)
143084,1,0,0.0,Augustana College,Rock Island,IL,61201-2296,41.502365,-90.55057,POINT (-90.55056999999999 41.502365)
143358,519,103,0.19845857418111754,Bradley University,Peoria,IL,61625-0001,40.696896,-89.616786,POINT (-89.616786 40.696896)
144892,1,0,0.0,Eastern Illinois University,Charleston,IL,61920,39.479843,-88.175658,POINT (-88.175658 39.479843)
145600,1079,270,0.25023169601482853,University of Illinois Chicago,Chicago,IL,60607,41.871837,-87.650503,POINT (-87.650503 41.871837)
145619,26,2,0.07692307692307693,Benedictine University,Lisle,IL,60532-0900,41.777569,-88.097307,POINT (-88.097307 41.777569)
145637,3676,906,0.24646354733405876,University of Illinois Urbana-Champaign,Champaign,IL,61820-5711,40.104718,-88.229114,POINT (-88.229114 40.104718)
145691,2,0,0.0,Illinois College,Jacksonville,IL,62650-2299,39.7313,-90.246171,POINT (-90.246171 39.7313)
145725,588,179,0.304421768707483,Illinois Institute of Technology,Chicago,IL,60616,41.8313,-87.627321,POINT (-87.62732099999999 41.8313)
147703,748,104,0.13903743315508021,Northern Illinois University,Dekalb,IL,60115-2828,41.933869,-88.766428,POINT (-88.766428 41.933869)
147767,722,343,0.47506925207756234,Northwestern University,Evanston,IL,60208,42.050356,-87.679858,POINT (-87.679858 42.050356)
147828,41,9,0.21951219512195122,Olivet Nazarene University,Bourbonnais,IL,60914-2271,41.155237,-87.875165,POINT (-87.875165 41.155237)
148016,1,0,0.0,Principia College,Elsah,IL,62028-9799,38.948835,-90.350285,POINT (-90.350285 38.948835)
148405,0,1,inf,Rockford University,Rockford,IL,61108-2311,42.270639,-89.019536,POINT (-89.019536 42.270639)
149222,643,98,0.15241057542768274,Southern Illinois University-Carbondale,Carbondale,IL,62901-4512,37.714193,-89.217273,POINT (-89.21727300000001 37.714193)
149231,271,49,0.18081180811808117,Southern Illinois University-Edwardsville,Edwardsville,IL,62026-1259,38.793949,-89.997779,POINT (-89.99777899999999 38.793949)
149781,22,1,0.045454545454545456,Wheaton College,Wheaton,IL,60187-5593,41.870176,-88.099643,POINT (-88.099643 41.870176)
150534,257,31,0.12062256809338522,University of Evansville,Evansville,IN,47722,37.971549,-87.531644,POINT (-87.531644 37.971549)
151102,124,18,0.14516129032258066,Purdue University Fort Wayne,Fort Wayne,IN,46805-1499,41.117278,-85.108962,POINT (-85.10896200000001 41.117278)
151111,303,61,0.20132013201320131,Indiana University-Purdue University-Indianapolis,Indianapolis,IN,46202-5143,39.772948,-86.172217,POINT (-86.172217 39.772948)
151263,7,3,0.42857142857142855,University of Indianapolis,Indianapolis,IN,46227-3697,39.709571,-86.133969,POINT (-86.13396899999999 39.709571)
151290,112,16,0.14285714285714285,Indiana Institute of Technology,Fort Wayne,IN,46803-1228,41.078365,-85.116479,POINT (-85.116479 41.078365)
151777,5,0,0.0,Manchester University,North Manchester,IN,46962,41.010549,-85.762643,POINT (-85.762643 41.010549)
152080,681,202,0.2966226138032305,University of Notre Dame,Notre Dame,IN,46556,41.703058,-86.238959,POINT (-86.23895899999999 41.703058)
152318,1028,213,0.20719844357976655,Rose-Hulman Institute of Technology,Terre Haute,IN,47803-3920,39.483602,-87.326749,POINT (-87.32674900000001 39.483602)
152530,29,5,0.1724137931034483,Taylor University,Upland,IN,46989-1001,40.456246,-85.497034,POINT (-85.497034 40.456246)
152567,378,74,0.19576719576719576,Trine University,Angola,IN,46703-1764,41.632502,-85.008009,POINT (-85.008009 41.632502)
152600,295,73,0.24745762711864408,Valparaiso University,Valparaiso,IN,46383,41.462239,-87.040172,POINT (-87.040172 41.462239)
153250,78,1,0.01282051282051282,Dordt University,Sioux Center,IA,51250-1606,43.082527,-96.166562,POINT (-96.166562 43.082527)
153603,3535,686,0.19405940594059407,Iowa State University,Ames,IA,50011-2103,42.026212,-93.648504,POINT (-93.648504 42.026212)
153658,810,284,0.3506172839506173,University of Iowa,Iowa City,IA,52242-1316,41.661935,-91.536425,POINT (-91.53642499999999 41.661935)
153825,1,9,9.0,Loras College,Dubuque,IA,52004-0178,42.503908,-90.679023,POINT (-90.679023 42.503908)
153861,2,1,0.5,Maharishi International University,Fairfield,IA,52557,41.017781,-91.967306,POINT (-91.96730599999999 41.017781)
154004,5,2,0.4,Morningside College,Sioux City,IA,51106-1751,42.473891,-96.359464,POINT (-96.359464 42.473891)
154095,4,0,0.0,University of Northern Iowa,Cedar Falls,IA,50614-0005,42.514923,-92.459703,POINT (-92.459703 42.514923)
154235,17,5,0.29411764705882354,Saint Ambrose University,Davenport,IA,52803-2898,41.54065,-90.579854,POINT (-90.579854 41.54065)
155317,990,247,0.2494949494949495,University of Kansas,Lawrence,KS,66045,38.958549,-95.247567,POINT (-95.247567 38.958549)
155399,1440,279,0.19375,Kansas State University,Manhattan,KS,66506,39.188648,-96.581077,POINT (-96.58107699999999 39.188648)
156286,12,1,0.08333333333333333,Bellarmine University,Louisville,KY,40205-0671,38.219279,-85.704997,POINT (-85.70499700000001 38.219279)
157085,1062,238,0.224105461393597,University of Kentucky,Lexington,KY,40506-0032,38.038911,-84.504747,POINT (-84.50474699999999 38.038911)
157289,837,192,0.22939068100358423,University of Louisville,Louisville,KY,40292-0001,38.216862,-85.760412,POINT (-85.760412 38.216862)
157401,47,6,0.1276595744680851,Murray State University,Murray,KY,42071-3318,36.612419,-88.323629,POINT (-88.323629 36.612419)
158802,28,9,0.32142857142857145,Dillard University,New Orleans,LA,70122,29.996587,-90.06464,POINT (-90.06464 29.996587)
159391,2155,571,0.26496519721577727,Louisiana State University and Agricultural & Mechanical College,Baton Rouge,LA,70803-2750,30.414986,-91.178921,POINT (-91.178921 30.414986)
159568,4,1,0.25,Louisiana College,Pineville,LA,71359,31.324528,-92.425973,POINT (-92.425973 31.324528)
159647,874,207,0.23684210526315788,Louisiana Tech University,Ruston,LA,71272,32.528297,-92.649963,POINT (-92.649963 32.528297)
159656,5,1,0.2,Loyola University New Orleans,New Orleans,LA,70118-6143,29.936141,-90.120417,POINT (-90.120417 29.936141)
159717,270,71,0.26296296296296295,McNeese State University,Lake Charles,LA,70605,30.178187,-93.217222,POINT (-93.21722200000001 30.178187)
160621,542,152,0.28044280442804426,Southern University and A & M College,Baton Rouge,LA,70813,30.524558,-91.190105,POINT (-91.190105 30.524558)
160658,797,143,0.1794228356336261,University of Louisiana at Lafayette,Lafayette,LA,70503,30.212191,-92.020165,POINT (-92.02016500000001 30.212191)
160755,90,45,0.5,Tulane University of Louisiana,New Orleans,LA,70118-5698,29.940069,-90.122144,POINT (-90.12214400000001 29.940069)
160904,43,46,1.069767441860465,Xavier University of Louisiana,New Orleans,LA,70125-1098,29.964162,-90.107307,POINT (-90.10730700000001 29.964162)
160977,2,0,0.0,Bates College,Lewiston,ME,4240,44.105299,-70.203333,POINT (-70.203333 44.105299)
161253,593,125,0.21079258010118043,University of Maine,Orono,ME,4469,44.899257,-68.669332,POINT (-68.669332 44.899257)
161554,63,10,0.15873015873015872,University of Southern Maine,Portland,ME,4103,43.662863,-70.274247,POINT (-70.274247 43.662863)
162061,50,17,0.34,Capitol Technology University,Laurel,MD,20708,39.046673,-76.850231,POINT (-76.85023099999999 39.046673)
162928,657,234,0.3561643835616438,Johns Hopkins University,Baltimore,MD,21218-2688,39.328977,-76.621595,POINT (-76.621595 39.328977)
163046,30,10,0.3333333333333333,Loyola University Maryland,Baltimore,MD,21210-2699,39.346358,-76.621872,POINT (-76.621872 39.346358)
163268,455,138,0.3032967032967033,University of Maryland-Baltimore County,Baltimore,MD,21250,39.256686,-76.711607,POINT (-76.711607 39.256686)
163286,2150,610,0.2837209302325581,University of Maryland-College Park,College Park,MD,20742,38.988178,-76.944721,POINT (-76.944721 38.988178)
163338,46,12,0.2608695652173913,University of Maryland Eastern Shore,Princess Anne,MD,21853-1299,38.207386,-75.686852,POINT (-75.686852 38.207386)
163453,481,256,0.5322245322245323,Morgan State University,Baltimore,MD,21251-0001,39.344161,-76.585565,POINT (-76.585565 39.344161)
164155,873,97,0.1111111111111111,United States Naval Academy,Annapolis,MD,21402-1300,38.980507,-76.481692,POINT (-76.481692 38.980507)
165644,12,3,0.25,Eastern Nazarene College,Quincy,MA,02170-2999,42.271228,-71.011079,POINT (-71.011079 42.271228)
165866,11,2,0.18181818181818182,Framingham State University,Framingham,MA,01701-9101,42.297116,-71.437565,POINT (-71.43756500000001 42.297116)
166027,64,17,0.265625,Harvard University,Cambridge,MA,2138,42.374471,-71.118313,POINT (-71.118313 42.374471)
166513,718,111,0.15459610027855153,University of Massachusetts-Lowell,Lowell,MA,01854-5104,42.652864,-71.326809,POINT (-71.326809 42.652864)
166638,43,8,0.18604651162790697,University of Massachusetts-Boston,Boston,MA,02125-3393,42.312881,-71.036865,POINT (-71.03686500000001 42.312881)
166683,1278,665,0.5203442879499217,Massachusetts Institute of Technology,Cambridge,MA,02139-4307,42.359243,-71.093226,POINT (-71.093226 42.359243)
166692,321,39,0.12149532710280374,Massachusetts Maritime Academy,Buzzards Bay,MA,02532-1803,41.739072,-70.624084,POINT (-70.624084 41.739072)
167358,1227,276,0.22493887530562348,Northeastern University,Boston,MA,02115-5005,42.339992,-71.088782,POINT (-71.08878199999999 42.339992)
167987,433,50,0.11547344110854503,University of Massachusetts-Dartmouth,North Dartmouth,MA,02747-2300,41.62869,-71.004552,POINT (-71.004552 41.62869)
168148,541,242,0.44731977818853974,Tufts University,Medford,MA,02155-5555,42.40855,-71.118293,POINT (-71.11829299999999 42.40855)
168254,204,35,0.1715686274509804,Western New England University,Springfield,MA,01119-2684,42.115017,-72.520466,POINT (-72.520466 42.115017)
169248,2,1,0.5,Central Michigan University,Mount Pleasant,MI,48859,43.591203,-84.77525,POINT (-84.77525 43.591203)
169716,181,74,0.4088397790055249,University of Detroit Mercy,Detroit,MI,48221-3038,42.414222,-83.139158,POINT (-83.13915799999999 42.414222)
169798,138,41,0.2971014492753623,Eastern Michigan University,Ypsilanti,MI,48197,42.251675,-83.627443,POINT (-83.627443 42.251675)
169983,1785,393,0.22016806722689075,Kettering University,Flint,MI,48504-6214,43.012468,-83.71282,POINT (-83.71281999999999 43.012468)
170082,387,60,0.15503875968992248,Grand Valley State University,Allendale,MI,49401-9403,42.963001,-85.889826,POINT (-85.889826 42.963001)
170301,15,4,0.26666666666666666,Hope College,Holland,MI,49422-9000,42.787298,-86.102089,POINT (-86.10208900000001 42.787298)
170639,173,38,0.21965317919075145,Lake Superior State University,Sault Ste Marie,MI,49783,46.492849,-84.365573,POINT (-84.365573 46.492849)
170976,3141,1217,0.3874562241324419,University of Michigan-Ann Arbor,Ann Arbor,MI,48109,42.275921,-83.742769,POINT (-83.742769 42.275921)
171100,2435,699,0.28706365503080084,Michigan State University,East Lansing,MI,48824-1046,42.73212,-84.476111,POINT (-84.476111 42.73212)
171128,2413,643,0.26647326978864483,Michigan Technological University,Houghton,MI,49931-1295,47.11866,-88.548092,POINT (-88.548092 47.11866)
171137,772,211,0.27331606217616583,University of Michigan-Dearborn,Dearborn,MI,48128-1491,42.317287,-83.231417,POINT (-83.23141699999999 42.317287)
171146,92,20,0.21739130434782608,University of Michigan-Flint,Flint,MI,48502-1950,43.01875,-83.690276,POINT (-83.690276 43.01875)
171571,577,178,0.30849220103986136,Oakland University,Rochester Hills,MI,48309-4401,42.674573,-83.216418,POINT (-83.216418 42.674573)
172264,8,1,0.125,Siena Heights University,Adrian,MI,49221,41.905624,-84.018841,POINT (-84.01884099999999 41.905624)
172644,484,182,0.3760330578512397,Wayne State University,Detroit,MI,48202,42.358994,-83.068998,POINT (-83.06899799999999 42.358994)
172699,1136,199,0.17517605633802816,Western Michigan University,Kalamazoo,MI,49008-5200,42.282194,-85.613759,POINT (-85.613759 42.282194)
173160,22,4,0.18181818181818182,Bethel University,Saint Paul,MN,55112,45.057655,-93.161663,POINT (-93.161663 45.057655)
173920,287,21,0.07317073170731707,Minnesota State University-Mankato,Mankato,MN,56001,44.146712,-93.99945,POINT (-93.99945 44.146712)
174066,1102,242,0.21960072595281308,University of Minnesota-Twin Cities,Minneapolis,MN,55455-0213,44.972851,-93.235464,POINT (-93.23546399999999 44.972851)
174075,1,3,3.0,University of Minnesota-Crookston,Crookston,MN,56716-5001,47.802536,-96.606188,POINT (-96.606188 47.802536)
174233,468,67,0.14316239316239315,University of Minnesota-Duluth,Duluth,MN,55812,46.817126,-92.084385,POINT (-92.084385 46.817126)
174251,18,1,0.05555555555555555,University of Minnesota-Morris,Morris,MN,56267,45.589775,-95.899729,POINT (-95.89972899999999 45.589775)
174358,39,4,0.10256410256410256,Minnesota State University Moorhead,Moorhead,MN,56563,46.867153,-96.759532,POINT (-96.75953199999999 46.867153)
174783,97,12,0.12371134020618557,Saint Cloud State University,Saint Cloud,MN,56301-4498,45.553227,-94.152657,POINT (-94.152657 45.553227)
174817,3,0,0.0,Saint Mary's University of Minnesota,Winona,MN,55987-1399,44.044736,-91.695449,POINT (-91.695449 44.044736)
174914,81,16,0.19753086419753085,University of St Thomas,Saint Paul,MN,55105-1078,44.943439,-93.188986,POINT (-93.188986 44.943439)
175272,83,16,0.1927710843373494,Winona State University,Winona,MN,55987-5838,44.046159,-91.643723,POINT (-91.64372299999999 44.046159)
175856,59,21,0.3559322033898305,Jackson State University,Jackson,MS,39217,32.296105,-90.207405,POINT (-90.20740499999999 32.296105)
176017,363,102,0.2809917355371901,University of Mississippi,University,MS,38677-1848,34.365529,-89.537434,POINT (-89.537434 34.365529)
176080,1417,342,0.24135497529992944,Mississippi State University,Mississippi State,MS,39762,33.454852,-88.790139,POINT (-88.790139 33.454852)
177542,6,1,0.16666666666666666,Hannibal-LaGrange University,Hannibal,MO,63401,39.729015,-91.39094,POINT (-91.39094 39.729015)
178396,1261,252,0.1998413957176844,University of Missouri-Columbia,Columbia,MO,65211,38.94531,-92.328843,POINT (-92.32884300000001 38.94531)
178402,119,19,0.15966386554621848,University of Missouri-Kansas City,Kansas City,MO,64110,39.034179,-94.582141,POINT (-94.58214099999999 39.034179)
178411,2007,486,0.242152466367713,Missouri University of Science and Technology,Rolla,MO,65409,37.953426,-91.775583,POINT (-91.775583 37.953426)
178420,93,22,0.23655913978494625,University of Missouri-St Louis,Saint Louis,MO,63121-4400,38.710312,-90.311091,POINT (-90.311091 38.710312)
179159,267,103,0.3857677902621723,Saint Louis University,Saint Louis,MO,63103-2097,38.636801,-90.2351,POINT (-90.2351 38.636801)
179557,9,0,0.0,Southeast Missouri State University,Cape Girardeau,MO,63701,37.311107,-89.531187,POINT (-89.531187 37.311107)
180106,12,3,0.25,Carroll College,Helena,MT,59625-0002,46.600771,-112.040285,POINT (-112.040285 46.600771)
180179,2,0,0.0,Montana State University Billings,Billings,MT,59101-0298,45.796896,-108.523009,POINT (-108.523009 45.796896)
180416,544,152,0.27941176470588236,Montana Technological University,Butte,MT,59701-8997,46.012868,-112.559511,POINT (-112.559511 46.012868)
180461,1087,184,0.16927322907083717,Montana State University,Bozeman,MT,59717,45.666726,-111.048812,POINT (-111.048812 45.666726)
180984,10,0,0.0,Concordia University-Nebraska,Seward,NE,68434-1556,40.914853,-97.089054,POINT (-97.089054 40.914853)
181464,1428,231,0.16176470588235295,University of Nebraska-Lincoln,Lincoln,NE,68588-0419,40.817598,-96.700508,POINT (-96.700508 40.817598)
181738,10,0,0.0,Union College,Lincoln,NE,68506,40.774778,-96.651095,POINT (-96.651095 40.774778)
182281,348,73,0.20977011494252873,University of Nevada-Las Vegas,Las Vegas,NV,89154,36.106047,-115.138462,POINT (-115.138462 36.106047)
182290,571,136,0.2381786339754816,University of Nevada-Reno,Reno,NV,89557,39.543642,-119.815377,POINT (-119.815377 39.543642)
183044,423,84,0.19858156028368795,University of New Hampshire-Main Campus,Durham,NH,03824-3547,43.135934,-70.932465,POINT (-70.93246499999999 43.135934)
183239,13,2,0.15384615384615385,Saint Anselm College,Manchester,NH,03102-1310,42.986889,-71.503622,POINT (-71.50362199999999 42.986889)
184603,32,2,0.0625,Fairleigh Dickinson University-Metropolitan Campus,Teaneck,NJ,7666,40.897209,-74.028986,POINT (-74.028986 40.897209)
184782,252,67,0.26587301587301587,Rowan University,Glassboro,NJ,8028,39.709108,-75.119119,POINT (-75.119119 39.709108)
185572,22,1,0.045454545454545456,Monmouth University,West Long Branch,NJ,07764-1898,40.280066,-74.006447,POINT (-74.00644699999999 40.280066)
185828,1261,272,0.21570182394924664,New Jersey Institute of Technology,Newark,NJ,7102,40.741997,-74.177113,POINT (-74.17711300000001 40.741997)
186131,276,93,0.33695652173913043,Princeton University,Princeton,NJ,08544-0070,40.348732,-74.659365,POINT (-74.65936499999999 40.348732)
186380,1163,352,0.30266552020636284,Rutgers University-New Brunswick,New Brunswick,NJ,08901-1281,40.498769,-74.446251,POINT (-74.446251 40.498769)
186867,831,239,0.28760529482551145,Stevens Institute of Technology,Hoboken,NJ,07030-5991,40.744776,-74.025334,POINT (-74.025334 40.744776)
187134,179,44,0.24581005586592178,The College of New Jersey,Ewing,NJ,08628-7718,40.268651,-74.778791,POINT (-74.778791 40.268651)
187897,38,15,0.39473684210526316,New Mexico Highlands University,Las Vegas,NM,87701,35.596233,-105.219197,POINT (-105.219197 35.596233)
187967,357,90,0.25210084033613445,New Mexico Institute of Mining and Technology,Socorro,NM,87801,34.067041,-106.905211,POINT (-106.905211 34.067041)
187985,807,246,0.3048327137546468,University of New Mexico-Main Campus,Albuquerque,NM,87106,35.083868,-106.620155,POINT (-106.620155 35.083868)
188030,847,249,0.2939787485242031,New Mexico State University-Main Campus,Las Cruces,NM,88003-8001,32.281568,-106.752069,POINT (-106.752069 32.281568)
189705,9,6,0.6666666666666666,Canisius College,Buffalo,NY,14208-1098,42.925206,-78.852577,POINT (-78.852577 42.925206)
190044,1090,194,0.1779816513761468,Clarkson University,Potsdam,NY,13699,44.662716,-74.999359,POINT (-74.999359 44.662716)
190150,904,338,0.37389380530973454,Columbia University in the City of New York,New York,NY,10027,40.808286,-73.961885,POINT (-73.961885 40.808286)
190372,325,126,0.38769230769230767,Cooper Union for the Advancement of Science and Art,New York,NY,10003-7120,40.728148,-73.991609,POINT (-73.991609 40.728148)
190415,782,229,0.2928388746803069,Cornell University,Ithaca,NY,14853,42.4472,-76.483084,POINT (-76.48308400000001 42.4472)
190558,28,3,0.10714285714285714,College of Staten Island CUNY,Staten Island,NY,10314,40.601831,-74.14849,POINT (-74.14849 40.601831)
190567,150,42,0.28,CUNY City College,New York,NY,10031,40.819846,-73.948542,POINT (-73.948542 40.819846)
191649,141,30,0.2127659574468085,Hofstra University,Hempstead,NY,11549,40.715959,-73.60078,POINT (-73.60078 40.715959)
192703,318,84,0.2641509433962264,Manhattan College,Riverdale,NY,10471-4098,40.889756,-73.901893,POINT (-73.901893 40.889756)
194091,90,10,0.1111111111111111,New York Institute of Technology,Old Westbury,NY,11568-8000,40.812447,-73.6078,POINT (-73.6078 40.812447)
194824,2090,586,0.28038277511961723,Rensselaer Polytechnic Institute,Troy,NY,12180-3590,42.729978,-73.676646,POINT (-73.67664600000001 42.729978)
195030,430,143,0.3325581395348837,University of Rochester,Rochester,NY,14627-0011,43.126397,-77.631202,POINT (-77.631202 43.126397)
195164,2,0,0.0,St Bonaventure University,Saint Bonaventure,NY,14778-9800,42.080191,-78.481107,POINT (-78.48110699999999 42.080191)
196866,227,62,0.27312775330396477,Union College,Schenectady,NY,12308-2311,42.818097,-73.928788,POINT (-73.928788 42.818097)
197027,367,29,0.07901907356948229,United States Merchant Marine Academy,Kings Point,NY,11024-1634,40.81357,-73.763004,POINT (-73.763004 40.81357)
198419,612,197,0.32189542483660133,Duke University,Durham,NC,27708,36.001135,-78.937624,POINT (-78.937624 36.001135)
198516,15,8,0.5333333333333333,Elon University,Elon,NC,27244-2010,36.104148,-79.50344,POINT (-79.50344 36.104148)
198756,3,7,2.3333333333333335,Johnson C Smith University,Charlotte,NC,28216-5398,35.243033,-80.857251,POINT (-80.85725100000001 35.243033)
199102,550,265,0.4818181818181818,North Carolina A & T State University,Greensboro,NC,27411,36.07282,-79.773375,POINT (-79.773375 36.07282)
199139,540,76,0.14074074074074075,University of North Carolina at Charlotte,Charlotte,NC,28223-0001,35.306022,-80.730919,POINT (-80.730919 35.306022)
199193,3728,1179,0.31625536480686695,North Carolina State University at Raleigh,Raleigh,NC,27695-7001,35.785111,-78.674517,POINT (-78.67451699999999 35.785111)
199306,8,0,0.0,Pfeiffer University,Misenheimer,NC,28109-0960,35.484696,-80.283168,POINT (-80.283168 35.484696)
200280,453,92,0.20309050772626933,University of North Dakota,Grand Forks,ND,58202-8193,47.921654,-97.071738,POINT (-97.071738 47.921654)
200800,969,196,0.20227038183694532,University of Akron Main Campus,Akron,OH,44325-4702,41.078551,-81.511679,POINT (-81.511679 41.078551)
200846,37,3,0.08108108108108109,University of Akron Wayne College,Orrville,OH,44667,40.861519,-81.789979,POINT (-81.789979 40.861519)
201195,19,5,0.2631578947368421,Baldwin Wallace University,Berea,OH,44017-2088,41.373017,-81.851145,POINT (-81.851145 41.373017)
201645,517,194,0.37524177949709864,Case Western Reserve University,Cleveland,OH,44106,41.507419,-81.609596,POINT (-81.609596 41.507419)
201690,33,6,0.18181818181818182,Central State University,Wilberforce,OH,45384-1004,39.715787,-83.880186,POINT (-83.88018599999999 39.715787)
201885,1530,326,0.2130718954248366,University of Cincinnati-Main Campus,Cincinnati,OH,45221-0063,39.131159,-84.51428,POINT (-84.51428 39.131159)
202134,365,79,0.21643835616438356,Cleveland State University,Cleveland,OH,44115-2214,41.502281,-81.674355,POINT (-81.67435500000001 41.502281)
203368,7,2,0.2857142857142857,John Carroll University,University Heights,OH,44118-4538,41.491321,-81.531338,POINT (-81.53133800000001 41.491321)
203517,66,3,0.045454545454545456,Kent State University at Kent,Kent,OH,44242-0001,41.146653,-81.342533,POINT (-81.342533 41.146653)
204006,5,0,0.0,Miami University-Hamilton,Hamilton,OH,45011,39.377448,-84.563385,POINT (-84.563385 39.377448)
204015,1,0,0.0,Miami University-Middletown,Middletown,OH,45042,39.523776,-84.35724,POINT (-84.35724 39.523776)
204024,195,64,0.3282051282051282,Miami University-Oxford,Oxford,OH,45056,39.507757,-84.732954,POINT (-84.73295400000001 39.507757)
204194,2,0,0.0,Mount Vernon Nazarene University,Mount Vernon,OH,43050-9500,40.372901,-82.471074,POINT (-82.471074 40.372901)
204671,32,2,0.0625,Ohio State University-Lima Campus,Lima,OH,45804,40.738521,-84.02384,POINT (-84.02384000000001 40.738521)
204680,25,2,0.08,Ohio State University-Mansfield Campus,Mansfield,OH,44906,40.796536,-82.580194,POINT (-82.58019400000001 40.796536)
204699,20,1,0.05,Ohio State University-Marion Campus,Marion,OH,43302-5695,40.577779,-83.090597,POINT (-83.090597 40.577779)
204705,52,6,0.11538461538461539,Ohio State University-Newark Campus,Newark,OH,43055,40.069314,-82.447441,POINT (-82.447441 40.069314)
204796,2861,605,0.21146452289409298,Ohio State University-Main Campus,Columbus,OH,43210,39.999324,-83.014853,POINT (-83.014853 39.999324)
204802,11,2,0.18181818181818182,Ohio University-Eastern Campus,Saint Clairsville,OH,43950,40.073392,-80.976073,POINT (-80.976073 40.073392)
204820,21,3,0.14285714285714285,Ohio University-Chillicothe Campus,Chillicothe,OH,45601-0629,39.329404,-83.002175,POINT (-83.00217499999999 39.329404)
204839,20,2,0.1,Ohio University-Southern Campus,Ironton,OH,45638,38.524781,-82.666876,POINT (-82.666876 38.524781)
204848,25,3,0.12,Ohio University-Lancaster Campus,Lancaster,OH,43130-1037,39.738752,-82.586069,POINT (-82.58606899999999 39.738752)
204857,863,148,0.17149478563151796,Ohio University-Main Campus,Athens,OH,45701-2979,39.326798,-82.100985,POINT (-82.10098499999999 39.326798)
204866,22,2,0.09090909090909091,Ohio University-Zanesville Campus,Zanesville,OH,43701,39.96098,-82.031063,POINT (-82.031063 39.96098)
205957,13,2,0.15384615384615385,Franciscan University of Steubenville,Steubenville,OH,43952-1763,40.376919,-80.620524,POINT (-80.620524 40.376919)
206084,1239,255,0.20581113801452786,University of Toledo,Toledo,OH,43606-3390,41.660572,-83.614714,POINT (-83.61471400000001 41.660572)
206604,488,124,0.2540983606557377,Wright State University-Main Campus,Dayton,OH,45435-0001,39.780634,-84.064881,POINT (-84.064881 39.780634)
206622,1,1,1.0,Xavier University,Cincinnati,OH,45207-1092,39.149547,-84.47465,POINT (-84.47465 39.149547)
206695,497,109,0.2193158953722334,Youngstown State University,Youngstown,OH,44555-0001,41.104928,-80.64659,POINT (-80.64659 41.104928)
206862,2,0,0.0,Southern Nazarene University,Bethany,OK,73008,35.513295,-97.629504,POINT (-97.629504 35.513295)
207263,72,16,0.2222222222222222,Northeastern State University,Tahlequah,OK,74464-2399,35.919939,-94.967229,POINT (-94.967229 35.919939)
207281,30,3,0.1,Northern Oklahoma College,Tonkawa,OK,74653,36.678649,-97.295887,POINT (-97.29588699999999 36.678649)
207388,1175,309,0.2629787234042553,Oklahoma State University-Main Campus,Stillwater,OK,74078-1015,36.123085,-97.069743,POINT (-97.069743 36.123085)
207403,3,0,0.0,Oklahoma Baptist University,Shawnee,OK,74804,35.360492,-96.932459,POINT (-96.93245899999999 35.360492)
207500,1217,365,0.2999178307313065,University of Oklahoma-Norman Campus,Norman,OK,73019-3072,35.209407,-97.444211,POINT (-97.444211 35.209407)
207582,22,9,0.4090909090909091,Oral Roberts University,Tulsa,OK,74171,36.049129,-95.952547,POINT (-95.952547 36.049129)
207661,15,4,0.26666666666666666,Rogers State University,Claremore,OK,74017-3252,36.321437,-95.635718,POINT (-95.635718 36.321437)
207865,122,10,0.08196721311475409,Southwestern Oklahoma State University,Weatherford,OK,73096-3001,35.535281,-98.707768,POINT (-98.707768 35.535281)
207935,194,28,0.14432989690721648,Tulsa Community College,Tulsa,OK,74135-6198,36.106788,-95.90825,POINT (-95.90825 36.106788)
208822,15,1,0.06666666666666667,George Fox University,Newberg,OR,97132,45.303629,-122.967494,POINT (-122.967494 45.303629)
209506,91,23,0.25274725274725274,Oregon Institute of Technology,Klamath Falls,OR,97601-8801,42.257152,-121.785177,POINT (-121.785177 42.257152)
209542,1998,317,0.15865865865865866,Oregon State University,Corvallis,OR,97331,44.56395,-123.274723,POINT (-123.274723 44.56395)
209551,25,3,0.12,University of Oregon,Eugene,OR,97403,44.045146,-123.075792,POINT (-123.075792 44.045146)
209807,393,70,0.178117048346056,Portland State University,Portland,OR,97201,45.511601,-122.686289,POINT (-122.686289 45.511601)
209825,296,78,0.2635135135135135,University of Portland,Portland,OR,97203-5798,45.572724,-122.726691,POINT (-122.726691 45.572724)
210146,16,5,0.3125,Southern Oregon University,Ashland,OR,97520,42.185077,-122.695081,POINT (-122.695081 42.185077)
211158,3,1,0.3333333333333333,Bloomsburg University of Pennsylvania,Bloomsburg,PA,17815,41.00782,-76.447844,POINT (-76.447844 41.00782)
211291,525,172,0.32761904761904764,Bucknell University,Lewisburg,PA,17837,40.954317,-76.882616,POINT (-76.882616 40.954317)
211440,1025,302,0.2946341463414634,Carnegie Mellon University,Pittsburgh,PA,15213-3890,40.44357,-79.941993,POINT (-79.941993 40.44357)
211468,0,50,inf,Cedar Crest College,Allentown,PA,18104-6196,40.586318,-75.519221,POINT (-75.519221 40.586318)
212054,1941,480,0.2472952086553323,Drexel University,Philadelphia,PA,19104,39.955217,-75.190051,POINT (-75.190051 39.955217)
212106,13,5,0.38461538461538464,Duquesne University,Pittsburgh,PA,15282,40.43589,-79.993123,POINT (-79.993123 40.43589)
212197,49,10,0.20408163265306123,Elizabethtown College,Elizabethtown,PA,17022-2298,40.149236,-76.593224,POINT (-76.59322400000001 40.149236)
212601,112,10,0.08928571428571429,Gannon University,Erie,PA,16541-0001,42.128403,-80.087166,POINT (-80.087166 42.128403)
212656,105,14,0.13333333333333333,Geneva College,Beaver Falls,PA,15010-3599,40.772518,-80.321826,POINT (-80.321826 40.772518)
213251,5,3,0.6,Juniata College,Huntingdon,PA,16652-2196,40.500523,-78.017292,POINT (-78.017292 40.500523)
213385,327,112,0.3425076452599388,Lafayette College,Easton,PA,18042-1768,40.69956,-75.209786,POINT (-75.20978599999999 40.69956)
213543,708,176,0.24858757062146894,Lehigh University,Bethlehem,PA,18015,40.606822,-75.380236,POINT (-75.380236 40.606822)
213996,140,22,0.15714285714285714,Messiah University,Mechanicsburg,PA,17055,40.156579,-76.988269,POINT (-76.988269 40.156579)
214591,437,62,0.14187643020594964,Pennsylvania State University-Penn State Erie-Behrend College,Erie,PA,16563-0001,42.119433,-79.983773,POINT (-79.983773 42.119433)
214625,71,7,0.09859154929577464,Pennsylvania State University-Penn State New Kensington,New Kensington,PA,15068-1765,40.551159,-79.697232,POINT (-79.697232 40.551159)
214634,15,1,0.06666666666666667,Pennsylvania State University-Penn State Shenango,Sharon,PA,16146-1537,41.235053,-80.508764,POINT (-80.508764 41.235053)
214643,68,9,0.1323529411764706,Pennsylvania State University-Penn State Wilkes-Barre,Lehman,PA,18627-0217,41.306003,-76.016599,POINT (-76.016599 41.306003)
214652,75,7,0.09333333333333334,Pennsylvania State University-Penn State Scranton,Dunmore,PA,18512-1602,41.440258,-75.620583,POINT (-75.620583 41.440258)
214670,54,6,0.1111111111111111,Pennsylvania State University-Penn State Lehigh Valley,Center Valley,PA,18034-8447,40.559208,-75.402507,POINT (-75.402507 40.559208)
214689,209,29,0.13875598086124402,Pennsylvania State University-Penn State Altoona,Altoona,PA,16601-3777,40.54092,-78.408247,POINT (-78.408247 40.54092)
214698,87,11,0.12643678160919541,Pennsylvania State University-Penn State Beaver,Monaca,PA,15061-2764,40.678254,-80.296235,POINT (-80.296235 40.678254)
214704,238,19,0.07983193277310924,Pennsylvania State University-Penn State Berks,Reading,PA,19610-1016,40.357987,-75.972141,POINT (-75.97214099999999 40.357987)
214713,30,3,0.1,Pennsylvania State University-Penn State Harrisburg,Middletown,PA,17057-4846,40.203766,-76.7423,POINT (-76.7423 40.203766)
214731,88,11,0.125,Pennsylvania State University-Penn State Brandywine,Media,PA,19063-5522,39.926381,-75.446983,POINT (-75.446983 39.926381)
214740,36,5,0.1388888888888889,Pennsylvania State University-Penn State DuBois,DuBois,PA,15801-2549,41.126941,-78.751784,POINT (-78.751784 41.126941)
214759,52,5,0.09615384615384616,Pennsylvania State University-Penn State Fayette- Eberly,Lemont Furnace,PA,15456-1025,39.947217,-79.657769,POINT (-79.657769 39.947217)
214768,111,13,0.11711711711711711,Pennsylvania State University-Penn State Hazleton,Hazleton,PA,18202-8025,40.983958,-76.031061,POINT (-76.03106099999999 40.983958)
214777,4204,1041,0.24762131303520457,Pennsylvania State University-Main Campus,University Park,PA,16802-1503,40.7965,-77.862848,POINT (-77.862848 40.7965)
214786,93,13,0.13978494623655913,Pennsylvania State University-Penn State Greater Allegheny,McKeesport,PA,15132-7644,40.345582,-79.827447,POINT (-79.82744700000001 40.345582)
214795,69,10,0.14492753623188406,Pennsylvania State University-Penn State Mont Alto,Mont Alto,PA,17237-9700,39.842047,-77.542355,POINT (-77.542355 39.842047)
214801,177,25,0.14124293785310735,Pennsylvania State University-Penn State Abington,Abington,PA,19001-3918,40.11683,-75.109083,POINT (-75.109083 40.11683)
214810,49,5,0.10204081632653061,Pennsylvania State University-Penn State Schuylkill,Schuylkill Haven,PA,17972-2202,40.640499,-76.166326,POINT (-76.166326 40.640499)
214829,72,7,0.09722222222222222,Pennsylvania State University-Penn State York,York,PA,17403-3326,39.952327,-76.702835,POINT (-76.70283499999999 39.952327)
215062,747,260,0.34805890227576974,University of Pennsylvania,Philadelphia,PA,19104-6303,39.950929,-75.19391,POINT (-75.19391 39.950929)
215266,26,3,0.11538461538461539,University of Pittsburgh-Bradford,Bradford,PA,16701,41.943415,-78.673701,POINT (-78.67370099999999 41.943415)
215275,33,2,0.06060606060606061,University of Pittsburgh-Greensburg,Greensburg,PA,15601-5860,40.276447,-79.532676,POINT (-79.532676 40.276447)
215293,1291,408,0.3160340821068939,University of Pittsburgh-Pittsburgh Campus,Pittsburgh,PA,15260,40.444388,-79.953254,POINT (-79.953254 40.444388)
215655,38,4,0.10526315789473684,Robert Morris University,Moon Township,PA,15108-1189,40.520415,-80.210468,POINT (-80.21046800000001 40.520415)
215691,0,1,inf,Rosemont College,Rosemont,PA,19010-1699,40.033417,-75.32925,POINT (-75.32925 40.033417)
215743,12,0,0.0,Saint Francis University,Loretto,PA,15940,40.506734,-78.63904,POINT (-78.63903999999999 40.506734)
215798,13,6,0.46153846153846156,Saint Vincent College,Latrobe,PA,15650-2690,40.29265,-79.403762,POINT (-79.403762 40.29265)
215929,28,5,0.17857142857142858,University of Scranton,Scranton,PA,18510-4699,41.406556,-75.656915,POINT (-75.656915 41.406556)
216287,33,11,0.3333333333333333,Swarthmore College,Swarthmore,PA,19081,39.905159,-75.354278,POINT (-75.35427799999999 39.905159)
216339,361,88,0.24376731301939059,Temple University,Philadelphia,PA,19122-6096,39.980546,-75.156859,POINT (-75.156859 39.980546)
216357,15,3,0.2,Thiel College,Greenville,PA,16125-2181,41.41354,-80.384383,POINT (-80.384383 41.41354)
216597,636,184,0.2893081761006289,Villanova University,Villanova,PA,19085-1699,40.039388,-75.345457,POINT (-75.345457 40.039388)
216694,16,3,0.1875,Waynesburg University,Waynesburg,PA,15370-1257,39.899871,-80.186205,POINT (-80.186205 39.899871)
216852,174,21,0.1206896551724138,Widener University,Chester,PA,19013-5792,39.861689,-75.355363,POINT (-75.355363 39.861689)
216931,112,15,0.13392857142857142,Wilkes University,Wilkes-Barre,PA,18766,41.244199,-75.890262,POINT (-75.89026200000001 41.244199)
217059,68,7,0.10294117647058823,York College of Pennsylvania,York,PA,17403-3651,39.94614,-76.727984,POINT (-76.72798400000001 39.94614)
217156,107,47,0.4392523364485981,Brown University,Providence,RI,2912,41.82617,-71.40385,POINT (-71.40385000000001 41.82617)
217235,24,5,0.20833333333333334,Johnson & Wales University-Providence,Providence,RI,02903-3703,41.819956,-71.41277,POINT (-71.41276999999999 41.819956)
217402,14,6,0.42857142857142855,Providence College,Providence,RI,02918-0001,41.842742,-71.437446,POINT (-71.43744599999999 41.842742)
217484,562,138,0.24555160142348753,University of Rhode Island,Kingston,RI,2881,41.484691,-71.527356,POINT (-71.527356 41.484691)
217518,76,21,0.27631578947368424,Roger Williams University,Bristol,RI,02809-2921,41.650214,-71.260374,POINT (-71.260374 41.650214)
217749,60,1,0.016666666666666666,Bob Jones University,Greenville,SC,29614-0001,34.874016,-82.365838,POINT (-82.365838 34.874016)
217864,217,7,0.03225806451612903,Citadel Military College of South Carolina,Charleston,SC,29409,32.797183,-79.958775,POINT (-79.958775 32.797183)
217873,13,9,0.6923076923076923,Claflin University,Orangeburg,SC,29115-4498,33.498444,-80.854319,POINT (-80.854319 33.498444)
217882,1027,249,0.24245374878286272,Clemson University,Clemson,SC,29634,34.679381,-82.835114,POINT (-82.835114 34.679381)
218070,3,0,0.0,Furman University,Greenville,SC,29613-6162,34.924676,-82.440458,POINT (-82.44045800000001 34.924676)
218663,568,131,0.2306338028169014,University of South Carolina-Columbia,Columbia,SC,29208,33.996788,-81.026935,POINT (-81.02693499999999 33.996788)
219347,949,165,0.17386722866174922,South Dakota School of Mines and Technology,Rapid City,SD,57701-3995,44.075439,-103.205753,POINT (-103.205753 44.075439)
219356,605,60,0.09917355371900827,South Dakota State University,Brookings,SD,57007-1898,44.317485,-96.782139,POINT (-96.782139 44.317485)
219833,191,50,0.2617801047120419,Christian Brothers University,Memphis,TN,38104,35.127437,-89.983241,POINT (-89.98324100000001 35.127437)
219976,27,7,0.25925925925925924,Lipscomb University,Nashville,TN,37204-3951,36.106253,-86.799791,POINT (-86.799791 36.106253)
220710,11,0,0.0,Maryville College,Maryville,TN,37804-5907,35.751505,-83.964223,POINT (-83.964223 35.751505)
220862,300,69,0.23,University of Memphis,Memphis,TN,38152,35.118878,-89.938068,POINT (-89.938068 35.118878)
221740,186,41,0.22043010752688172,The University of Tennessee-Chattanooga,Chattanooga,TN,37403-2598,35.047519,-85.300247,POINT (-85.300247 35.047519)
221759,1058,304,0.28733459357277885,The University of Tennessee-Knoxville,Knoxville,TN,37996,35.952082,-83.925852,POINT (-83.92585200000001 35.952082)
221768,180,22,0.12222222222222222,The University of Tennessee-Martin,Martin,TN,38238,36.340338,-88.864211,POINT (-88.864211 36.340338)
221838,388,202,0.520618556701031,Tennessee State University,Nashville,TN,37209-1561,36.166321,-86.828275,POINT (-86.828275 36.166321)
221847,1064,185,0.17387218045112782,Tennessee Technological University,Cookeville,TN,38505-0001,36.174754,-85.504039,POINT (-85.50403900000001 36.174754)
221999,781,310,0.3969270166453265,Vanderbilt University,Nashville,TN,37240,36.14659,-86.803369,POINT (-86.803369 36.14659)
222178,25,5,0.2,Abilene Christian University,Abilene,TX,79699,32.468943,-99.709797,POINT (-99.70979699999999 32.468943)
222831,20,4,0.2,Angelo State University,San Angelo,TX,76909,31.440914,-100.465051,POINT (-100.465051 31.440914)
223232,207,56,0.27053140096618356,Baylor University,Waco,TX,76798,31.546872,-97.121041,POINT (-97.12104100000001 31.546872)
225399,9,4,0.4444444444444444,Houston Baptist University,Houston,TX,77074-3298,29.693819,-95.515954,POINT (-95.51595399999999 29.693819)
225414,20,4,0.2,University of Houston-Clear Lake,Houston,TX,77058-1002,29.582523,-95.098129,POINT (-95.098129 29.582523)
225511,853,257,0.30128956623681125,University of Houston,Houston,TX,77204-2018,29.720393,-95.343537,POINT (-95.343537 29.720393)
226091,298,75,0.2516778523489933,Lamar University,Beaumont,TX,77705,30.042738,-94.072244,POINT (-94.072244 30.042738)
226231,350,35,0.1,LeTourneau University,Longview,TX,75602,32.46632,-94.726394,POINT (-94.726394 32.46632)
226383,13,0,0.0,Lubbock Christian University,Lubbock,TX,79407-2099,33.575973,-101.934426,POINT (-101.934426 33.575973)
226833,68,7,0.10294117647058823,Midwestern State University,Wichita Falls,TX,76308-2099,33.874809,-98.519386,POINT (-98.519386 33.874809)
227368,468,93,0.1987179487179487,The University of Texas Rio Grande Valley,Edinburg,TX,78539-2999,26.306759,-98.173567,POINT (-98.17356700000001 26.306759)
227526,321,148,0.46105919003115264,Prairie View A & M University,Prairie View,TX,77446,30.092425,-95.989475,POINT (-95.989475 30.092425)
227757,197,78,0.39593908629441626,Rice University,Houston,TX,77005-1827,29.717897,-95.402035,POINT (-95.402035 29.717897)
228149,108,34,0.3148148148148148,St. Mary's University,San Antonio,TX,78228,29.453244,-98.562778,POINT (-98.56277799999999 29.453244)
228246,137,49,0.35766423357664234,Southern Methodist University,Dallas,TX,75275-0221,32.843612,-96.783365,POINT (-96.783365 32.843612)
228459,11,1,0.09090909090909091,Texas State University,San Marcos,TX,78666,29.888885,-97.943029,POINT (-97.943029 29.888885)
228529,51,1,0.0196078431372549,Tarleton State University,Stephenville,TX,76401-0000,32.214988,-98.214866,POINT (-98.214866 32.214988)
228705,381,87,0.2283464566929134,Texas A & M University-Kingsville,Kingsville,TX,78363,27.525168,-97.882387,POINT (-97.88238699999999 27.525168)
228723,3451,1025,0.29701535786728483,Texas A & M University-College Station,College Station,TX,77843-1248,30.618726,-96.336475,POINT (-96.33647499999999 30.618726)
228769,1128,245,0.21719858156028368,The University of Texas at Arlington,Arlington,TX,76013,32.729718,-97.11296,POINT (-97.11296 32.729718)
228787,348,68,0.19540229885057472,The University of Texas at Dallas,Richardson,TX,75080-3021,32.984673,-96.749702,POINT (-96.749702 32.984673)
228796,958,280,0.29227557411273486,The University of Texas at El Paso,El Paso,TX,79968-0691,31.77015,-106.504098,POINT (-106.504098 31.77015)
228802,77,9,0.11688311688311688,The University of Texas at Tyler,Tyler,TX,75799-6699,32.315772,-95.254337,POINT (-95.25433700000001 32.315772)
228875,89,16,0.1797752808988764,Texas Christian University,Fort Worth,TX,76129,32.70961,-97.364758,POINT (-97.36475799999999 32.70961)
229027,557,87,0.1561938958707361,The University of Texas at San Antonio,San Antonio,TX,78249-1644,29.583709,-98.620657,POINT (-98.62065699999999 29.583709)
229115,1189,213,0.1791421362489487,Texas Tech University,Lubbock,TX,79409-5005,33.583448,-101.874783,POINT (-101.874783 33.583448)
229267,27,12,0.4444444444444444,Trinity University,San Antonio,TX,78212-7200,29.462682,-98.48186,POINT (-98.48186 29.462682)
230038,2409,298,0.12370278123702781,Brigham Young University,Provo,UT,84602,40.250851,-111.649281,POINT (-111.649281 40.250851)
230171,39,2,0.05128205128205128,Dixie State University,Saint George,UT,84770-3876,37.102769,-113.565903,POINT (-113.565903 37.102769)
230603,31,3,0.0967741935483871,Southern Utah University,Cedar City,UT,84720,37.674617,-113.070146,POINT (-113.070146 37.674617)
230728,896,89,0.09933035714285714,Utah State University,Logan,UT,84322-1400,41.740748,-111.81391,POINT (-111.81391 41.740748)
230764,925,122,0.1318918918918919,University of Utah,Salt Lake City,UT,84112-9008,40.762484,-111.846044,POINT (-111.846044 40.762484)
230782,100,11,0.11,Weber State University,Ogden,UT,84408-1031,41.192591,-111.944845,POINT (-111.944845 41.192591)
230995,151,14,0.09271523178807947,Norwich University,Northfield,VT,05663-1035,44.140237,-72.659783,POINT (-72.659783 44.140237)
231059,17,4,0.23529411764705882,Saint Michael's College,Colchester,VT,5439,44.494558,-73.167069,POINT (-73.167069 44.494558)
231165,594,247,0.4158249158249158,Vermont Technical College,Randolph,VT,5061,43.939623,-72.604498,POINT (-72.60449800000001 43.939623)
231174,251,62,0.24701195219123506,University of Vermont,Burlington,VT,05405-0160,44.477325,-73.196646,POINT (-73.196646 44.477325)
231712,79,13,0.16455696202531644,Christopher Newport University,Newport News,VA,23606-3072,37.062495,-76.494364,POINT (-76.494364 37.062495)
232186,356,89,0.25,George Mason University,Fairfax,VA,22030-4444,38.829976,-77.307428,POINT (-77.307428 38.829976)
232265,110,49,0.44545454545454544,Hampton University,Hampton,VA,23668-0099,37.019944,-76.339161,POINT (-76.339161 37.019944)
232937,32,2,0.0625,Norfolk State University,Norfolk,VA,23504-8000,36.848429,-76.261375,POINT (-76.261375 36.848429)
232982,236,49,0.2076271186440678,Old Dominion University,Norfolk,VA,23529,36.886418,-76.30666,POINT (-76.30665999999999 36.886418)
233921,2288,459,0.2006118881118881,Virginia Polytechnic Institute and State University,Blacksburg,VA,24061-0131,37.229012,-80.423675,POINT (-80.423675 37.229012)
234030,397,110,0.2770780856423174,Virginia Commonwealth University,Richmond,VA,23284-2512,37.54962,-77.452697,POINT (-77.452697 37.54962)
234076,792,321,0.4053030303030303,University of Virginia-Main Campus,Charlottesville,VA,22903-2628,38.035665,-78.503428,POINT (-78.503428 38.035665)
234085,344,10,0.029069767441860465,Virginia Military Institute,Lexington,VA,24450-0304,37.7896,-79.437067,POINT (-79.437067 37.7896)
234207,12,2,0.16666666666666666,Washington and Lee University,Lexington,VA,24450-2116,37.788939,-79.443018,POINT (-79.443018 37.788939)
236230,9,1,0.1111111111111111,Pacific Lutheran University,Tacoma,WA,98447-0003,47.14516,-122.440421,POINT (-122.440421 47.14516)
236577,29,4,0.13793103448275862,Seattle Pacific University,Seattle,WA,98119-1997,47.650214,-122.361667,POINT (-122.361667 47.650214)
236595,142,42,0.29577464788732394,Seattle University,Seattle,WA,98122-4340,47.608859,-122.318851,POINT (-122.318851 47.608859)
236939,380,72,0.18947368421052632,Washington State University,Pullman,WA,99164-5910,46.730448,-117.158168,POINT (-117.158168 46.730448)
236948,1018,277,0.27210216110019647,University of Washington-Seattle Campus,Seattle,WA,98195-4550,47.65538,-122.30514,POINT (-122.30514 47.65538)
237011,36,3,0.08333333333333333,Western Washington University,Bellingham,WA,98225-9008,48.737812,-122.485734,POINT (-122.485734 48.737812)
237525,32,2,0.0625,Marshall University,Huntington,WV,25755,38.422482,-82.428964,POINT (-82.42896399999999 38.422482)
237950,375,45,0.12,West Virginia University Institute of Technology,Beckley,WV,25801,37.775924,-81.184072,POINT (-81.184072 37.775924)
237969,22,4,0.18181818181818182,West Virginia Wesleyan College,Buckhannon,WV,26201-2994,38.990661,-80.218969,POINT (-80.218969 38.990661)
238032,1394,211,0.15136298421807748,West Virginia University,Morgantown,WV,26506,39.634371,-79.954391,POINT (-79.954391 39.634371)
238333,3,0,0.0,Beloit College,Beloit,WI,53511-5595,42.504022,-89.029285,POINT (-89.029285 42.504022)
239318,1114,206,0.18491921005385997,Milwaukee School of Engineering,Milwaukee,WI,53202-3109,43.045364,-87.907691,POINT (-87.907691 43.045364)
240417,157,16,0.10191082802547771,University of Wisconsin-Stout,Menomonie,WI,54751,44.873187,-91.926653,POINT (-91.926653 44.873187)
240444,1469,364,0.24778761061946902,University of Wisconsin-Madison,Madison,WI,53706-1380,43.075409,-89.404098,POINT (-89.404098 43.075409)
240453,312,61,0.1955128205128205,University of Wisconsin-Milwaukee,Milwaukee,WI,53211,43.076848,-87.880488,POINT (-87.880488 43.076848)
240462,659,126,0.19119878603945373,University of Wisconsin-Platteville,Platteville,WI,53818-3099,42.733451,-90.48622,POINT (-90.48622 42.733451)
240727,701,171,0.24393723252496433,University of Wyoming,Laramie,WY,82071,41.311773,-105.57931,POINT (-105.57931 41.311773)
242705,396,106,0.2676767676767677,Inter American University of Puerto Rico-Bayamon,Bayamon,PR,00957-6257,18.351631,-66.182473,POINT (-66.182473 18.351631)
243197,2578,1503,0.5830100853374709,University of Puerto Rico-Mayaguez,Mayaguez,PR,681,18.211142,-67.139172,POINT (-67.139172 18.211142)
243577,1078,287,0.2662337662337662,Universidad Politecnica de Puerto Rico,Hato Rey,PR,919,18.422195,-66.056084,POINT (-66.056084 18.422195)
243601,186,45,0.24193548387096775,Universidad Ana G. Mendez-Gurabo Campus,Gurabo,PR,00778-3030,18.239647,-66.006259,POINT (-66.006259 18.239647)
243744,244,108,0.4426229508196721,Stanford University,Stanford,CA,94305,37.429434,-122.167359,POINT (-122.167359 37.429434)
243780,4827,1097,0.22726331054485188,Purdue University-Main Campus,West Lafayette,IN,47907-2040,40.428206,-86.914435,POINT (-86.914435 40.428206)
412599,73,18,0.2465753424657534,Remington College-Memphis Campus,Memphis,TN,38132,35.071403,-89.989881,POINT (-89.989881 35.071403)
436818,33,5,0.15151515151515152,University of Connecticut-Waterbury Campus,Waterbury,CT,6702,41.555617,-73.039242,POINT (-73.039242 41.555617)
436827,7,2,0.2857142857142857,University of Connecticut-Avery Point,Groton,CT,06340-6097,41.316419,-72.065336,POINT (-72.065336 41.316419)
436836,12,2,0.16666666666666666,University of Connecticut-Stamford,Stamford,CT,06901-2315,41.056081,-73.542206,POINT (-73.54220599999999 41.056081)
