UNITID,efrace15,efrace16,W/M_Ratio,INSTNM,CITY,STABBR,ZIP,LATITUDE,LONGITUDE,geometry
100654,294,83,0.282312925170068,Alabama A & M University,Normal,AL,35762,34.783368,-86.568502,POINT (-86.568502 34.783368)
100663,308,84,0.2727272727272727,University of Alabama at Birmingham,Birmingham,AL,35294-0110,33.505697,-86.799345,POINT (-86.799345 33.505697)
100706,960,296,0.30833333333333335,University of Alabama in Huntsville,Huntsville,AL,35899,34.724557,-86.640449,POINT (-86.640449 34.724557)
100751,988,277,0.28036437246963564,The University of Alabama,Tuscaloosa,AL,35487-0100,33.211875,-87.545978,POINT (-87.54597800000001 33.211875)
100858,2941,569,0.1934716082964978,Auburn University,Auburn,AL,36849,32.599378,-85.488258,POINT (-85.488258 32.599378)
100937,9,4,0.4444444444444444,Birmingham-Southern College,Birmingham,AL,35254,33.513774,-86.850552,POINT (-86.85055199999999 33.513774)
101912,12,3,0.25,Oakwood University,Huntsville,AL,35896,34.756344,-86.652705,POINT (-86.652705 34.756344)
102094,626,122,0.19488817891373802,University of South Alabama,Mobile,AL,36688-0002,30.696033,-88.178711,POINT (-88.17871100000001 30.696033)
102234,10,3,0.3,Spring Hill College,Mobile,AL,36608-1791,30.694751,-88.138199,POINT (-88.138199 30.694751)
102377,295,152,0.5152542372881356,Tuskegee University,Tuskegee,AL,36088-1920,32.4309,-85.708492,POINT (-85.70849200000001 32.4309)
102553,141,41,0.2907801418439716,University of Alaska Anchorage,Anchorage,AK,99508,61.190163,-149.82619,POINT (-149.82619 61.190163)
102614,239,51,0.21338912133891214,University of Alaska Fairbanks,Fairbanks,AK,99775,64.85756,-147.823146,POINT (-147.823146 64.85756000000001)
102632,0,1,inf,University of Alaska Southeast,Juneau,AK,99801-8697,58.384846,-134.638255,POINT (-134.638255 58.384846)
102845,174,64,0.367816091954023,Charter College,Vancouver,WA,98683-7575,45.617798,-122.494766,POINT (-122.494766 45.617798)
104151,3079,815,0.26469632997726533,Arizona State University Campus Immersion,Tempe,AZ,85287,33.417721,-111.934383,POINT (-111.934383 33.417721)
104179,1960,453,0.23112244897959183,University of Arizona,Tucson,AZ,85721-0066,32.232672,-110.950815,POINT (-110.950815 32.232672)
104586,430,78,0.1813953488372093,Embry-Riddle Aeronautical University-Prescott,Prescott,AZ,86301-3720,34.616766,-112.449741,POINT (-112.449741 34.616766)
105330,432,97,0.22453703703703703,Northern Arizona University,Flagstaff,AZ,86011-4092,35.188449,-111.653724,POINT (-111.653724 35.188449)
106245,27,7,0.25925925925925924,University of Arkansas at Little Rock,Little Rock,AR,72204,34.723254,-92.339778,POINT (-92.339778 34.723254)
106397,1154,224,0.19410745233968804,University of Arkansas,Fayetteville,AR,72701,36.070009,-94.176981,POINT (-94.176981 36.070009)
106458,298,21,0.07046979865771812,Arkansas State University,Jonesboro,AR,72401,35.842388,-90.679988,POINT (-90.67998799999999 35.842388)
106467,245,21,0.08571428571428572,Arkansas Tech University,Russellville,AR,72801-2222,35.293237,-93.13562,POINT (-93.13562 35.293237)
107044,55,1,0.01818181818181818,Harding University,Searcy,AR,72149-5615,35.247386,-91.726143,POINT (-91.72614299999999 35.247386)
107141,59,7,0.11864406779661017,John Brown University,Siloam Springs,AR,72761,36.189812,-94.560283,POINT (-94.560283 36.189812)
110404,240,97,0.4041666666666667,California Institute of Technology,Pasadena,CA,91125,34.137349,-118.125878,POINT (-118.125878 34.137349)
110422,3897,808,0.2073389787015653,California Polytechnic State University-San Luis Obispo,San Luis Obispo,CA,93407,35.299513,-120.657311,POINT (-120.657311 35.299513)
110529,2867,465,0.16219044297174748,California State Polytechnic University-Pomona,Pomona,CA,91768,34.057912,-117.821476,POINT (-117.821476 34.057912)
110538,743,115,0.15477792732166892,California State University-Chico,Chico,CA,95929-0150,39.729712,-121.844859,POINT (-121.844859 39.729712)
110556,690,107,0.15507246376811595,California State University-Fresno,Fresno,CA,93740,36.811154,-119.744569,POINT (-119.744569 36.811154)
110565,473,71,0.15010570824524314,California State University-Fullerton,Fullerton,CA,92831-3599,33.881506,-117.885446,POINT (-117.885446 33.881506)
110574,56,24,0.42857142857142855,California State University-East Bay,Hayward,CA,94542,37.657694,-122.054135,POINT (-122.054135 37.657694)
110583,1274,243,0.19073783359497645,California State University-Long Beach,Long Beach,CA,90840-0115,33.782818,-118.11204,POINT (-118.11204 33.782818)
110592,620,111,0.17903225806451614,California State University-Los Angeles,Los Angeles,CA,90032-8506,34.066927,-118.168965,POINT (-118.168965 34.066927)
110608,817,155,0.189718482252142,California State University-Northridge,Northridge,CA,91330,34.240126,-118.529319,POINT (-118.529319 34.240126)
110617,1258,251,0.19952305246422894,California State University-Sacramento,Sacramento,CA,95819-2694,38.559415,-121.423549,POINT (-121.423549 38.559415)
110635,2198,780,0.3548680618744313,University of California-Berkeley,Berkeley,CA,94720,37.871918,-122.260463,POINT (-122.260463 37.871918)
110644,2251,601,0.26699244780097736,University of California-Davis,Davis,CA,95616-8678,38.539667,-121.749567,POINT (-121.749567 38.539667)
110653,1662,405,0.24368231046931407,University of California-Irvine,Irvine,CA,92697,33.648434,-117.841248,POINT (-117.841248 33.648434)
110662,1794,499,0.27814938684503904,University of California-Los Angeles,Los Angeles,CA,90095-1405,34.07178,-118.442179,POINT (-118.442179 34.07178)
110671,1426,250,0.1753155680224404,University of California-Riverside,Riverside,CA,92521,33.97246,-117.32741,POINT (-117.32741 33.97246)
110680,2658,777,0.29232505643340856,University of California-San Diego,La Jolla,CA,92093,32.877749,-117.235866,POINT (-117.235866 32.877749)
110705,939,190,0.20234291799787008,University of California-Santa Barbara,Santa Barbara,CA,93106,34.416297,-119.846426,POINT (-119.846426 34.416297)
110714,132,13,0.09848484848484848,University of California-Santa Cruz,Santa Cruz,CA,95064-1011,36.995584,-122.058801,POINT (-122.058801 36.995584)
111188,103,12,0.11650485436893204,California State University Maritime Academy,Vallejo,CA,94590-8181,38.069061,-122.231551,POINT (-122.231551 38.069061)
112260,20,3,0.15,Claremont McKenna College,Claremont,CA,91711-6400,34.102154,-117.711188,POINT (-117.711188 34.102154)
112394,57,5,0.08771929824561403,Cogswell University of Silicon Valley,San Jose,CA,95134,37.414049,-121.94087,POINT (-121.94087 37.414049)
115409,135,54,0.4,Harvey Mudd College,Claremont,CA,91711,34.106515,-117.709837,POINT (-117.709837 34.106515)
115755,134,43,0.3208955223880597,Humboldt State University,Arcata,CA,95521-8299,40.877481,-124.078293,POINT (-124.078293 40.877481)
117627,6,0,0.0,La Sierra University,Riverside,CA,92505-8247,33.910704,-117.500054,POINT (-117.500054 33.910704)
117946,222,65,0.2927927927927928,Loyola Marymount University,Los Angeles,CA,90045-2659,33.97085,-118.415744,POINT (-118.415744 33.97085)
120883,371,108,0.29110512129380056,University of the Pacific,Stockton,CA,95211-0197,37.981424,-121.312301,POINT (-121.312301 37.981424)
121150,14,7,0.5,Pepperdine University,Malibu,CA,90263,34.037786,-118.707077,POINT (-118.707077 34.037786)
121309,11,1,0.09090909090909091,Point Loma Nazarene University,San Diego,CA,92106-2899,32.718391,-117.250265,POINT (-117.250265 32.718391)
122409,1472,263,0.17866847826086957,San Diego State University,San Diego,CA,92182-0001,32.77525,-117.071228,POINT (-117.071228 32.77525)
122436,91,26,0.2857142857142857,University of San Diego,San Diego,CA,92110-2492,32.770816,-117.192073,POINT (-117.192073 32.770816)
122597,442,93,0.21040723981900453,San Francisco State University,San Francisco,CA,94132,37.721224,-122.476799,POINT (-122.476799 37.721224)
122755,2768,614,0.2218208092485549,San Jose State University,San Jose,CA,95192-0001,37.336569,-121.880621,POINT (-121.880621 37.336569)
122931,501,127,0.25349301397205587,Santa Clara University,Santa Clara,CA,95053,37.348362,-121.93784,POINT (-121.93784 37.348362)
123165,0,1,inf,Scripps College,Claremont,CA,91711-3905,34.104147,-117.711294,POINT (-117.711294 34.104147)
123961,1103,368,0.33363553943789664,University of Southern California,Los Angeles,CA,90089,34.021281,-118.284169,POINT (-118.284169 34.021281)
125727,11,1,0.09090909090909091,Westmont College,Santa Barbara,CA,93108-1089,34.450151,-119.662517,POINT (-119.662517 34.450151)
126562,265,60,0.22641509433962265,University of Colorado Denver/Anschutz Medical Campus,Denver,CO,80217-3364,39.745149,-104.837722,POINT (-104.837722 39.745149)
126580,219,55,0.2511415525114155,University of Colorado Colorado Springs,Colorado Springs,CO,80918,38.892735,-104.800296,POINT (-104.800296 38.892735)
126614,1585,400,0.25236593059936907,University of Colorado Boulder,Boulder,CO,80309-0017,40.008781,-105.270823,POINT (-105.270823 40.008781)
126775,1339,436,0.32561613144137413,Colorado School of Mines,Golden,CO,80401,39.751443,-105.223364,POINT (-105.223364 39.751443)
126818,1211,266,0.21965317919075145,Colorado State University-Fort Collins,Fort Collins,CO,80523-0100,40.574805,-105.080732,POINT (-105.080732 40.574805)
126827,153,21,0.13725490196078433,Colorado Technical University-Colorado Springs,Colorado Springs,CO,80907-3812,38.894265,-104.833928,POINT (-104.833928 38.894265)
127060,94,25,0.26595744680851063,University of Denver,Denver,CO,80208,39.678005,-104.963259,POINT (-104.963259 39.678005)
128106,19,10,0.5263157894736842,Colorado State University Pueblo,Pueblo,CO,81001-4901,38.30859,-104.579033,POINT (-104.579033 38.30859)
128328,1088,92,0.08455882352941177,United States Air Force Academy,USAF Academy,CO,80840-5002,39.010957,-104.891358,POINT (-104.891358 39.010957)
128744,19,2,0.10526315789473684,University of Bridgeport,Bridgeport,CT,06604-5620,41.164741,-73.190166,POINT (-73.190166 41.164741)
129020,783,135,0.1724137931034483,University of Connecticut,Storrs,CT,6269,41.809098,-72.249948,POINT (-72.249948 41.809098)
129242,169,23,0.13609467455621302,Fairfield University,Fairfield,CT,06824-5195,41.157673,-73.255903,POINT (-73.255903 41.157673)
129525,283,41,0.14487632508833923,University of Hartford,West Hartford,CT,06117-1599,41.798591,-72.715213,POINT (-72.71521300000001 41.798591)
129774,1,0,0.0,Mitchell College,New London,CT,6320,41.328013,-72.09523,POINT (-72.09523 41.328013)
129941,303,31,0.10231023102310231,University of New Haven,West Haven,CT,06516-1916,41.291314,-72.961472,POINT (-72.961472 41.291314)
130590,21,7,0.3333333333333333,Trinity College,Hartford,CT,06106-3100,41.747451,-72.690882,POINT (-72.690882 41.747451)
130624,340,64,0.18823529411764706,United States Coast Guard Academy,New London,CT,06320-4195,41.375823,-72.101583,POINT (-72.10158300000001 41.375823)
130794,86,41,0.47674418604651164,Yale University,New Haven,CT,6520,41.311158,-72.926688,POINT (-72.926688 41.311158)
130934,17,1,0.058823529411764705,Delaware State University,Dover,DE,19901,39.187173,-75.54053,POINT (-75.54053 39.187173)
130943,870,219,0.2517241379310345,University of Delaware,Newark,DE,19716,39.679577,-75.752822,POINT (-75.75282199999999 39.679577)
131283,124,40,0.3225806451612903,The Catholic University of America,Washington,DC,20064,38.933651,-76.997909,POINT (-76.99790900000001 38.933651)
131399,316,61,0.1930379746835443,University of the District of Columbia,Washington,DC,20008,38.943819,-77.066247,POINT (-77.066247 38.943819)
131469,176,80,0.45454545454545453,George Washington University,Washington,DC,20052,38.89923,-77.048363,POINT (-77.04836299999999 38.89923)
131520,239,114,0.4769874476987448,Howard University,Washington,DC,20059,38.922392,-77.018966,POINT (-77.01896600000001 38.922392)
131876,0,2,inf,Trinity Washington University,Washington,DC,20017-1094,38.927398,-77.004261,POINT (-77.004261 38.927398)
132903,2169,438,0.20193637621023514,University of Central Florida,Orlando,FL,32816,28.602159,-81.200889,POINT (-81.200889 28.602159)
133553,1105,254,0.22986425339366515,Embry-Riddle Aeronautical University-Daytona Beach,Daytona Beach,FL,32114-3900,29.189903,-81.048367,POINT (-81.048367 29.189903)
133650,472,187,0.3961864406779661,Florida Agricultural and Mechanical University,Tallahassee,FL,32307,30.428504,-84.290226,POINT (-84.290226 30.428504)
133669,872,169,0.1938073394495413,Florida Atlantic University,Boca Raton,FL,33431-0991,26.372421,-80.102978,POINT (-80.10297799999999 26.372421)
133881,665,129,0.19398496240601504,Florida Institute of Technology,Melbourne,FL,32901-6975,28.065815,-80.622893,POINT (-80.622893 28.065815)
133951,1011,238,0.2354104846686449,Florida International University,Miami,FL,33199,25.75732,-80.373928,POINT (-80.37392800000001 25.75732)
134097,995,269,0.27035175879396983,Florida State University,Tallahassee,FL,32306-1037,30.440756,-84.291921,POINT (-84.291921 30.440756)
134130,3403,897,0.2635909491625037,University of Florida,Gainesville,FL,32611,29.64629,-82.347911,POINT (-82.347911 29.64629)
134945,33,7,0.21212121212121213,Jacksonville University,Jacksonville,FL,32211-3394,30.353227,-81.60458,POINT (-81.60458 30.353227)
136172,174,29,0.16666666666666666,University of North Florida,Jacksonville,FL,32224-7699,30.27194,-81.509144,POINT (-81.50914400000001 30.27194)
136330,3,1,0.3333333333333333,Palm Beach Atlantic University,West Palm Beach,FL,33401,26.7044,-80.05247,POINT (-80.05247 26.7044)
137351,2199,534,0.24283765347885403,University of South Florida,Tampa,FL,33620-9951,28.061458,-82.413232,POINT (-82.41323199999999 28.061458)
138354,237,35,0.14767932489451477,The University of West Florida,Pensacola,FL,32514-5750,30.549076,-87.218511,POINT (-87.21851100000001 30.549076)
138947,93,71,0.7634408602150538,Clark Atlanta University,Atlanta,GA,30314-4391,33.747628,-84.412584,POINT (-84.412584 33.747628)
139755,4894,1414,0.2889252145484266,Georgia Institute of Technology-Main Campus,Atlanta,GA,30332-0530,33.77242,-84.394832,POINT (-84.39483199999999 33.77242)
139959,121,30,0.24793388429752067,University of Georgia,Athens,GA,30602,33.956262,-83.374039,POINT (-83.374039 33.956262)
140447,289,108,0.3737024221453287,Mercer University,Macon,GA,31207,32.831787,-83.648295,POINT (-83.648295 32.831787)
140553,122,0,0.0,Morehouse College,Atlanta,GA,30314,33.745982,-84.414917,POINT (-84.414917 33.745982)
141060,0,88,inf,Spelman College,Atlanta,GA,30314-4399,33.745279,-84.411527,POINT (-84.41152700000001 33.745279)
141565,10,1,0.1,University of Hawaii at Hilo,Hilo,HI,96720-4091,19.701189,-155.080847,POINT (-155.080847 19.701189)
141574,504,127,0.251984126984127,University of Hawaii at Manoa,Honolulu,HI,96822-2217,21.298598,-157.818979,POINT (-157.818979 21.298598)
142115,622,95,0.1527331189710611,Boise State University,Boise,ID,83725,43.604284,-116.203301,POINT (-116.203301 43.604284)
142276,387,46,0.11886304909560723,Idaho State University,Pocatello,ID,83209,42.863832,-112.432312,POINT (-112.432312 42.863832)
142285,974,154,0.15811088295687886,University of Idaho,Moscow,ID,83844-2282,46.727406,-117.014167,POINT (-117.014167 46.727406)
142294,12,2,0.16666666666666666,The College of Idaho,Caldwell,ID,83605-4432,43.652284,-116.677992,POINT (-116.677992 43.652284)
142461,16,4,0.25,Northwest Nazarene University,Nampa,ID,83686-5897,43.562411,-116.565783,POINT (-116.565783 43.562411)
142522,288,23,0.0798611111111111,Brigham Young University-Idaho,Rexburg,ID,83460-1690,43.818408,-111.782431,POINT (-111.782431 43.818408)
143358,558,98,0.17562724014336917,Bradley University,Peoria,IL,61625-0001,40.696896,-89.616786,POINT (-89.616786 40.696896)
145600,1226,298,0.24306688417618272,University of Illinois Chicago,Chicago,IL,60607,41.871837,-87.650503,POINT (-87.650503 41.871837)
145619,29,3,0.10344827586206896,Benedictine University,Lisle,IL,60532-0900,41.777569,-88.097307,POINT (-88.097307 41.777569)
145637,3715,871,0.23445491251682368,University of Illinois Urbana-Champaign,Champaign,IL,61820-5711,40.104718,-88.229114,POINT (-88.229114 40.104718)
145691,1,0,0.0,Illinois College,Jacksonville,IL,62650-2299,39.7313,-90.246171,POINT (-90.246171 39.7313)
145725,754,201,0.26657824933687,Illinois Institute of Technology,Chicago,IL,60616,41.8313,-87.627321,POINT (-87.62732099999999 41.8313)
146825,1,0,0.0,MacMurray College,Jacksonville,IL,62650-2590,39.730918,-90.223986,POINT (-90.223986 39.730918)
147703,906,110,0.12141280353200883,Northern Illinois University,Dekalb,IL,60115-2828,41.933869,-88.766428,POINT (-88.766428 41.933869)
147767,894,390,0.436241610738255,Northwestern University,Evanston,IL,60208,42.050356,-87.679858,POINT (-87.679858 42.050356)
147828,52,7,0.1346153846153846,Olivet Nazarene University,Bourbonnais,IL,60914-2271,41.155237,-87.875165,POINT (-87.875165 41.155237)
148131,13,2,0.15384615384615385,Quincy University,Quincy,IL,62301-2699,39.938898,-91.385975,POINT (-91.385975 39.938898)
148405,2,1,0.5,Rockford University,Rockford,IL,61108-2311,42.270639,-89.019536,POINT (-89.019536 42.270639)
149222,756,94,0.12433862433862433,Southern Illinois University-Carbondale,Carbondale,IL,62901-4512,37.714193,-89.217273,POINT (-89.21727300000001 37.714193)
149231,439,74,0.16856492027334852,Southern Illinois University-Edwardsville,Edwardsville,IL,62026-1259,38.793949,-89.997779,POINT (-89.99777899999999 38.793949)
149781,15,4,0.26666666666666666,Wheaton College,Wheaton,IL,60187-5593,41.870176,-88.099643,POINT (-88.099643 41.870176)
150136,22,1,0.045454545454545456,Ball State University,Muncie,IN,47306,40.203431,-85.409043,POINT (-85.409043 40.203431)
150145,11,1,0.09090909090909091,Bethel University,Mishawaka,IN,46545-5591,41.678399,-86.194686,POINT (-86.194686 41.678399)
150400,0,1,inf,DePauw University,Greencastle,IN,46135-1772,39.640904,-86.860363,POINT (-86.86036300000001 39.640904)
150534,192,28,0.14583333333333334,University of Evansville,Evansville,IN,47722,37.971549,-87.531644,POINT (-87.531644 37.971549)
151102,233,24,0.10300429184549356,Purdue University Fort Wayne,Fort Wayne,IN,46805-1499,41.117278,-85.108962,POINT (-85.10896200000001 41.117278)
151111,589,112,0.19015280135823429,Indiana University-Purdue University-Indianapolis,Indianapolis,IN,46202-5143,39.772948,-86.172217,POINT (-86.172217 39.772948)
151263,6,1,0.16666666666666666,University of Indianapolis,Indianapolis,IN,46227-3697,39.709571,-86.133969,POINT (-86.13396899999999 39.709571)
151290,114,21,0.18421052631578946,Indiana Institute of Technology,Fort Wayne,IN,46803-1228,41.078365,-85.116479,POINT (-85.116479 41.078365)
151306,107,14,0.1308411214953271,University of Southern Indiana,Evansville,IN,47712,37.962374,-87.677214,POINT (-87.67721400000001 37.962374)
151777,12,1,0.08333333333333333,Manchester University,North Manchester,IN,46962,41.010549,-85.762643,POINT (-85.762643 41.010549)
152080,736,219,0.297554347826087,University of Notre Dame,Notre Dame,IN,46556,41.703058,-86.238959,POINT (-86.23895899999999 41.703058)
152318,1047,235,0.224450811843362,Rose-Hulman Institute of Technology,Terre Haute,IN,47803-3920,39.483602,-87.326749,POINT (-87.32674900000001 39.483602)
152530,55,9,0.16363636363636364,Taylor University,Upland,IN,46989-1001,40.456246,-85.497034,POINT (-85.497034 40.456246)
152567,337,64,0.18991097922848665,Trine University,Angola,IN,46703-1764,41.632502,-85.008009,POINT (-85.008009 41.632502)
152600,288,70,0.24305555555555555,Valparaiso University,Valparaiso,IN,46383,41.462239,-87.040172,POINT (-87.040172 41.462239)
153250,78,4,0.05128205128205128,Dordt University,Sioux Center,IA,51250-1606,43.082527,-96.166562,POINT (-96.166562 43.082527)
153366,3,0,0.0,Graceland University-Lamoni,Lamoni,IA,50140,40.615966,-93.924893,POINT (-93.924893 40.615966)
153603,4172,791,0.18959731543624161,Iowa State University,Ames,IA,50011-2103,42.026212,-93.648504,POINT (-93.648504 42.026212)
153658,869,290,0.333716915995397,University of Iowa,Iowa City,IA,52242-1316,41.661935,-91.536425,POINT (-91.53642499999999 41.661935)
153825,16,4,0.25,Loras College,Dubuque,IA,52004-0178,42.503908,-90.679023,POINT (-90.679023 42.503908)
153861,0,1,inf,Maharishi International University,Fairfield,IA,52557,41.017781,-91.967306,POINT (-91.96730599999999 41.017781)
154004,6,5,0.8333333333333334,Morningside College,Sioux City,IA,51106-1751,42.473891,-96.359464,POINT (-96.359464 42.473891)
154095,4,2,0.5,University of Northern Iowa,Cedar Falls,IA,50614-0005,42.514923,-92.459703,POINT (-92.459703 42.514923)
154235,29,5,0.1724137931034483,Saint Ambrose University,Davenport,IA,52803-2898,41.54065,-90.579854,POINT (-90.579854 41.54065)
154527,9,0,0.0,Wartburg College,Waverly,IA,50677-0903,42.7277,-92.483387,POINT (-92.48338699999999 42.7277)
154590,39,5,0.1282051282051282,William Penn University,Oskaloosa,IA,52577,41.310111,-92.647095,POINT (-92.64709499999999 41.310111)
155317,982,240,0.24439918533604887,University of Kansas,Lawrence,KS,66045,38.958549,-95.247567,POINT (-95.247567 38.958549)
155399,1668,285,0.17086330935251798,Kansas State University,Manhattan,KS,66506,39.188648,-96.581077,POINT (-96.58107699999999 39.188648)
156125,829,148,0.17852834740651388,Wichita State University,Wichita,KS,67260-0124,37.718882,-97.292361,POINT (-97.292361 37.718882)
156286,11,2,0.18181818181818182,Bellarmine University,Louisville,KY,40205-0671,38.219279,-85.704997,POINT (-85.70499700000001 38.219279)
156356,1,0,0.0,Brescia University,Owensboro,KY,42301-3023,37.769041,-87.111639,POINT (-87.111639 37.769041)
157076,3,3,1.0,Kentucky Wesleyan College,Owensboro,KY,42301,37.744489,-87.119658,POINT (-87.119658 37.744489)
157085,1273,244,0.19167321288295366,University of Kentucky,Lexington,KY,40506-0032,38.038911,-84.504747,POINT (-84.50474699999999 38.038911)
157289,1185,206,0.17383966244725738,University of Louisville,Louisville,KY,40292-0001,38.216862,-85.760412,POINT (-85.760412 38.216862)
157401,65,8,0.12307692307692308,Murray State University,Murray,KY,42071-3318,36.612419,-88.323629,POINT (-88.323629 36.612419)
158802,14,11,0.7857142857142857,Dillard University,New Orleans,LA,70122,29.996587,-90.06464,POINT (-90.06464 29.996587)
159009,119,15,0.12605042016806722,Grambling State University,Grambling,LA,71245,32.523797,-92.713245,POINT (-92.713245 32.523797)
159391,2511,591,0.23536439665471923,Louisiana State University and Agricultural & Mechanical College,Baton Rouge,LA,70803-2750,30.414986,-91.178921,POINT (-91.178921 30.414986)
159568,5,1,0.2,Louisiana College,Pineville,LA,71359,31.324528,-92.425973,POINT (-92.425973 31.324528)
159647,999,218,0.2182182182182182,Louisiana Tech University,Ruston,LA,71272,32.528297,-92.649963,POINT (-92.649963 32.528297)
159656,1,3,3.0,Loyola University New Orleans,New Orleans,LA,70118-6143,29.936141,-90.120417,POINT (-90.120417 29.936141)
159717,304,62,0.20394736842105263,McNeese State University,Lake Charles,LA,70605,30.178187,-93.217222,POINT (-93.21722200000001 30.178187)
159939,934,189,0.20235546038543897,University of New Orleans,New Orleans,LA,70148,30.027704,-90.067142,POINT (-90.067142 30.027704)
160621,467,139,0.29764453961456105,Southern University and A & M College,Baton Rouge,LA,70813,30.524558,-91.190105,POINT (-91.190105 30.524558)
160658,840,146,0.1738095238095238,University of Louisiana at Lafayette,Lafayette,LA,70503,30.212191,-92.020165,POINT (-92.02016500000001 30.212191)
160755,427,184,0.4309133489461358,Tulane University of Louisiana,New Orleans,LA,70118-5698,29.940069,-90.122144,POINT (-90.12214400000001 29.940069)
160977,1,0,0.0,Bates College,Lewiston,ME,4240,44.105299,-70.203333,POINT (-70.203333 44.105299)
161253,593,121,0.20404721753794267,University of Maine,Orono,ME,4469,44.899257,-68.669332,POINT (-68.669332 44.899257)
161299,369,17,0.04607046070460705,Maine Maritime Academy,Castine,ME,04420-0001,44.389654,-68.804347,POINT (-68.80434700000001 44.389654)
161554,203,22,0.10837438423645321,University of Southern Maine,Portland,ME,4103,43.662863,-70.274247,POINT (-70.274247 43.662863)
162061,96,13,0.13541666666666666,Capitol Technology University,Laurel,MD,20708,39.046673,-76.850231,POINT (-76.85023099999999 39.046673)
162210,3,1,0.3333333333333333,Washington Adventist University,Takoma Park,MD,20912,38.986349,-77.000608,POINT (-77.000608 38.986349)
162928,777,247,0.3178893178893179,Johns Hopkins University,Baltimore,MD,21218-2688,39.328977,-76.621595,POINT (-76.621595 39.328977)
163046,26,6,0.23076923076923078,Loyola University Maryland,Baltimore,MD,21210-2699,39.346358,-76.621872,POINT (-76.621872 39.346358)
163204,82,9,0.10975609756097561,University of Maryland Global Campus,Adelphi,MD,20783-8010,38.912706,-76.847584,POINT (-76.847584 38.912706)
163268,676,160,0.23668639053254437,University of Maryland-Baltimore County,Baltimore,MD,21250,39.256686,-76.711607,POINT (-76.711607 39.256686)
163286,2375,577,0.24294736842105263,University of Maryland-College Park,College Park,MD,20742,38.988178,-76.944721,POINT (-76.944721 38.988178)
163338,11,1,0.09090909090909091,University of Maryland Eastern Shore,Princess Anne,MD,21853-1299,38.207386,-75.686852,POINT (-75.686852 38.207386)
163453,488,236,0.48360655737704916,Morgan State University,Baltimore,MD,21251-0001,39.344161,-76.585565,POINT (-76.585565 39.344161)
164155,994,114,0.11468812877263582,United States Naval Academy,Annapolis,MD,21402-1300,38.980507,-76.481692,POINT (-76.481692 38.980507)
164988,758,272,0.35883905013192613,Boston University,Boston,MA,2215,42.351118,-71.107942,POINT (-71.10794199999999 42.351118)
165574,7,1,0.14285714285714285,Dean College,Franklin,MA,02038-1941,42.085634,-71.397813,POINT (-71.397813 42.085634)
165644,24,3,0.125,Eastern Nazarene College,Quincy,MA,02170-2999,42.271228,-71.011079,POINT (-71.011079 42.271228)
165866,12,1,0.08333333333333333,Framingham State University,Framingham,MA,01701-9101,42.297116,-71.437565,POINT (-71.43756500000001 42.297116)
166027,52,27,0.5192307692307693,Harvard University,Cambridge,MA,2138,42.374471,-71.118313,POINT (-71.118313 42.374471)
166513,842,159,0.18883610451306412,University of Massachusetts-Lowell,Lowell,MA,01854-5104,42.652864,-71.326809,POINT (-71.326809 42.652864)
166629,974,177,0.18172484599589322,University of Massachusetts-Amherst,Amherst,MA,1003,42.385999,-72.526728,POINT (-72.52672800000001 42.385999)
166638,56,7,0.125,University of Massachusetts-Boston,Boston,MA,02125-3393,42.312881,-71.036865,POINT (-71.03686500000001 42.312881)
166683,969,538,0.5552115583075335,Massachusetts Institute of Technology,Cambridge,MA,02139-4307,42.359243,-71.093226,POINT (-71.093226 42.359243)
166692,353,26,0.07365439093484419,Massachusetts Maritime Academy,Buzzards Bay,MA,02532-1803,41.739072,-70.624084,POINT (-70.624084 41.739072)
166850,118,16,0.13559322033898305,Merrimack College,North Andover,MA,1845,42.668344,-71.124216,POINT (-71.124216 42.668344)
167358,1369,279,0.20379839298758218,Northeastern University,Boston,MA,02115-5005,42.339992,-71.088782,POINT (-71.08878199999999 42.339992)
167835,0,21,inf,Smith College,Northampton,MA,1063,42.318111,-72.638097,POINT (-72.638097 42.318111)
167987,562,69,0.12277580071174377,University of Massachusetts-Dartmouth,North Dartmouth,MA,02747-2300,41.62869,-71.004552,POINT (-71.004552 41.62869)
168005,30,10,0.3333333333333333,Suffolk University,Boston,MA,02108-3901,42.357945,-71.060917,POINT (-71.060917 42.357945)
168148,509,223,0.4381139489194499,Tufts University,Medford,MA,02155-5555,42.40855,-71.118293,POINT (-71.11829299999999 42.40855)
168227,158,20,0.12658227848101267,Wentworth Institute of Technology,Boston,MA,2115,42.336632,-71.094983,POINT (-71.094983 42.336632)
168254,250,34,0.136,Western New England University,Springfield,MA,01119-2684,42.115017,-72.520466,POINT (-72.520466 42.115017)
168421,1252,318,0.2539936102236422,Worcester Polytechnic Institute,Worcester,MA,01609-2280,42.274853,-71.808339,POINT (-71.808339 42.274853)
168740,6,0,0.0,Andrews University,Berrien Springs,MI,49104,41.963859,-86.355815,POINT (-86.35581500000001 41.963859)
168847,35,7,0.2,Baker College,Owosso,MI,48867,42.984804,-84.172404,POINT (-84.172404 42.984804)
169080,294,42,0.14285714285714285,Calvin University,Grand Rapids,MI,49546,42.929916,-85.587548,POINT (-85.587548 42.929916)
169248,2,1,0.5,Central Michigan University,Mount Pleasant,MI,48859,43.591203,-84.77525,POINT (-84.77525 43.591203)
169716,253,89,0.35177865612648224,University of Detroit Mercy,Detroit,MI,48221-3038,42.414222,-83.139158,POINT (-83.13915799999999 42.414222)
169798,190,44,0.23157894736842105,Eastern Michigan University,Ypsilanti,MI,48197,42.251675,-83.627443,POINT (-83.627443 42.251675)
169910,3,1,0.3333333333333333,Ferris State University,Big Rapids,MI,49307-2251,43.687724,-85.481925,POINT (-85.481925 43.687724)
169983,1785,342,0.1915966386554622,Kettering University,Flint,MI,48504-6214,43.012468,-83.71282,POINT (-83.71281999999999 43.012468)
170082,573,80,0.13961605584642234,Grand Valley State University,Allendale,MI,49401-9403,42.963001,-85.889826,POINT (-85.889826 42.963001)
170301,14,3,0.21428571428571427,Hope College,Holland,MI,49422-9000,42.787298,-86.102089,POINT (-86.10208900000001 42.787298)
170639,189,20,0.10582010582010581,Lake Superior State University,Sault Ste Marie,MI,49783,46.492849,-84.365573,POINT (-84.365573 46.492849)
170675,879,183,0.20819112627986347,Lawrence Technological University,Southfield,MI,48075-1058,42.474072,-83.25003,POINT (-83.25003 42.474072)
170976,3216,1205,0.37468905472636815,University of Michigan-Ann Arbor,Ann Arbor,MI,48109,42.275921,-83.742769,POINT (-83.742769 42.275921)
171100,2670,649,0.24307116104868914,Michigan State University,East Lansing,MI,48824-1046,42.73212,-84.476111,POINT (-84.476111 42.73212)
171128,2593,653,0.2518318549942152,Michigan Technological University,Houghton,MI,49931-1295,47.11866,-88.548092,POINT (-88.548092 47.11866)
171137,876,237,0.2705479452054795,University of Michigan-Dearborn,Dearborn,MI,48128-1491,42.317287,-83.231417,POINT (-83.23141699999999 42.317287)
171146,127,26,0.2047244094488189,University of Michigan-Flint,Flint,MI,48502-1950,43.01875,-83.690276,POINT (-83.690276 43.01875)
171456,102,4,0.0392156862745098,Northern Michigan University,Marquette,MI,49855-5301,46.559751,-87.406568,POINT (-87.40656799999999 46.559751)
171571,943,235,0.2492046659597031,Oakland University,Rochester Hills,MI,48309-4401,42.674573,-83.216418,POINT (-83.216418 42.674573)
172051,336,51,0.15178571428571427,Saginaw Valley State University,University Center,MI,48710,43.51176,-83.964273,POINT (-83.96427300000001 43.51176)
172264,1,0,0.0,Siena Heights University,Adrian,MI,49221,41.905624,-84.018841,POINT (-84.01884099999999 41.905624)
172644,780,283,0.3628205128205128,Wayne State University,Detroit,MI,48202,42.358994,-83.068998,POINT (-83.06899799999999 42.358994)
173045,5,0,0.0,Augsburg University,Minneapolis,MN,55454,44.966307,-93.240436,POINT (-93.240436 44.966307)
173160,25,1,0.04,Bethel University,Saint Paul,MN,55112,45.057655,-93.161663,POINT (-93.161663 45.057655)
173300,1,0,0.0,Concordia College at Moorhead,Moorhead,MN,56562,46.862482,-96.76749,POINT (-96.76749 46.862482)
173920,453,31,0.0684326710816777,Minnesota State University-Mankato,Mankato,MN,56001,44.146712,-93.99945,POINT (-93.99945 44.146712)
174066,1254,250,0.19936204146730463,University of Minnesota-Twin Cities,Minneapolis,MN,55455-0213,44.972851,-93.235464,POINT (-93.23546399999999 44.972851)
174075,63,12,0.19047619047619047,University of Minnesota-Crookston,Crookston,MN,56716-5001,47.802536,-96.606188,POINT (-96.606188 47.802536)
174233,516,64,0.12403100775193798,University of Minnesota-Duluth,Duluth,MN,55812,46.817126,-92.084385,POINT (-92.084385 46.817126)
174251,16,4,0.25,University of Minnesota-Morris,Morris,MN,56267,45.589775,-95.899729,POINT (-95.89972899999999 45.589775)
174358,48,5,0.10416666666666667,Minnesota State University Moorhead,Moorhead,MN,56563,46.867153,-96.759532,POINT (-96.75953199999999 46.867153)
174783,74,7,0.0945945945945946,Saint Cloud State University,Saint Cloud,MN,56301-4498,45.553227,-94.152657,POINT (-94.152657 45.553227)
174817,2,2,1.0,Saint Mary's University of Minnesota,Winona,MN,55987-1399,44.044736,-91.695449,POINT (-91.695449 44.044736)
174914,150,15,0.1,University of St Thomas,Saint Paul,MN,55105-1078,44.943439,-93.188986,POINT (-93.188986 44.943439)
175272,91,17,0.18681318681318682,Winona State University,Winona,MN,55987-5838,44.046159,-91.643723,POINT (-91.64372299999999 44.046159)
175856,141,40,0.28368794326241137,Jackson State University,Jackson,MS,39217,32.296105,-90.207405,POINT (-90.20740499999999 32.296105)
176017,345,83,0.24057971014492754,University of Mississippi,University,MS,38677-1848,34.365529,-89.537434,POINT (-89.537434 34.365529)
176053,6,0,0.0,Mississippi College,Clinton,MS,39058,32.335515,-90.329821,POINT (-90.329821 32.335515)
176080,1521,358,0.2353714661406969,Mississippi State University,Mississippi State,MS,39762,33.454852,-88.790139,POINT (-88.790139 33.454852)
176947,4,1,0.25,Central Methodist University-College of Liberal Arts and Sciences,Fayette,MO,65248-1198,39.150497,-92.685253,POINT (-92.685253 39.150497)
176965,61,4,0.06557377049180328,University of Central Missouri,Warrensburg,MO,64093,38.759111,-93.737428,POINT (-93.73742799999999 38.759111)
177542,5,0,0.0,Hannibal-LaGrange University,Hannibal,MO,63401,39.729015,-91.39094,POINT (-91.39094 39.729015)
177968,31,2,0.06451612903225806,Lindenwood University,Saint Charles,MO,63301-1695,38.785425,-90.501286,POINT (-90.50128599999999 38.785425)
178396,1426,225,0.15778401122019636,University of Missouri-Columbia,Columbia,MO,65211,38.94531,-92.328843,POINT (-92.32884300000001 38.94531)
178402,186,30,0.16129032258064516,University of Missouri-Kansas City,Kansas City,MO,64110,39.034179,-94.582141,POINT (-94.58214099999999 39.034179)
178411,2267,483,0.21305690339655933,Missouri University of Science and Technology,Rolla,MO,65409,37.953426,-91.775583,POINT (-91.775583 37.953426)
178420,243,55,0.22633744855967078,University of Missouri-St Louis,Saint Louis,MO,63121-4400,38.710312,-90.311091,POINT (-90.311091 38.710312)
178721,32,6,0.1875,Park University,Parkville,MO,64152-3795,39.189256,-94.679041,POINT (-94.679041 39.189256)
179159,315,109,0.346031746031746,Saint Louis University,Saint Louis,MO,63103-2097,38.636801,-90.2351,POINT (-90.2351 38.636801)
179557,14,4,0.2857142857142857,Southeast Missouri State University,Cape Girardeau,MO,63701,37.311107,-89.531187,POINT (-89.531187 37.311107)
179867,555,204,0.3675675675675676,Washington University in St Louis,Saint Louis,MO,63130-4899,38.647929,-90.310604,POINT (-90.310604 38.647929)
180106,21,7,0.3333333333333333,Carroll College,Helena,MT,59625-0002,46.600771,-112.040285,POINT (-112.040285 46.600771)
180416,233,44,0.1888412017167382,Montana Technological University,Butte,MT,59701-8997,46.012868,-112.559511,POINT (-112.559511 46.012868)
180461,1153,194,0.16825672159583693,Montana State University,Bozeman,MT,59717,45.666726,-111.048812,POINT (-111.048812 45.666726)
181464,1580,266,0.16835443037974684,University of Nebraska-Lincoln,Lincoln,NE,68588-0419,40.817598,-96.700508,POINT (-96.700508 40.817598)
181738,17,2,0.11764705882352941,Union College,Lincoln,NE,68506,40.774778,-96.651095,POINT (-96.651095 40.774778)
182281,627,139,0.22169059011164274,University of Nevada-Las Vegas,Las Vegas,NV,89154,36.106047,-115.138462,POINT (-115.138462 36.106047)
182290,886,188,0.21218961625282168,University of Nevada-Reno,Reno,NV,89557,39.543642,-119.815377,POINT (-119.815377 39.543642)
182670,88,23,0.26136363636363635,Dartmouth College,Hanover,NH,03755-3529,43.704115,-72.289949,POINT (-72.28994899999999 43.704115)
183044,525,93,0.17714285714285713,University of New Hampshire-Main Campus,Durham,NH,03824-3547,43.135934,-70.932465,POINT (-70.93246499999999 43.135934)
183239,16,1,0.0625,Saint Anselm College,Manchester,NH,03102-1310,42.986889,-71.503622,POINT (-71.50362199999999 42.986889)
184603,40,5,0.125,Fairleigh Dickinson University-Metropolitan Campus,Teaneck,NJ,7666,40.897209,-74.028986,POINT (-74.028986 40.897209)
184782,371,70,0.18867924528301888,Rowan University,Glassboro,NJ,8028,39.709108,-75.119119,POINT (-75.119119 39.709108)
185572,27,4,0.14814814814814814,Monmouth University,West Long Branch,NJ,07764-1898,40.280066,-74.006447,POINT (-74.00644699999999 40.280066)
185828,1644,334,0.20316301703163017,New Jersey Institute of Technology,Newark,NJ,7102,40.741997,-74.177113,POINT (-74.17711300000001 40.741997)
186131,256,98,0.3828125,Princeton University,Princeton,NJ,08544-0070,40.348732,-74.659365,POINT (-74.65936499999999 40.348732)
186380,1396,363,0.2600286532951289,Rutgers University-New Brunswick,New Brunswick,NJ,08901-1281,40.498769,-74.446251,POINT (-74.446251 40.498769)
186399,0,1,inf,Rutgers University-Newark,Newark,NJ,7102,40.739122,-74.175809,POINT (-74.175809 40.739122)
186867,833,282,0.3385354141656663,Stevens Institute of Technology,Hoboken,NJ,07030-5991,40.744776,-74.025334,POINT (-74.025334 40.744776)
187134,184,43,0.23369565217391305,The College of New Jersey,Ewing,NJ,08628-7718,40.268651,-74.778791,POINT (-74.778791 40.268651)
187897,14,4,0.2857142857142857,New Mexico Highlands University,Las Vegas,NM,87701,35.596233,-105.219197,POINT (-105.219197 35.596233)
187967,377,97,0.2572944297082228,New Mexico Institute of Mining and Technology,Socorro,NM,87801,34.067041,-106.905211,POINT (-106.905211 34.067041)
187985,958,291,0.3037578288100209,University of New Mexico-Main Campus,Albuquerque,NM,87106,35.083868,-106.620155,POINT (-106.620155 35.083868)
188030,967,273,0.2823164426059979,New Mexico State University-Main Campus,Las Cruces,NM,88003-8001,32.281568,-106.752069,POINT (-106.752069 32.281568)
188641,126,15,0.11904761904761904,Alfred University,Alfred,NY,14802-1205,42.254476,-77.788106,POINT (-77.788106 42.254476)
190044,1150,173,0.15043478260869564,Clarkson University,Potsdam,NY,13699,44.662716,-74.999359,POINT (-74.999359 44.662716)
190150,621,222,0.357487922705314,Columbia University in the City of New York,New York,NY,10027,40.808286,-73.961885,POINT (-73.961885 40.808286)
190372,369,110,0.2981029810298103,Cooper Union for the Advancement of Science and Art,New York,NY,10003-7120,40.728148,-73.991609,POINT (-73.991609 40.728148)
190415,1838,667,0.3628944504896627,Cornell University,Ithaca,NY,14853,42.4472,-76.483084,POINT (-76.48308400000001 42.4472)
190558,127,18,0.14173228346456693,College of Staten Island CUNY,Staten Island,NY,10314,40.601831,-74.14849,POINT (-74.14849 40.601831)
190567,182,60,0.32967032967032966,CUNY City College,New York,NY,10031,40.819846,-73.948542,POINT (-73.948542 40.819846)
191649,147,39,0.2653061224489796,Hofstra University,Hempstead,NY,11549,40.715959,-73.60078,POINT (-73.60078 40.715959)
192703,423,104,0.2458628841607565,Manhattan College,Riverdale,NY,10471-4098,40.889756,-73.901893,POINT (-73.901893 40.889756)
193973,3,0,0.0,Niagara University,Niagara University,NY,14109,43.137279,-79.036689,POINT (-79.036689 43.137279)
194091,216,21,0.09722222222222222,New York Institute of Technology,Old Westbury,NY,11568-8000,40.812447,-73.6078,POINT (-73.6078 40.812447)
194824,2064,526,0.2548449612403101,Rensselaer Polytechnic Institute,Troy,NY,12180-3590,42.729978,-73.676646,POINT (-73.67664600000001 42.729978)
195003,1825,250,0.136986301369863,Rochester Institute of Technology,Rochester,NY,14623-5603,43.084188,-77.67386,POINT (-77.67386 43.084188)
195030,429,154,0.358974358974359,University of Rochester,Rochester,NY,14627-0011,43.126397,-77.631202,POINT (-77.631202 43.126397)
195164,6,0,0.0,St Bonaventure University,Saint Bonaventure,NY,14778-9800,42.080191,-78.481107,POINT (-78.48110699999999 42.080191)
196006,27,4,0.14814814814814814,SUNY College of Technology at Alfred,Alfred,NY,14802,42.255262,-77.794632,POINT (-77.79463199999999 42.255262)
196015,24,2,0.08333333333333333,SUNY College of Technology at Canton,Canton,NY,13617-1098,44.604096,-75.182906,POINT (-75.182906 44.604096)
196024,8,1,0.125,SUNY College of Technology at Delhi,Delhi,NY,13753-1100,42.269859,-74.924612,POINT (-74.924612 42.269859)
196051,13,0,0.0,SUNY Morrisville,Morrisville,NY,13408,42.893962,-75.640583,POINT (-75.64058300000001 42.893962)
196079,464,69,0.14870689655172414,Binghamton University,Vestal,NY,13850-6000,42.087868,-75.966889,POINT (-75.96688899999999 42.087868)
196088,1760,270,0.1534090909090909,University at Buffalo,Buffalo,NY,14260-1660,43.000942,-78.789458,POINT (-78.789458 43.000942)
196097,564,98,0.17375886524822695,Stony Brook University,Stony Brook,NY,11794-0701,40.91476,-73.12046,POINT (-73.12045999999999 40.91476)
196176,28,4,0.14285714285714285,State University of New York at New Paltz,New Paltz,NY,12561-2443,41.740936,-74.082188,POINT (-74.082188 41.740936)
196291,365,31,0.08493150684931507,SUNY Maritime College,Throggs Neck,NY,10465-4198,40.807217,-73.795309,POINT (-73.795309 40.807217)
196413,371,93,0.25067385444743934,Syracuse University,Syracuse,NY,13244,43.040176,-76.136975,POINT (-76.13697500000001 43.040176)
196866,268,72,0.26865671641791045,Union College,Schenectady,NY,12308-2311,42.818097,-73.928788,POINT (-73.928788 42.818097)
197027,369,38,0.10298102981029811,United States Merchant Marine Academy,Kings Point,NY,11024-1634,40.81357,-73.763004,POINT (-73.763004 40.81357)
197221,54,13,0.24074074074074073,Webb Institute,Glen Cove,NY,11542-1398,40.884444,-73.644909,POINT (-73.644909 40.884444)
198419,703,231,0.3285917496443812,Duke University,Durham,NC,27708,36.001135,-78.937624,POINT (-78.937624 36.001135)
198516,41,7,0.17073170731707318,Elon University,Elon,NC,27244-2010,36.104148,-79.50344,POINT (-79.50344 36.104148)
198756,4,17,4.25,Johnson C Smith University,Charlotte,NC,28216-5398,35.243033,-80.857251,POINT (-80.85725100000001 35.243033)
198862,515,488,0.9475728155339805,Livingstone College,Salisbury,NC,28144,35.670877,-80.483956,POINT (-80.48395600000001 35.670877)
199102,800,328,0.41,North Carolina A & T State University,Greensboro,NC,27411,36.07282,-79.773375,POINT (-79.773375 36.07282)
199139,817,109,0.13341493268053856,University of North Carolina at Charlotte,Charlotte,NC,28223-0001,35.306022,-80.730919,POINT (-80.730919 35.306022)
199193,4105,1245,0.3032886723507917,North Carolina State University at Raleigh,Raleigh,NC,27695-7001,35.785111,-78.674517,POINT (-78.67451699999999 35.785111)
199306,8,0,0.0,Pfeiffer University,Misenheimer,NC,28109-0960,35.484696,-80.283168,POINT (-80.283168 35.484696)
200280,598,104,0.17391304347826086,University of North Dakota,Grand Forks,ND,58202-8193,47.921654,-97.071738,POINT (-97.071738 47.921654)
200332,1883,248,0.13170472650026555,North Dakota State University-Main Campus,Fargo,ND,58108-6050,46.893127,-96.800838,POINT (-96.800838 46.893127)
200800,1218,247,0.20279146141215107,University of Akron Main Campus,Akron,OH,44325-4702,41.078551,-81.511679,POINT (-81.511679 41.078551)
201195,14,5,0.35714285714285715,Baldwin Wallace University,Berea,OH,44017-2088,41.373017,-81.851145,POINT (-81.851145 41.373017)
201645,651,183,0.28110599078341014,Case Western Reserve University,Cleveland,OH,44106,41.507419,-81.609596,POINT (-81.609596 41.507419)
201654,261,15,0.05747126436781609,Cedarville University,Cedarville,OH,45314-0601,39.749237,-83.814692,POINT (-83.81469199999999 39.749237)
201690,38,20,0.5263157894736842,Central State University,Wilberforce,OH,45384-1004,39.715787,-83.880186,POINT (-83.88018599999999 39.715787)
201885,1424,294,0.20646067415730338,University of Cincinnati-Main Campus,Cincinnati,OH,45221-0063,39.131159,-84.51428,POINT (-84.51428 39.131159)
202134,573,93,0.16230366492146597,Cleveland State University,Cleveland,OH,44115-2214,41.502281,-81.674355,POINT (-81.67435500000001 41.502281)
202480,689,188,0.2728592162554427,University of Dayton,Dayton,OH,45469,39.739547,-84.176113,POINT (-84.176113 39.739547)
203368,2,1,0.5,John Carroll University,University Heights,OH,44118-4538,41.491321,-81.531338,POINT (-81.53133800000001 41.491321)
203492,0,1,inf,Kent State University at Salem,Salem,OH,44460,40.86408,-80.835458,POINT (-80.835458 40.86408)
203517,73,5,0.0684931506849315,Kent State University at Kent,Kent,OH,44242-0001,41.146653,-81.342533,POINT (-81.342533 41.146653)
203845,61,8,0.13114754098360656,Marietta College,Marietta,OH,45750,39.41668,-81.450045,POINT (-81.450045 39.41668)
204024,190,56,0.29473684210526313,Miami University-Oxford,Oxford,OH,45056,39.507757,-84.732954,POINT (-84.73295400000001 39.507757)
204194,2,0,0.0,Mount Vernon Nazarene University,Mount Vernon,OH,43050-9500,40.372901,-82.471074,POINT (-82.471074 40.372901)
204635,334,64,0.19161676646706588,Ohio Northern University,Ada,OH,45810-1599,40.7662,-83.827441,POINT (-83.82744099999999 40.7662)
204671,28,3,0.10714285714285714,Ohio State University-Lima Campus,Lima,OH,45804,40.738521,-84.02384,POINT (-84.02384000000001 40.738521)
204680,32,6,0.1875,Ohio State University-Mansfield Campus,Mansfield,OH,44906,40.796536,-82.580194,POINT (-82.58019400000001 40.796536)
204699,40,4,0.1,Ohio State University-Marion Campus,Marion,OH,43302-5695,40.577779,-83.090597,POINT (-83.090597 40.577779)
204705,87,4,0.04597701149425287,Ohio State University-Newark Campus,Newark,OH,43055,40.069314,-82.447441,POINT (-82.447441 40.069314)
204796,3970,738,0.1858942065491184,Ohio State University-Main Campus,Columbus,OH,43210,39.999324,-83.014853,POINT (-83.014853 39.999324)
204802,7,1,0.14285714285714285,Ohio University-Eastern Campus,Saint Clairsville,OH,43950,40.073392,-80.976073,POINT (-80.976073 40.073392)
204820,15,5,0.3333333333333333,Ohio University-Chillicothe Campus,Chillicothe,OH,45601-0629,39.329404,-83.002175,POINT (-83.00217499999999 39.329404)
204839,20,1,0.05,Ohio University-Southern Campus,Ironton,OH,45638,38.524781,-82.666876,POINT (-82.666876 38.524781)
204848,15,3,0.2,Ohio University-Lancaster Campus,Lancaster,OH,43130-1037,39.738752,-82.586069,POINT (-82.58606899999999 39.738752)
204857,873,135,0.15463917525773196,Ohio University-Main Campus,Athens,OH,45701-2979,39.326798,-82.100985,POINT (-82.10098499999999 39.326798)
204866,16,4,0.25,Ohio University-Zanesville Campus,Zanesville,OH,43701,39.96098,-82.031063,POINT (-82.031063 39.96098)
205957,19,2,0.10526315789473684,Franciscan University of Steubenville,Steubenville,OH,43952-1763,40.376919,-80.620524,POINT (-80.620524 40.376919)
206084,1731,316,0.18255343731946852,University of Toledo,Toledo,OH,43606-3390,41.660572,-83.614714,POINT (-83.61471400000001 41.660572)
206491,74,53,0.7162162162162162,Wilberforce University,Wilberforce,OH,45384-1001,39.707291,-83.880595,POINT (-83.880595 39.707291)
206604,632,115,0.1819620253164557,Wright State University-Main Campus,Dayton,OH,45435-0001,39.780634,-84.064881,POINT (-84.064881 39.780634)
206613,21,4,0.19047619047619047,Wright State University-Lake Campus,Celina,OH,45822-2952,40.546074,-84.509194,POINT (-84.50919399999999 40.546074)
206622,0,1,inf,Xavier University,Cincinnati,OH,45207-1092,39.149547,-84.47465,POINT (-84.47465 39.149547)
206695,561,88,0.1568627450980392,Youngstown State University,Youngstown,OH,44555-0001,41.104928,-80.64659,POINT (-80.64659 41.104928)
206862,1,0,0.0,Southern Nazarene University,Bethany,OK,73008,35.513295,-97.629504,POINT (-97.629504 35.513295)
206941,10,2,0.2,University of Central Oklahoma,Edmond,OK,73034,35.6552,-97.471508,POINT (-97.471508 35.6552)
207041,26,8,0.3076923076923077,East Central University,Ada,OK,74820-6999,34.771934,-96.663849,POINT (-96.663849 34.771934)
207263,75,18,0.24,Northeastern State University,Tahlequah,OK,74464-2399,35.919939,-94.967229,POINT (-94.967229 35.919939)
207324,122,25,0.20491803278688525,Oklahoma Christian University,Edmond,OK,73013,35.611412,-97.469526,POINT (-97.469526 35.611412)
207388,1475,371,0.25152542372881354,Oklahoma State University-Main Campus,Stillwater,OK,74078-1015,36.123085,-97.069743,POINT (-97.069743 36.123085)
207500,1515,388,0.25610561056105613,University of Oklahoma-Norman Campus,Norman,OK,73019-3072,35.209407,-97.444211,POINT (-97.444211 35.209407)
207582,63,8,0.12698412698412698,Oral Roberts University,Tulsa,OK,74171,36.049129,-95.952547,POINT (-95.952547 36.049129)
207865,101,10,0.09900990099009901,Southwestern Oklahoma State University,Weatherford,OK,73096-3001,35.535281,-98.707768,POINT (-98.707768 35.535281)
207971,285,71,0.24912280701754386,University of Tulsa,Tulsa,OK,74104-3189,36.152324,-95.945941,POINT (-95.945941 36.152324)
208822,10,2,0.2,George Fox University,Newberg,OR,97132,45.303629,-122.967494,POINT (-122.967494 45.303629)
209506,70,10,0.14285714285714285,Oregon Institute of Technology,Klamath Falls,OR,97601-8801,42.257152,-121.785177,POINT (-121.785177 42.257152)
209542,2254,360,0.15971606033717836,Oregon State University,Corvallis,OR,97331,44.56395,-123.274723,POINT (-123.274723 44.56395)
209551,33,4,0.12121212121212122,University of Oregon,Eugene,OR,97403,44.045146,-123.075792,POINT (-123.075792 44.045146)
209807,743,136,0.18304172274562583,Portland State University,Portland,OR,97201,45.511601,-122.686289,POINT (-122.686289 45.511601)
209825,301,73,0.2425249169435216,University of Portland,Portland,OR,97203-5798,45.572724,-122.726691,POINT (-122.726691 45.572724)
210146,28,1,0.03571428571428571,Southern Oregon University,Ashland,OR,97520,42.185077,-122.695081,POINT (-122.695081 42.185077)
211158,24,3,0.125,Bloomsburg University of Pennsylvania,Bloomsburg,PA,17815,41.00782,-76.447844,POINT (-76.447844 41.00782)
211291,475,150,0.3157894736842105,Bucknell University,Lewisburg,PA,17837,40.954317,-76.882616,POINT (-76.882616 40.954317)
211440,1117,330,0.2954341987466428,Carnegie Mellon University,Pittsburgh,PA,15213-3890,40.44357,-79.941993,POINT (-79.941993 40.44357)
211468,0,44,inf,Cedar Crest College,Allentown,PA,18104-6196,40.586318,-75.519221,POINT (-75.519221 40.586318)
212054,2202,537,0.2438692098092643,Drexel University,Philadelphia,PA,19104,39.955217,-75.190051,POINT (-75.190051 39.955217)
212106,10,8,0.8,Duquesne University,Pittsburgh,PA,15282,40.43589,-79.993123,POINT (-79.993123 40.43589)
212197,43,6,0.13953488372093023,Elizabethtown College,Elizabethtown,PA,17022-2298,40.149236,-76.593224,POINT (-76.59322400000001 40.149236)
212601,133,17,0.12781954887218044,Gannon University,Erie,PA,16541-0001,42.128403,-80.087166,POINT (-80.087166 42.128403)
212656,90,13,0.14444444444444443,Geneva College,Beaver Falls,PA,15010-3599,40.772518,-80.321826,POINT (-80.321826 40.772518)
212805,219,34,0.1552511415525114,Grove City College,Grove City,PA,16127-2104,41.1558,-80.081481,POINT (-80.081481 41.1558)
213251,7,1,0.14285714285714285,Juniata College,Huntingdon,PA,16652-2196,40.500523,-78.017292,POINT (-78.017292 40.500523)
213385,409,130,0.31784841075794623,Lafayette College,Easton,PA,18042-1768,40.69956,-75.209786,POINT (-75.20978599999999 40.69956)
213543,761,184,0.24178712220762155,Lehigh University,Bethlehem,PA,18015,40.606822,-75.380236,POINT (-75.380236 40.606822)
213598,25,11,0.44,Lincoln University,Lincoln University,PA,19352-0999,39.807723,-75.926458,POINT (-75.926458 39.807723)
213996,154,18,0.11688311688311688,Messiah University,Mechanicsburg,PA,17055,40.156579,-76.988269,POINT (-76.988269 40.156579)
214157,1,2,2.0,Moravian College,Bethlehem,PA,18018-6650,40.630947,-75.383638,POINT (-75.383638 40.630947)
214591,572,52,0.09090909090909091,Pennsylvania State University-Penn State Erie-Behrend College,Erie,PA,16563-0001,42.119433,-79.983773,POINT (-79.983773 42.119433)
214625,106,5,0.04716981132075472,Pennsylvania State University-Penn State New Kensington,New Kensington,PA,15068-1765,40.551159,-79.697232,POINT (-79.697232 40.551159)
214634,14,1,0.07142857142857142,Pennsylvania State University-Penn State Shenango,Sharon,PA,16146-1537,41.235053,-80.508764,POINT (-80.508764 41.235053)
214643,80,8,0.1,Pennsylvania State University-Penn State Wilkes-Barre,Lehman,PA,18627-0217,41.306003,-76.016599,POINT (-76.016599 41.306003)
214652,46,6,0.13043478260869565,Pennsylvania State University-Penn State Scranton,Dunmore,PA,18512-1602,41.440258,-75.620583,POINT (-75.620583 41.440258)
214670,65,5,0.07692307692307693,Pennsylvania State University-Penn State Lehigh Valley,Center Valley,PA,18034-8447,40.559208,-75.402507,POINT (-75.402507 40.559208)
214689,247,31,0.12550607287449392,Pennsylvania State University-Penn State Altoona,Altoona,PA,16601-3777,40.54092,-78.408247,POINT (-78.408247 40.54092)
214698,67,9,0.13432835820895522,Pennsylvania State University-Penn State Beaver,Monaca,PA,15061-2764,40.678254,-80.296235,POINT (-80.296235 40.678254)
214704,234,18,0.07692307692307693,Pennsylvania State University-Penn State Berks,Reading,PA,19610-1016,40.357987,-75.972141,POINT (-75.97214099999999 40.357987)
214713,236,26,0.11016949152542373,Pennsylvania State University-Penn State Harrisburg,Middletown,PA,17057-4846,40.203766,-76.7423,POINT (-76.7423 40.203766)
214731,68,4,0.058823529411764705,Pennsylvania State University-Penn State Brandywine,Media,PA,19063-5522,39.926381,-75.446983,POINT (-75.446983 39.926381)
214740,37,5,0.13513513513513514,Pennsylvania State University-Penn State DuBois,DuBois,PA,15801-2549,41.126941,-78.751784,POINT (-78.751784 41.126941)
214759,35,6,0.17142857142857143,Pennsylvania State University-Penn State Fayette- Eberly,Lemont Furnace,PA,15456-1025,39.947217,-79.657769,POINT (-79.657769 39.947217)
214768,102,9,0.08823529411764706,Pennsylvania State University-Penn State Hazleton,Hazleton,PA,18202-8025,40.983958,-76.031061,POINT (-76.03106099999999 40.983958)
214777,4622,1097,0.23734314149718735,Pennsylvania State University-Main Campus,University Park,PA,16802-1503,40.7965,-77.862848,POINT (-77.862848 40.7965)
214786,76,12,0.15789473684210525,Pennsylvania State University-Penn State Greater Allegheny,McKeesport,PA,15132-7644,40.345582,-79.827447,POINT (-79.82744700000001 40.345582)
214795,51,5,0.09803921568627451,Pennsylvania State University-Penn State Mont Alto,Mont Alto,PA,17237-9700,39.842047,-77.542355,POINT (-77.542355 39.842047)
214801,137,17,0.12408759124087591,Pennsylvania State University-Penn State Abington,Abington,PA,19001-3918,40.11683,-75.109083,POINT (-75.109083 40.11683)
214810,44,4,0.09090909090909091,Pennsylvania State University-Penn State Schuylkill,Schuylkill Haven,PA,17972-2202,40.640499,-76.166326,POINT (-76.166326 40.640499)
214829,74,5,0.06756756756756757,Pennsylvania State University-Penn State York,York,PA,17403-3326,39.952327,-76.702835,POINT (-76.70283499999999 39.952327)
215062,726,270,0.371900826446281,University of Pennsylvania,Philadelphia,PA,19104-6303,39.950929,-75.19391,POINT (-75.19391 39.950929)
215266,30,4,0.13333333333333333,University of Pittsburgh-Bradford,Bradford,PA,16701,41.943415,-78.673701,POINT (-78.67370099999999 41.943415)
215275,52,3,0.057692307692307696,University of Pittsburgh-Greensburg,Greensburg,PA,15601-5860,40.276447,-79.532676,POINT (-79.532676 40.276447)
215293,1412,430,0.3045325779036827,University of Pittsburgh-Pittsburgh Campus,Pittsburgh,PA,15260,40.444388,-79.953254,POINT (-79.953254 40.444388)
215655,52,11,0.21153846153846154,Robert Morris University,Moon Township,PA,15108-1189,40.520415,-80.210468,POINT (-80.21046800000001 40.520415)
215743,4,3,0.75,Saint Francis University,Loretto,PA,15940,40.506734,-78.63904,POINT (-78.63903999999999 40.506734)
215798,23,7,0.30434782608695654,Saint Vincent College,Latrobe,PA,15650-2690,40.29265,-79.403762,POINT (-79.403762 40.29265)
215929,50,2,0.04,University of Scranton,Scranton,PA,18510-4699,41.406556,-75.656915,POINT (-75.656915 41.406556)
216287,28,11,0.39285714285714285,Swarthmore College,Swarthmore,PA,19081,39.905159,-75.354278,POINT (-75.35427799999999 39.905159)
216339,532,115,0.2161654135338346,Temple University,Philadelphia,PA,19122-6096,39.980546,-75.156859,POINT (-75.156859 39.980546)
216357,17,1,0.058823529411764705,Thiel College,Greenville,PA,16125-2181,41.41354,-80.384383,POINT (-80.384383 41.41354)
216524,1,0,0.0,Ursinus College,Collegeville,PA,19426-1000,40.193023,-75.456505,POINT (-75.45650500000001 40.193023)
216597,693,194,0.27994227994227994,Villanova University,Villanova,PA,19085-1699,40.039388,-75.345457,POINT (-75.345457 40.039388)
216694,13,1,0.07692307692307693,Waynesburg University,Waynesburg,PA,15370-1257,39.899871,-80.186205,POINT (-80.186205 39.899871)
216852,265,32,0.12075471698113208,Widener University,Chester,PA,19013-5792,39.861689,-75.355363,POINT (-75.355363 39.861689)
216931,142,17,0.11971830985915492,Wilkes University,Wilkes-Barre,PA,18766,41.244199,-75.890262,POINT (-75.89026200000001 41.244199)
217059,84,10,0.11904761904761904,York College of Pennsylvania,York,PA,17403-3651,39.94614,-76.727984,POINT (-76.72798400000001 39.94614)
217156,97,38,0.3917525773195876,Brown University,Providence,RI,2912,41.82617,-71.40385,POINT (-71.40385000000001 41.82617)
217235,84,8,0.09523809523809523,Johnson & Wales University-Providence,Providence,RI,02903-3703,41.819956,-71.41277,POINT (-71.41276999999999 41.819956)
217402,7,5,0.7142857142857143,Providence College,Providence,RI,02918-0001,41.842742,-71.437446,POINT (-71.43744599999999 41.842742)
217484,749,139,0.1855807743658211,University of Rhode Island,Kingston,RI,2881,41.484691,-71.527356,POINT (-71.527356 41.484691)
217518,84,13,0.15476190476190477,Roger Williams University,Bristol,RI,02809-2921,41.650214,-71.260374,POINT (-71.260374 41.650214)
217749,49,2,0.04081632653061224,Bob Jones University,Greenville,SC,29614-0001,34.874016,-82.365838,POINT (-82.365838 34.874016)
217864,285,12,0.042105263157894736,Citadel Military College of South Carolina,Charleston,SC,29409,32.797183,-79.958775,POINT (-79.958775 32.797183)
217882,1332,287,0.21546546546546547,Clemson University,Clemson,SC,29634,34.679381,-82.835114,POINT (-82.835114 34.679381)
218663,825,159,0.19272727272727272,University of South Carolina-Columbia,Columbia,SC,29208,33.996788,-81.026935,POINT (-81.02693499999999 33.996788)
218742,2,0,0.0,University of South Carolina-Upstate,Spartanburg,SC,29303-4999,34.996403,-81.970583,POINT (-81.970583 34.996403)
219259,3,0,0.0,Northern State University,Aberdeen,SD,57401-7198,45.450829,-98.484728,POINT (-98.484728 45.450829)
219277,11,11,1.0,Oglala Lakota College,Kyle,SD,57752-0490,43.366813,-102.240331,POINT (-102.240331 43.366813)
219347,1063,176,0.16556914393226718,South Dakota School of Mines and Technology,Rapid City,SD,57701-3995,44.075439,-103.205753,POINT (-103.205753 44.075439)
219356,668,73,0.1092814371257485,South Dakota State University,Brookings,SD,57007-1898,44.317485,-96.782139,POINT (-96.782139 44.317485)
219833,183,42,0.22950819672131148,Christian Brothers University,Memphis,TN,38104,35.127437,-89.983241,POINT (-89.98324100000001 35.127437)
219976,34,9,0.2647058823529412,Lipscomb University,Nashville,TN,37204-3951,36.106253,-86.799791,POINT (-86.799791 36.106253)
220598,6,1,0.16666666666666666,Lane College,Jackson,TN,38301-4598,35.627378,-88.806535,POINT (-88.806535 35.627378)
220710,8,1,0.125,Maryville College,Maryville,TN,37804-5907,35.751505,-83.964223,POINT (-83.964223 35.751505)
220862,416,75,0.18028846153846154,University of Memphis,Memphis,TN,38152,35.118878,-89.938068,POINT (-89.938068 35.118878)
221661,16,2,0.125,Southern Adventist University,Collegedale,TN,37315-0370,35.048254,-85.052088,POINT (-85.052088 35.048254)
221740,284,57,0.2007042253521127,The University of Tennessee-Chattanooga,Chattanooga,TN,37403-2598,35.047519,-85.300247,POINT (-85.300247 35.047519)
221759,1374,467,0.3398835516739447,The University of Tennessee-Knoxville,Knoxville,TN,37996,35.952082,-83.925852,POINT (-83.92585200000001 35.952082)
221768,214,29,0.13551401869158877,The University of Tennessee-Martin,Martin,TN,38238,36.340338,-88.864211,POINT (-88.864211 36.340338)
221838,453,184,0.40618101545253865,Tennessee State University,Nashville,TN,37209-1561,36.166321,-86.828275,POINT (-86.828275 36.166321)
221847,1200,154,0.12833333333333333,Tennessee Technological University,Cookeville,TN,38505-0001,36.174754,-85.504039,POINT (-85.50403900000001 36.174754)
221971,11,7,0.6363636363636364,Union University,Jackson,TN,38305-3697,35.676896,-88.858524,POINT (-88.858524 35.676896)
221999,814,326,0.4004914004914005,Vanderbilt University,Nashville,TN,37240,36.14659,-86.803369,POINT (-86.803369 36.14659)
222178,30,3,0.1,Abilene Christian University,Abilene,TX,79699,32.468943,-99.709797,POINT (-99.70979699999999 32.468943)
222831,33,10,0.30303030303030304,Angelo State University,San Angelo,TX,76909,31.440914,-100.465051,POINT (-100.465051 31.440914)
223232,227,45,0.19823788546255505,Baylor University,Waco,TX,76798,31.546872,-97.121041,POINT (-97.12104100000001 31.546872)
225399,5,6,1.2,Houston Baptist University,Houston,TX,77074-3298,29.693819,-95.515954,POINT (-95.51595399999999 29.693819)
225414,51,11,0.21568627450980393,University of Houston-Clear Lake,Houston,TX,77058-1002,29.582523,-95.098129,POINT (-95.098129 29.582523)
225511,1456,430,0.29532967032967034,University of Houston,Houston,TX,77204-2018,29.720393,-95.343537,POINT (-95.343537 29.720393)
226091,445,96,0.2157303370786517,Lamar University,Beaumont,TX,77705,30.042738,-94.072244,POINT (-94.072244 30.042738)
226231,341,35,0.10263929618768329,LeTourneau University,Longview,TX,75602,32.46632,-94.726394,POINT (-94.726394 32.46632)
226383,15,3,0.2,Lubbock Christian University,Lubbock,TX,79407-2099,33.575973,-101.934426,POINT (-101.934426 33.575973)
226833,94,11,0.11702127659574468,Midwestern State University,Wichita Falls,TX,76308-2099,33.874809,-98.519386,POINT (-98.519386 33.874809)
227216,4,0,0.0,University of North Texas,Denton,TX,76203-1277,33.211178,-97.148422,POINT (-97.148422 33.211178)
227368,595,116,0.1949579831932773,The University of Texas Rio Grande Valley,Edinburg,TX,78539-2999,26.306759,-98.173567,POINT (-98.17356700000001 26.306759)
227377,6,3,0.5,Texas Southmost College,Brownsville,TX,78520,25.899628,-97.492241,POINT (-97.49224100000001 25.899628)
227429,14,2,0.14285714285714285,Paul Quinn College,Dallas,TX,75241,32.678837,-96.755778,POINT (-96.75577800000001 32.678837)
227526,387,137,0.35400516795865633,Prairie View A & M University,Prairie View,TX,77446,30.092425,-95.989475,POINT (-95.989475 30.092425)
227757,177,66,0.3728813559322034,Rice University,Houston,TX,77005-1827,29.717897,-95.402035,POINT (-95.402035 29.717897)
228042,8,2,0.25,Schreiner University,Kerrville,TX,78028-5697,30.031458,-99.130586,POINT (-99.13058599999999 30.031458)
228149,137,51,0.3722627737226277,St. Mary's University,San Antonio,TX,78228,29.453244,-98.562778,POINT (-98.56277799999999 29.453244)
228246,164,59,0.3597560975609756,Southern Methodist University,Dallas,TX,75275-0221,32.843612,-96.783365,POINT (-96.783365 32.843612)
228431,63,8,0.12698412698412698,Stephen F Austin State University,Nacogdoches,TX,75961,31.621056,-94.64908,POINT (-94.64908 31.621056)
228459,59,3,0.05084745762711865,Texas State University,San Marcos,TX,78666,29.888885,-97.943029,POINT (-97.943029 29.888885)
228501,9,1,0.1111111111111111,Sul Ross State University,Alpine,TX,79832,30.363139,-103.651469,POINT (-103.651469 30.363139)
228529,40,9,0.225,Tarleton State University,Stephenville,TX,76401-0000,32.214988,-98.214866,POINT (-98.214866 32.214988)
228705,475,98,0.2063157894736842,Texas A & M University-Kingsville,Kingsville,TX,78363,27.525168,-97.882387,POINT (-97.88238699999999 27.525168)
228723,4550,1175,0.25824175824175827,Texas A & M University-College Station,College Station,TX,77843-1248,30.618726,-96.336475,POINT (-96.33647499999999 30.618726)
228769,1696,358,0.21108490566037735,The University of Texas at Arlington,Arlington,TX,76013,32.729718,-97.11296,POINT (-97.11296 32.729718)
228778,4263,1208,0.2833685198217218,The University of Texas at Austin,Austin,TX,78705,30.282825,-97.738273,POINT (-97.73827300000001 30.282825)
228787,685,147,0.2145985401459854,The University of Texas at Dallas,Richardson,TX,75080-3021,32.984673,-96.749702,POINT (-96.749702 32.984673)
228796,1429,366,0.2561231630510847,The University of Texas at El Paso,El Paso,TX,79968-0691,31.77015,-106.504098,POINT (-106.504098 31.77015)
228802,100,11,0.11,The University of Texas at Tyler,Tyler,TX,75799-6699,32.315772,-95.254337,POINT (-95.25433700000001 32.315772)
228875,120,26,0.21666666666666667,Texas Christian University,Fort Worth,TX,76129,32.70961,-97.364758,POINT (-97.36475799999999 32.70961)
229027,957,131,0.13688610240334378,The University of Texas at San Antonio,San Antonio,TX,78249-1644,29.583709,-98.620657,POINT (-98.62065699999999 29.583709)
229063,263,64,0.24334600760456274,Texas Southern University,Houston,TX,77004,29.721046,-95.361113,POINT (-95.361113 29.721046)
229115,1707,239,0.14001171646162858,Texas Tech University,Lubbock,TX,79409-5005,33.583448,-101.874783,POINT (-101.874783 33.583448)
229267,31,13,0.41935483870967744,Trinity University,San Antonio,TX,78212-7200,29.462682,-98.48186,POINT (-98.48186 29.462682)
230038,2666,323,0.12115528882220555,Brigham Young University,Provo,UT,84602,40.250851,-111.649281,POINT (-111.649281 40.250851)
230171,66,0,0.0,Dixie State University,Saint George,UT,84770-3876,37.102769,-113.565903,POINT (-113.565903 37.102769)
230603,63,7,0.1111111111111111,Southern Utah University,Cedar City,UT,84720,37.674617,-113.070146,POINT (-113.070146 37.674617)
230728,1184,137,0.11570945945945946,Utah State University,Logan,UT,84322-1400,41.740748,-111.81391,POINT (-111.81391 41.740748)
230737,248,12,0.04838709677419355,Utah Valley University,Orem,UT,84058-5999,40.281078,-111.716456,POINT (-111.716456 40.281078)
230764,1397,161,0.1152469577666428,University of Utah,Salt Lake City,UT,84112-9008,40.762484,-111.846044,POINT (-111.846044 40.762484)
230782,204,10,0.049019607843137254,Weber State University,Ogden,UT,84408-1031,41.192591,-111.944845,POINT (-111.944845 41.192591)
230995,144,23,0.1597222222222222,Norwich University,Northfield,VT,05663-1035,44.140237,-72.659783,POINT (-72.659783 44.140237)
231059,20,4,0.2,Saint Michael's College,Colchester,VT,5439,44.494558,-73.167069,POINT (-73.167069 44.494558)
231165,115,10,0.08695652173913043,Vermont Technical College,Randolph,VT,5061,43.939623,-72.604498,POINT (-72.60449800000001 43.939623)
231174,318,76,0.2389937106918239,University of Vermont,Burlington,VT,05405-0160,44.477325,-73.196646,POINT (-73.196646 44.477325)
232186,677,149,0.22008862629246675,George Mason University,Fairfax,VA,22030-4444,38.829976,-77.307428,POINT (-77.307428 38.829976)
232265,105,35,0.3333333333333333,Hampton University,Hampton,VA,23668-0099,37.019944,-76.339161,POINT (-76.339161 37.019944)
232937,28,3,0.10714285714285714,Norfolk State University,Norfolk,VA,23504-8000,36.848429,-76.261375,POINT (-76.261375 36.848429)
232982,353,74,0.2096317280453258,Old Dominion University,Norfolk,VA,23529,36.886418,-76.30666,POINT (-76.30665999999999 36.886418)
233921,2386,476,0.1994970662196144,Virginia Polytechnic Institute and State University,Blacksburg,VA,24061-0131,37.229012,-80.423675,POINT (-80.423675 37.229012)
234030,508,134,0.2637795275590551,Virginia Commonwealth University,Richmond,VA,23284-2512,37.54962,-77.452697,POINT (-77.452697 37.54962)
234076,1266,479,0.3783570300157978,University of Virginia-Main Campus,Charlottesville,VA,22903-2628,38.035665,-78.503428,POINT (-78.503428 38.035665)
234085,344,10,0.029069767441860465,Virginia Military Institute,Lexington,VA,24450-0304,37.7896,-79.437067,POINT (-79.437067 37.7896)
234155,33,14,0.42424242424242425,Virginia State University,Petersburg,VA,23806,37.234692,-77.419026,POINT (-77.419026 37.234692)
234207,8,1,0.125,Washington and Lee University,Lexington,VA,24450-2116,37.788939,-79.443018,POINT (-79.443018 37.788939)
235316,346,72,0.20809248554913296,Gonzaga University,Spokane,WA,99258-0001,47.666531,-117.400625,POINT (-117.400625 47.666531)
236230,6,3,0.5,Pacific Lutheran University,Tacoma,WA,98447-0003,47.14516,-122.440421,POINT (-122.440421 47.14516)
236452,98,22,0.22448979591836735,Saint Martin's University,Lacey,WA,98503-7500,47.041068,-122.816354,POINT (-122.816354 47.041068)
236577,47,6,0.1276595744680851,Seattle Pacific University,Seattle,WA,98119-1997,47.650214,-122.361667,POINT (-122.361667 47.650214)
236595,169,50,0.2958579881656805,Seattle University,Seattle,WA,98122-4340,47.608859,-122.318851,POINT (-122.318851 47.608859)
236896,171,18,0.10526315789473684,Walla Walla University,College Place,WA,99324-1198,46.048088,-118.389555,POINT (-118.389555 46.048088)
236939,455,77,0.16923076923076924,Washington State University,Pullman,WA,99164-5910,46.730448,-117.158168,POINT (-117.158168 46.730448)
236948,1164,285,0.24484536082474226,University of Washington-Seattle Campus,Seattle,WA,98195-4550,47.65538,-122.30514,POINT (-122.30514 47.65538)
237011,48,8,0.16666666666666666,Western Washington University,Bellingham,WA,98225-9008,48.737812,-122.485734,POINT (-122.485734 48.737812)
237525,43,5,0.11627906976744186,Marshall University,Huntington,WV,25755,38.422482,-82.428964,POINT (-82.42896399999999 38.422482)
237686,32,9,0.28125,West Virginia University at Parkersburg,Parkersburg,WV,26104,39.216379,-81.506192,POINT (-81.506192 39.216379)
237950,417,65,0.15587529976019185,West Virginia University Institute of Technology,Beckley,WV,25801,37.775924,-81.184072,POINT (-81.184072 37.775924)
237969,22,3,0.13636363636363635,West Virginia Wesleyan College,Buckhannon,WV,26201-2994,38.990661,-80.218969,POINT (-80.218969 38.990661)
238032,1412,196,0.1388101983002833,West Virginia University,Morgantown,WV,26506,39.634371,-79.954391,POINT (-79.954391 39.634371)
238333,3,0,0.0,Beloit College,Beloit,WI,53511-5595,42.504022,-89.029285,POINT (-89.029285 42.504022)
238980,3,1,0.3333333333333333,Lakeland University,Plymouth,WI,53073,43.841573,-87.883414,POINT (-87.883414 43.841573)
239105,804,260,0.32338308457711445,Marquette University,Milwaukee,WI,53233,43.03903,-87.927961,POINT (-87.927961 43.03903)
239318,1309,198,0.15126050420168066,Milwaukee School of Engineering,Milwaukee,WI,53202-3109,43.045364,-87.907691,POINT (-87.907691 43.045364)
240417,264,41,0.1553030303030303,University of Wisconsin-Stout,Menomonie,WI,54751,44.873187,-91.926653,POINT (-91.926653 44.873187)
240444,2492,627,0.2516051364365971,University of Wisconsin-Madison,Madison,WI,53706-1380,43.075409,-89.404098,POINT (-89.404098 43.075409)
240453,953,128,0.13431269674711438,University of Wisconsin-Milwaukee,Milwaukee,WI,53211,43.076848,-87.880488,POINT (-87.880488 43.076848)
240462,673,105,0.15601783060921248,University of Wisconsin-Platteville,Platteville,WI,53818-3099,42.733451,-90.48622,POINT (-90.48622 42.733451)
240727,780,178,0.2282051282051282,University of Wyoming,Laramie,WY,82071,41.311773,-105.57931,POINT (-105.57931 41.311773)
241377,157,41,0.2611464968152866,Caribbean University-Bayamon,Bayamon,PR,00960-0493,18.383136,-66.168315,POINT (-66.16831500000001 18.383136)
241720,207,13,0.06280193236714976,Colegio Universitario de San Juan,San Juan,PR,918,18.428528,-66.066529,POINT (-66.066529 18.428528)
242617,9,1,0.1111111111111111,Inter American University of Puerto Rico-San German,San German,PR,683,18.08353,-67.05082,POINT (-67.05082 18.08353)
242705,323,83,0.25696594427244585,Inter American University of Puerto Rico-Bayamon,Bayamon,PR,00957-6257,18.351631,-66.182473,POINT (-66.182473 18.351631)
243133,705,132,0.18723404255319148,University of Puerto Rico-Bayamon,Bayamon,PR,959,18.371398,-66.143541,POINT (-66.143541 18.371398)
243142,92,3,0.03260869565217391,University of Puerto Rico-Carolina,Carolina,PR,00984-4800,18.392069,-65.990165,POINT (-65.990165 18.392069)
243197,2805,1582,0.5639928698752228,University of Puerto Rico-Mayaguez,Mayaguez,PR,681,18.211142,-67.139172,POINT (-67.139172 18.211142)
243577,2962,737,0.24881836596893991,Universidad Politecnica de Puerto Rico,Hato Rey,PR,919,18.422195,-66.056084,POINT (-66.056084 18.422195)
243601,506,112,0.22134387351778656,Universidad Ana G. Mendez-Gurabo Campus,Gurabo,PR,00778-3030,18.239647,-66.006259,POINT (-66.006259 18.239647)
243665,5,3,0.6,University of the Virgin Islands,Charlotte Amalie,VI,00802-9990,18.344193,-64.972866,POINT (-64.972866 18.344193)
243744,328,149,0.45426829268292684,Stanford University,Stanford,CA,94305,37.429434,-122.167359,POINT (-122.167359 37.429434)
243780,5330,1141,0.21407129455909943,Purdue University-Main Campus,West Lafayette,IN,47907-2040,40.428206,-86.914435,POINT (-86.914435 40.428206)
244233,58,7,0.1206896551724138,City College-Fort Lauderdale,Fort Lauderdale,FL,33309,26.187467,-80.1705,POINT (-80.1705 26.187467)
366252,4,0,0.0,Pennsylvania College of Technology,Williamsport,PA,17701-5799,41.234145,-77.023665,POINT (-77.02366499999999 41.234145)
377555,2,0,0.0,University of Washington-Bothell Campus,Bothell,WA,98011-8246,47.759773,-122.191293,POINT (-122.191293 47.759773)
399869,321,27,0.08411214953271028,Southern California Institute of Technology,Anaheim,CA,92801-3758,33.8381,-117.950661,POINT (-117.950661 33.8381)
436818,17,3,0.17647058823529413,University of Connecticut-Waterbury Campus,Waterbury,CT,6702,41.555617,-73.039242,POINT (-73.039242 41.555617)
436827,7,2,0.2857142857142857,University of Connecticut-Avery Point,Groton,CT,06340-6097,41.316419,-72.065336,POINT (-72.065336 41.316419)
436836,3,1,0.3333333333333333,University of Connecticut-Stamford,Stamford,CT,06901-2315,41.056081,-73.542206,POINT (-73.54220599999999 41.056081)
441982,38,37,0.9736842105263158,Franklin W Olin College of Engineering,Needham,MA,02492-1200,42.293527,-71.263378,POINT (-71.263378 42.293527)
