UNITID,EFTOTLT,EFTOTLM,EFTOTLW,W/M_Ratio,INSTNM,CITY,STABBR,ZIP,LATITUDE,LONGITUDE,geometry
100654,437,348,89,0.2557471264367816,Alabama A & M University,Normal,AL,35762,34.783368,-86.568502,POINT (-86.568502 34.783368)
100663,418,323,95,0.29411764705882354,University of Alabama at Birmingham,Birmingham,AL,35294-0110,33.505697,-86.799345,POINT (-86.799345 33.505697)
100706,1597,1293,304,0.23511214230471772,University of Alabama in Huntsville,Huntsville,AL,35899,34.724557,-86.640449,POINT (-86.640449 34.724557)
100751,2024,1683,341,0.20261437908496732,The University of Alabama,Tuscaloosa,AL,35487-0100,33.211875,-87.545978,POINT (-87.54597800000001 33.211875)
100858,3791,3270,521,0.15932721712538225,Auburn University,Auburn,AL,36849,32.599378,-85.488258,POINT (-85.488258 32.599378)
100937,37,31,6,0.1935483870967742,Birmingham-Southern College,Birmingham,AL,35254,33.513774,-86.850552,POINT (-86.85055199999999 33.513774)
102049,11,11,0,0.0,Samford University,Birmingham,AL,35229-2240,33.464128,-86.791799,POINT (-86.791799 33.464128)
102094,822,709,113,0.15937940761636107,University of South Alabama,Mobile,AL,36688-0002,30.696033,-88.178711,POINT (-88.17871100000001 30.696033)
102234,19,14,5,0.35714285714285715,Spring Hill College,Mobile,AL,36608-1791,30.694751,-88.138199,POINT (-88.138199 30.694751)
102377,389,280,109,0.3892857142857143,Tuskegee University,Tuskegee,AL,36088-1920,32.4309,-85.708492,POINT (-85.70849200000001 32.4309)
102553,551,425,126,0.2964705882352941,University of Alaska Anchorage,Anchorage,AK,99508,61.190163,-149.82619,POINT (-149.82619 61.190163)
102614,489,398,91,0.228643216080402,University of Alaska Fairbanks,Fairbanks,AK,99775,64.85756,-147.823146,POINT (-147.823146 64.85756000000001)
102632,5,3,2,0.6666666666666666,University of Alaska Southeast,Juneau,AK,99801-8697,58.384846,-134.638255,POINT (-134.638255 58.384846)
104151,3437,2783,654,0.23499820337765,Arizona State University Campus Immersion,Tempe,AZ,85287,33.417721,-111.934383,POINT (-111.934383 33.417721)
104179,1860,1509,351,0.23260437375745527,University of Arizona,Tucson,AZ,85721-0066,32.232672,-110.950815,POINT (-110.950815 32.232672)
104586,657,550,107,0.19454545454545455,Embry-Riddle Aeronautical University-Prescott,Prescott,AZ,86301-3720,34.616766,-112.449741,POINT (-112.449741 34.616766)
105330,853,713,140,0.19635343618513323,Northern Arizona University,Flagstaff,AZ,86011-4092,35.188449,-111.653724,POINT (-111.653724 35.188449)
106245,125,104,21,0.20192307692307693,University of Arkansas at Little Rock,Little Rock,AR,72204,34.723254,-92.339778,POINT (-92.339778 34.723254)
106397,1572,1294,278,0.21483771251931993,University of Arkansas,Fayetteville,AR,72701,36.070009,-94.176981,POINT (-94.176981 36.070009)
106458,286,264,22,0.08333333333333333,Arkansas State University,Jonesboro,AR,72401,35.842388,-90.679988,POINT (-90.67998799999999 35.842388)
106467,370,343,27,0.07871720116618076,Arkansas Tech University,Russellville,AR,72801-2222,35.293237,-93.13562,POINT (-93.13562 35.293237)
107044,126,111,15,0.13513513513513514,Harding University,Searcy,AR,72149-5615,35.247386,-91.726143,POINT (-91.72614299999999 35.247386)
107141,84,69,15,0.21739130434782608,John Brown University,Siloam Springs,AR,72761,36.189812,-94.560283,POINT (-94.560283 36.189812)
108092,41,36,5,0.1388888888888889,University of Arkansas-Fort Smith,Fort Smith,AR,72913-3649,35.384184,-94.373729,POINT (-94.373729 35.384184)
109785,11,9,2,0.2222222222222222,Azusa Pacific University,Azusa,CA,91702-7000,34.130047,-117.888375,POINT (-117.888375 34.130047)
110361,108,87,21,0.2413793103448276,California Baptist University,Riverside,CA,92504-3297,33.929321,-117.425619,POINT (-117.425619 33.929321)
110404,258,178,80,0.449438202247191,California Institute of Technology,Pasadena,CA,91125,34.137349,-118.125878,POINT (-118.125878 34.137349)
110413,28,18,10,0.5555555555555556,California Lutheran University,Thousand Oaks,CA,91360-2787,34.224566,-118.878924,POINT (-118.878924 34.224566)
110422,5589,4720,869,0.18411016949152542,California Polytechnic State University-San Luis Obispo,San Luis Obispo,CA,93407,35.299513,-120.657311,POINT (-120.657311 35.299513)
110510,67,59,8,0.13559322033898305,California State University-San Bernardino,San Bernardino,CA,92407-2393,34.182622,-117.323801,POINT (-117.323801 34.182622)
110529,4381,3791,590,0.1556317594302295,California State Polytechnic University-Pomona,Pomona,CA,91768,34.057912,-117.821476,POINT (-117.821476 34.057912)
110538,913,804,109,0.13557213930348258,California State University-Chico,Chico,CA,95929-0150,39.729712,-121.844859,POINT (-121.844859 39.729712)
110556,993,876,117,0.13356164383561644,California State University-Fresno,Fresno,CA,93740,36.811154,-119.744569,POINT (-119.744569 36.811154)
110565,1014,876,138,0.15753424657534246,California State University-Fullerton,Fullerton,CA,92831-3599,33.881506,-117.885446,POINT (-117.885446 33.881506)
110574,132,106,26,0.24528301886792453,California State University-East Bay,Hayward,CA,94542,37.657694,-122.054135,POINT (-122.054135 37.657694)
110583,2214,1890,324,0.17142857142857143,California State University-Long Beach,Long Beach,CA,90840-0115,33.782818,-118.11204,POINT (-118.11204 33.782818)
110592,777,642,135,0.2102803738317757,California State University-Los Angeles,Los Angeles,CA,90032-8506,34.066927,-118.168965,POINT (-118.168965 34.066927)
110608,1383,1214,169,0.13920922570016475,California State University-Northridge,Northridge,CA,91330,34.240126,-118.529319,POINT (-118.529319 34.240126)
110617,1371,1199,172,0.14345287739783152,California State University-Sacramento,Sacramento,CA,95819-2694,38.559415,-121.423549,POINT (-121.423549 38.559415)
110635,3102,2416,686,0.28394039735099336,University of California-Berkeley,Berkeley,CA,94720,37.871918,-122.260463,POINT (-122.260463 37.871918)
110644,2622,2023,599,0.29609490855165593,University of California-Davis,Davis,CA,95616-8678,38.539667,-121.749567,POINT (-121.749567 38.539667)
110653,2304,1820,484,0.26593406593406593,University of California-Irvine,Irvine,CA,92697,33.648434,-117.841248,POINT (-117.841248 33.648434)
110662,2743,2192,551,0.25136861313868614,University of California-Los Angeles,Los Angeles,CA,90095-1405,34.07178,-118.442179,POINT (-118.442179 34.07178)
110671,1208,1021,187,0.1831537708129285,University of California-Riverside,Riverside,CA,92521,33.97246,-117.32741,POINT (-117.32741 33.97246)
110680,3379,2595,784,0.3021194605009634,University of California-San Diego,La Jolla,CA,92093,32.877749,-117.235866,POINT (-117.235866 32.877749)
110705,911,786,125,0.15903307888040713,University of California-Santa Barbara,Santa Barbara,CA,93106,34.416297,-119.846426,POINT (-119.846426 34.416297)
110714,218,188,30,0.1595744680851064,University of California-Santa Cruz,Santa Cruz,CA,95064-1011,36.995584,-122.058801,POINT (-122.058801 36.995584)
111188,135,123,12,0.0975609756097561,California State University Maritime Academy,Vallejo,CA,94590-8181,38.069061,-122.231551,POINT (-122.231551 38.069061)
112260,24,18,6,0.3333333333333333,Claremont McKenna College,Claremont,CA,91711-6400,34.102154,-117.711188,POINT (-117.711188 34.102154)
112394,22,22,0,0.0,Cogswell University of Silicon Valley,San Jose,CA,95134,37.414049,-121.94087,POINT (-121.94087 37.414049)
115409,142,104,38,0.36538461538461536,Harvey Mudd College,Claremont,CA,91711,34.106515,-117.709837,POINT (-117.709837 34.106515)
115755,259,185,74,0.4,Humboldt State University,Arcata,CA,95521-8299,40.877481,-124.078293,POINT (-124.078293 40.877481)
117946,273,204,69,0.3382352941176471,Loyola Marymount University,Los Angeles,CA,90045-2659,33.97085,-118.415744,POINT (-118.415744 33.97085)
119605,402,344,58,0.1686046511627907,National University,La Jolla,CA,92037-1011,32.909894,-117.243026,POINT (-117.243026 32.909894)
120883,457,361,96,0.2659279778393352,University of the Pacific,Stockton,CA,95211-0197,37.981424,-121.312301,POINT (-121.312301 37.981424)
121309,27,27,0,0.0,Point Loma Nazarene University,San Diego,CA,92106-2899,32.718391,-117.250265,POINT (-117.250265 32.718391)
122409,1866,1601,265,0.1655215490318551,San Diego State University,San Diego,CA,92182-0001,32.77525,-117.071228,POINT (-117.071228 32.77525)
122436,176,133,43,0.3233082706766917,University of San Diego,San Diego,CA,92110-2492,32.770816,-117.192073,POINT (-117.192073 32.770816)
122597,687,583,104,0.1783876500857633,San Francisco State University,San Francisco,CA,94132,37.721224,-122.476799,POINT (-122.476799 37.721224)
122755,2740,2370,370,0.15611814345991562,San Jose State University,San Jose,CA,95192-0001,37.336569,-121.880621,POINT (-121.880621 37.336569)
122931,674,507,167,0.32938856015779094,Santa Clara University,Santa Clara,CA,95053,37.348362,-121.93784,POINT (-121.93784 37.348362)
123165,1,0,1,inf,Scripps College,Claremont,CA,91711-3905,34.104147,-117.711294,POINT (-117.711294 34.104147)
123572,51,47,4,0.0851063829787234,Sonoma State University,Rohnert Park,CA,94928-3609,38.340274,-122.677066,POINT (-122.677066 38.340274)
123961,1693,1215,478,0.3934156378600823,University of Southern California,Los Angeles,CA,90089,34.021281,-118.284169,POINT (-118.284169 34.021281)
125727,10,10,0,0.0,Westmont College,Santa Barbara,CA,93108-1089,34.450151,-119.662517,POINT (-119.662517 34.450151)
126562,670,574,96,0.1672473867595819,University of Colorado Denver/Anschutz Medical Campus,Denver,CO,80217-3364,39.745149,-104.837722,POINT (-104.837722 39.745149)
126580,414,345,69,0.2,University of Colorado Colorado Springs,Colorado Springs,CO,80918,38.892735,-104.800296,POINT (-104.800296 38.892735)
126614,2741,2190,551,0.25159817351598174,University of Colorado Boulder,Boulder,CO,80309-0017,40.008781,-105.270823,POINT (-105.270823 40.008781)
126775,2743,2113,630,0.29815428300993846,Colorado School of Mines,Golden,CO,80401,39.751443,-105.223364,POINT (-105.223364 39.751443)
126818,1658,1410,248,0.17588652482269504,Colorado State University-Fort Collins,Fort Collins,CO,80523-0100,40.574805,-105.080732,POINT (-105.080732 40.574805)
126827,183,146,37,0.2534246575342466,Colorado Technical University-Colorado Springs,Colorado Springs,CO,80907-3812,38.894265,-104.833928,POINT (-104.833928 38.894265)
127060,123,106,17,0.16037735849056603,University of Denver,Denver,CO,80208,39.678005,-104.963259,POINT (-104.963259 39.678005)
128106,116,102,14,0.13725490196078433,Colorado State University Pueblo,Pueblo,CO,81001-4901,38.30859,-104.579033,POINT (-104.579033 38.30859)
128328,1158,1064,94,0.08834586466165413,United States Air Force Academy,USAF Academy,CO,80840-5002,39.010957,-104.891358,POINT (-104.891358 39.010957)
128744,27,25,2,0.08,University of Bridgeport,Bridgeport,CT,06604-5620,41.164741,-73.190166,POINT (-73.190166 41.164741)
128771,165,148,17,0.11486486486486487,Central Connecticut State University,New Britain,CT,6050,41.692502,-72.765991,POINT (-72.765991 41.692502)
129020,1601,1336,265,0.19835329341317365,University of Connecticut,Storrs,CT,6269,41.809098,-72.249948,POINT (-72.249948 41.809098)
129242,173,146,27,0.18493150684931506,Fairfield University,Fairfield,CT,06824-5195,41.157673,-73.255903,POINT (-73.255903 41.157673)
129525,387,338,49,0.14497041420118342,University of Hartford,West Hartford,CT,06117-1599,41.798591,-72.715213,POINT (-72.71521300000001 41.798591)
129941,325,287,38,0.13240418118466898,University of New Haven,West Haven,CT,06516-1916,41.291314,-72.961472,POINT (-72.961472 41.291314)
130590,43,39,4,0.10256410256410256,Trinity College,Hartford,CT,06106-3100,41.747451,-72.690882,POINT (-72.690882 41.747451)
130624,430,357,73,0.20448179271708683,United States Coast Guard Academy,New London,CT,06320-4195,41.375823,-72.101583,POINT (-72.10158300000001 41.375823)
130794,136,81,55,0.6790123456790124,Yale University,New Haven,CT,6520,41.311158,-72.926688,POINT (-72.926688 41.311158)
130943,2377,1549,828,0.5345384118786314,University of Delaware,Newark,DE,19716,39.679577,-75.752822,POINT (-75.75282199999999 39.679577)
131283,262,208,54,0.25961538461538464,The Catholic University of America,Washington,DC,20064,38.933651,-76.997909,POINT (-76.99790900000001 38.933651)
131399,569,465,104,0.22365591397849463,University of the District of Columbia,Washington,DC,20008,38.943819,-77.066247,POINT (-77.066247 38.943819)
131469,484,299,185,0.6187290969899666,George Washington University,Washington,DC,20052,38.89923,-77.048363,POINT (-77.04836299999999 38.89923)
131520,282,102,180,1.7647058823529411,Howard University,Washington,DC,20059,38.922392,-77.018966,POINT (-77.01896600000001 38.922392)
132602,38,32,6,0.1875,Bethune-Cookman University,Daytona Beach,FL,32114-3099,29.207195,-81.032946,POINT (-81.032946 29.207195)
132903,3557,3037,520,0.17122160026341784,University of Central Florida,Orlando,FL,32816,28.602159,-81.200889,POINT (-81.200889 28.602159)
133526,26,21,5,0.23809523809523808,Edward Waters College,Jacksonville,FL,32209,30.34479,-81.684879,POINT (-81.684879 30.34479)
133553,1788,1515,273,0.1801980198019802,Embry-Riddle Aeronautical University-Daytona Beach,Daytona Beach,FL,32114-3900,29.189903,-81.048367,POINT (-81.048367 29.189903)
133650,511,386,125,0.3238341968911917,Florida Agricultural and Mechanical University,Tallahassee,FL,32307,30.428504,-84.290226,POINT (-84.290226 30.428504)
133669,1176,1003,173,0.17248255234297108,Florida Atlantic University,Boca Raton,FL,33431-0991,26.372421,-80.102978,POINT (-80.10297799999999 26.372421)
133881,1132,979,153,0.15628192032686414,Florida Institute of Technology,Melbourne,FL,32901-6975,28.065815,-80.622893,POINT (-80.622893 28.065815)
133951,2340,1903,437,0.22963741460851286,Florida International University,Miami,FL,33199,25.75732,-80.373928,POINT (-80.37392800000001 25.75732)
133979,24,21,3,0.14285714285714285,Florida Memorial University,Miami Gardens,FL,33054-6199,25.918278,-80.270753,POINT (-80.270753 25.918278)
133997,239,35,204,5.828571428571428,Florida Career College-Miami,Miami,FL,33174,25.756567,-80.36778,POINT (-80.36778 25.756567)
134097,1384,1111,273,0.24572457245724572,Florida State University,Tallahassee,FL,32306-1037,30.440756,-84.291921,POINT (-84.291921 30.440756)
134130,4808,3786,1022,0.2699418911780243,University of Florida,Gainesville,FL,32611,29.64629,-82.347911,POINT (-82.347911 29.64629)
134945,50,45,5,0.1111111111111111,Jacksonville University,Jacksonville,FL,32211-3394,30.353227,-81.60458,POINT (-81.60458 30.353227)
135081,5,2,3,1.5,Keiser University-Ft Lauderdale,Fort Lauderdale,FL,33309,26.185869,-80.163959,POINT (-80.16395900000001 26.185869)
135726,732,528,204,0.38636363636363635,University of Miami,Coral Gables,FL,33146,25.72126,-80.278662,POINT (-80.278662 25.72126)
136172,551,485,66,0.1360824742268041,University of North Florida,Jacksonville,FL,32224-7699,30.27194,-81.509144,POINT (-81.50914400000001 30.27194)
136330,11,9,2,0.2222222222222222,Palm Beach Atlantic University,West Palm Beach,FL,33401,26.7044,-80.05247,POINT (-80.05247 26.7044)
137351,2789,2319,470,0.20267356619232427,University of South Florida,Tampa,FL,33620-9951,28.061458,-82.413232,POINT (-82.41323199999999 28.061458)
137476,14,14,0,0.0,St. Thomas University,Miami Gardens,FL,33054-6459,25.922071,-80.253273,POINT (-80.25327299999999 25.922071)
138354,273,244,29,0.11885245901639344,The University of West Florida,Pensacola,FL,32514-5750,30.549076,-87.218511,POINT (-87.21851100000001 30.549076)
138947,9,7,2,0.2857142857142857,Clark Atlanta University,Atlanta,GA,30314-4391,33.747628,-84.412584,POINT (-84.412584 33.747628)
139755,7230,5605,1625,0.28991971454058874,Georgia Institute of Technology-Main Campus,Atlanta,GA,30332-0530,33.77242,-84.394832,POINT (-84.39483199999999 33.77242)
139940,3,3,0,0.0,Georgia State University,Atlanta,GA,30303-3083,33.7527,-84.38667,POINT (-84.38667 33.7527)
139959,261,205,56,0.2731707317073171,University of Georgia,Athens,GA,30602,33.956262,-83.374039,POINT (-83.374039 33.956262)
140447,321,247,74,0.29959514170040485,Mercer University,Macon,GA,31207,32.831787,-83.648295,POINT (-83.648295 32.831787)
140553,77,77,0,0.0,Morehouse College,Atlanta,GA,30314,33.745982,-84.414917,POINT (-84.414917 33.745982)
140696,15,12,3,0.25,Oglethorpe University,Atlanta,GA,30319-2797,33.875441,-84.333687,POINT (-84.333687 33.875441)
141060,73,0,73,inf,Spelman College,Atlanta,GA,30314-4399,33.745279,-84.411527,POINT (-84.41152700000001 33.745279)
141574,749,620,129,0.20806451612903226,University of Hawaii at Manoa,Honolulu,HI,96822-2217,21.298598,-157.818979,POINT (-157.818979 21.298598)
141644,26,21,5,0.23809523809523808,Hawaii Pacific University,Honolulu,HI,96813,21.310306,-157.859645,POINT (-157.859645 21.310306)
142115,950,822,128,0.15571776155717762,Boise State University,Boise,ID,83725,43.604284,-116.203301,POINT (-116.203301 43.604284)
142276,455,392,63,0.16071428571428573,Idaho State University,Pocatello,ID,83209,42.863832,-112.432312,POINT (-112.432312 42.863832)
142285,1017,858,159,0.1853146853146853,University of Idaho,Moscow,ID,83844-2282,46.727406,-117.014167,POINT (-117.014167 46.727406)
142294,19,15,4,0.26666666666666666,The College of Idaho,Caldwell,ID,83605-4432,43.652284,-116.677992,POINT (-116.677992 43.652284)
142328,31,29,2,0.06896551724137931,Lewis-Clark State College,Lewiston,ID,83501-2698,46.412199,-117.024875,POINT (-117.024875 46.412199)
142461,27,23,4,0.17391304347826086,Northwest Nazarene University,Nampa,ID,83686-5897,43.562411,-116.565783,POINT (-116.565783 43.562411)
142522,508,479,29,0.060542797494780795,Brigham Young University-Idaho,Rexburg,ID,83460-1690,43.818408,-111.782431,POINT (-111.782431 43.818408)
143358,745,655,90,0.13740458015267176,Bradley University,Peoria,IL,61625-0001,40.696896,-89.616786,POINT (-89.616786 40.696896)
145600,1516,1284,232,0.1806853582554517,University of Illinois Chicago,Chicago,IL,60607,41.871837,-87.650503,POINT (-87.650503 41.871837)
145619,23,20,3,0.15,Benedictine University,Lisle,IL,60532-0900,41.777569,-88.097307,POINT (-88.097307 41.777569)
145637,5064,4159,905,0.21760038470786247,University of Illinois Urbana-Champaign,Champaign,IL,61820-5711,40.104718,-88.229114,POINT (-88.229114 40.104718)
145725,1168,906,262,0.2891832229580574,Illinois Institute of Technology,Chicago,IL,60616,41.8313,-87.627321,POINT (-87.62732099999999 41.8313)
147703,772,714,58,0.08123249299719888,Northern Illinois University,Dekalb,IL,60115-2828,41.933869,-88.766428,POINT (-88.766428 41.933869)
147767,1324,930,394,0.4236559139784946,Northwestern University,Evanston,IL,60208,42.050356,-87.679858,POINT (-87.679858 42.050356)
147828,64,58,6,0.10344827586206896,Olivet Nazarene University,Bourbonnais,IL,60914-2271,41.155237,-87.875165,POINT (-87.875165 41.155237)
148016,2,2,0,0.0,Principia College,Elsah,IL,62028-9799,38.948835,-90.350285,POINT (-90.350285 38.948835)
149222,787,715,72,0.1006993006993007,Southern Illinois University-Carbondale,Carbondale,IL,62901-4512,37.714193,-89.217273,POINT (-89.21727300000001 37.714193)
149231,553,491,62,0.12627291242362526,Southern Illinois University-Edwardsville,Edwardsville,IL,62026-1259,38.793949,-89.997779,POINT (-89.99777899999999 38.793949)
149781,14,12,2,0.16666666666666666,Wheaton College,Wheaton,IL,60187-5593,41.870176,-88.099643,POINT (-88.099643 41.870176)
150145,11,10,1,0.1,Bethel University,Mishawaka,IN,46545-5591,41.678399,-86.194686,POINT (-86.194686 41.678399)
150534,261,231,30,0.12987012987012986,University of Evansville,Evansville,IN,47722,37.971549,-87.531644,POINT (-87.531644 37.971549)
151102,308,272,36,0.1323529411764706,Purdue University Fort Wayne,Fort Wayne,IN,46805-1499,41.117278,-85.108962,POINT (-85.10896200000001 41.117278)
151111,1060,908,152,0.16740088105726872,Indiana University-Purdue University-Indianapolis,Indianapolis,IN,46202-5143,39.772948,-86.172217,POINT (-86.172217 39.772948)
151290,316,266,50,0.18796992481203006,Indiana Institute of Technology,Fort Wayne,IN,46803-1228,41.078365,-85.116479,POINT (-85.116479 41.078365)
151306,263,238,25,0.10504201680672269,University of Southern Indiana,Evansville,IN,47712,37.962374,-87.677214,POINT (-87.67721400000001 37.962374)
151777,7,7,0,0.0,Manchester University,North Manchester,IN,46962,41.010549,-85.762643,POINT (-85.762643 41.010549)
152080,668,500,168,0.336,University of Notre Dame,Notre Dame,IN,46556,41.703058,-86.238959,POINT (-86.23895899999999 41.703058)
152318,1596,1278,318,0.24882629107981222,Rose-Hulman Institute of Technology,Terre Haute,IN,47803-3920,39.483602,-87.326749,POINT (-87.32674900000001 39.483602)
152530,45,42,3,0.07142857142857142,Taylor University,Upland,IN,46989-1001,40.456246,-85.497034,POINT (-85.497034 40.456246)
152567,445,389,56,0.14395886889460155,Trine University,Angola,IN,46703-1764,41.632502,-85.008009,POINT (-85.008009 41.632502)
152600,322,272,50,0.18382352941176472,Valparaiso University,Valparaiso,IN,46383,41.462239,-87.040172,POINT (-87.040172 41.462239)
152637,67,61,6,0.09836065573770492,Vincennes University,Vincennes,IN,47591,38.687766,-87.519939,POINT (-87.51993899999999 38.687766)
153250,112,103,9,0.08737864077669903,Dordt University,Sioux Center,IA,51250-1606,43.082527,-96.166562,POINT (-96.166562 43.082527)
153603,4717,4035,682,0.16902106567534078,Iowa State University,Ames,IA,50011-2103,42.026212,-93.648504,POINT (-93.648504 42.026212)
153658,1351,1084,267,0.246309963099631,University of Iowa,Iowa City,IA,52242-1316,41.661935,-91.536425,POINT (-91.53642499999999 41.661935)
153825,17,16,1,0.0625,Loras College,Dubuque,IA,52004-0178,42.503908,-90.679023,POINT (-90.679023 42.503908)
154004,1,1,0,0.0,Morningside College,Sioux City,IA,51106-1751,42.473891,-96.359464,POINT (-96.359464 42.473891)
154095,20,18,2,0.1111111111111111,University of Northern Iowa,Cedar Falls,IA,50614-0005,42.514923,-92.459703,POINT (-92.459703 42.514923)
154235,60,48,12,0.25,Saint Ambrose University,Davenport,IA,52803-2898,41.54065,-90.579854,POINT (-90.579854 41.54065)
154527,52,44,8,0.18181818181818182,Wartburg College,Waverly,IA,50677-0903,42.7277,-92.483387,POINT (-92.48338699999999 42.7277)
155061,25,19,6,0.3157894736842105,Fort Hays State University,Hays,KS,67601-4099,38.872156,-99.342503,POINT (-99.34250299999999 38.872156)
155317,1506,1189,317,0.26661059714045415,University of Kansas,Lawrence,KS,66045,38.958549,-95.247567,POINT (-95.247567 38.958549)
155399,2084,1762,322,0.18274687854710556,Kansas State University,Manhattan,KS,66506,39.188648,-96.581077,POINT (-96.58107699999999 39.188648)
155900,6,5,1,0.2,Southwestern College,Winfield,KS,67156-2499,37.248608,-96.975405,POINT (-96.97540499999999 37.248608)
156125,1188,1024,164,0.16015625,Wichita State University,Wichita,KS,67260-0124,37.718882,-97.292361,POINT (-97.292361 37.718882)
156286,13,11,2,0.18181818181818182,Bellarmine University,Louisville,KY,40205-0671,38.219279,-85.704997,POINT (-85.70499700000001 38.219279)
156541,8,7,1,0.14285714285714285,University of the Cumberlands,Williamsburg,KY,40769,36.737048,-84.161646,POINT (-84.161646 36.737048)
156620,4,3,1,0.3333333333333333,Eastern Kentucky University,Richmond,KY,40475-3102,37.740845,-84.300796,POINT (-84.30079600000001 37.740845)
157085,1584,1332,252,0.1891891891891892,University of Kentucky,Lexington,KY,40506-0032,38.038911,-84.504747,POINT (-84.50474699999999 38.038911)
157289,1452,1246,206,0.1653290529695024,University of Louisville,Louisville,KY,40292-0001,38.216862,-85.760412,POINT (-85.760412 38.216862)
157401,101,84,17,0.20238095238095238,Murray State University,Murray,KY,42071-3318,36.612419,-88.323629,POINT (-88.323629 36.612419)
157951,431,394,37,0.09390862944162437,Western Kentucky University,Bowling Green,KY,42101-1000,36.985035,-86.456828,POINT (-86.456828 36.985035)
159391,2951,2428,523,0.2154036243822076,Louisiana State University and Agricultural & Mechanical College,Baton Rouge,LA,70803-2750,30.414986,-91.178921,POINT (-91.178921 30.414986)
159568,12,12,0,0.0,Louisiana College,Pineville,LA,71359,31.324528,-92.425973,POINT (-92.425973 31.324528)
159647,1182,1002,180,0.17964071856287425,Louisiana Tech University,Ruston,LA,71272,32.528297,-92.649963,POINT (-92.649963 32.528297)
159717,408,343,65,0.18950437317784258,McNeese State University,Lake Charles,LA,70605,30.178187,-93.217222,POINT (-93.21722200000001 30.178187)
159939,933,796,137,0.1721105527638191,University of New Orleans,New Orleans,LA,70148,30.027704,-90.067142,POINT (-90.067142 30.027704)
159966,52,46,6,0.13043478260869565,Nicholls State University,Thibodaux,LA,70310,29.794486,-90.801571,POINT (-90.801571 29.794486)
160621,456,373,83,0.2225201072386059,Southern University and A & M College,Baton Rouge,LA,70813,30.524558,-91.190105,POINT (-91.190105 30.524558)
160658,1102,956,146,0.15271966527196654,University of Louisiana at Lafayette,Lafayette,LA,70503,30.212191,-92.020165,POINT (-92.02016500000001 30.212191)
160755,188,126,62,0.49206349206349204,Tulane University of Louisiana,New Orleans,LA,70118-5698,29.940069,-90.122144,POINT (-90.12214400000001 29.940069)
160904,21,10,11,1.1,Xavier University of Louisiana,New Orleans,LA,70125-1098,29.964162,-90.107307,POINT (-90.10730700000001 29.964162)
161253,879,750,129,0.172,University of Maine,Orono,ME,4469,44.899257,-68.669332,POINT (-68.669332 44.899257)
161299,416,401,15,0.03740648379052369,Maine Maritime Academy,Castine,ME,04420-0001,44.389654,-68.804347,POINT (-68.80434700000001 44.389654)
161554,293,265,28,0.10566037735849057,University of Southern Maine,Portland,ME,4103,43.662863,-70.274247,POINT (-70.274247 43.662863)
162061,140,119,21,0.17647058823529413,Capitol Technology University,Laurel,MD,20708,39.046673,-76.850231,POINT (-76.85023099999999 39.046673)
162210,5,5,0,0.0,Washington Adventist University,Takoma Park,MD,20912,38.986349,-77.000608,POINT (-77.000608 38.986349)
162584,136,119,17,0.14285714285714285,Frostburg State University,Frostburg,MD,21532-1099,39.650918,-78.934293,POINT (-78.934293 39.650918)
162928,1173,779,394,0.5057766367137355,Johns Hopkins University,Baltimore,MD,21218-2688,39.328977,-76.621595,POINT (-76.621595 39.328977)
163046,94,72,22,0.3055555555555556,Loyola University Maryland,Baltimore,MD,21210-2699,39.346358,-76.621872,POINT (-76.621872 39.346358)
163268,1064,913,151,0.16538882803943045,University of Maryland-Baltimore County,Baltimore,MD,21250,39.256686,-76.711607,POINT (-76.711607 39.256686)
163286,2754,2235,519,0.23221476510067113,University of Maryland-College Park,College Park,MD,20742,38.988178,-76.944721,POINT (-76.944721 38.988178)
163338,89,78,11,0.14102564102564102,University of Maryland Eastern Shore,Princess Anne,MD,21853-1299,38.207386,-75.686852,POINT (-75.686852 38.207386)
163453,721,543,178,0.3278084714548803,Morgan State University,Baltimore,MD,21251-0001,39.344161,-76.585565,POINT (-76.585565 39.344161)
164155,1581,1373,208,0.15149308084486526,United States Naval Academy,Annapolis,MD,21402-1300,38.980507,-76.481692,POINT (-76.481692 38.980507)
164748,277,242,35,0.1446280991735537,Berklee College of Music,Boston,MA,2215,42.346646,-71.089405,POINT (-71.089405 42.346646)
164988,1056,777,279,0.3590733590733591,Boston University,Boston,MA,2215,42.351118,-71.107942,POINT (-71.10794199999999 42.351118)
165644,19,14,5,0.35714285714285715,Eastern Nazarene College,Quincy,MA,02170-2999,42.271228,-71.011079,POINT (-71.011079 42.271228)
165866,17,17,0,0.0,Framingham State University,Framingham,MA,01701-9101,42.297116,-71.437565,POINT (-71.43756500000001 42.297116)
166027,68,48,20,0.4166666666666667,Harvard University,Cambridge,MA,2138,42.374471,-71.118313,POINT (-71.118313 42.374471)
166513,1277,1141,136,0.11919368974583698,University of Massachusetts-Lowell,Lowell,MA,01854-5104,42.652864,-71.326809,POINT (-71.326809 42.652864)
166629,1334,1156,178,0.15397923875432526,University of Massachusetts-Amherst,Amherst,MA,1003,42.385999,-72.526728,POINT (-72.52672800000001 42.385999)
166638,82,70,12,0.17142857142857143,University of Massachusetts-Boston,Boston,MA,02125-3393,42.312881,-71.036865,POINT (-71.03686500000001 42.312881)
166683,1403,795,608,0.7647798742138365,Massachusetts Institute of Technology,Cambridge,MA,02139-4307,42.359243,-71.093226,POINT (-71.093226 42.359243)
166692,346,328,18,0.054878048780487805,Massachusetts Maritime Academy,Buzzards Bay,MA,02532-1803,41.739072,-70.624084,POINT (-70.624084 41.739072)
166850,130,116,14,0.1206896551724138,Merrimack College,North Andover,MA,1845,42.668344,-71.124216,POINT (-71.124216 42.668344)
167358,2086,1722,364,0.21138211382113822,Northeastern University,Boston,MA,02115-5005,42.339992,-71.088782,POINT (-71.08878199999999 42.339992)
167792,2,1,1,1.0,Bard College at Simon's Rock,Great Barrington,MA,01230-9702,42.208803,-73.379201,POINT (-73.37920099999999 42.208803)
167835,46,0,46,inf,Smith College,Northampton,MA,1063,42.318111,-72.638097,POINT (-72.638097 42.318111)
167987,874,810,64,0.07901234567901234,University of Massachusetts-Dartmouth,North Dartmouth,MA,02747-2300,41.62869,-71.004552,POINT (-71.004552 41.62869)
168005,102,43,59,1.372093023255814,Suffolk University,Boston,MA,02108-3901,42.357945,-71.060917,POINT (-71.060917 42.357945)
168148,686,483,203,0.42028985507246375,Tufts University,Medford,MA,02155-5555,42.40855,-71.118293,POINT (-71.11829299999999 42.40855)
168227,228,201,27,0.13432835820895522,Wentworth Institute of Technology,Boston,MA,2115,42.336632,-71.094983,POINT (-71.094983 42.336632)
168254,335,291,44,0.15120274914089346,Western New England University,Springfield,MA,01119-2684,42.115017,-72.520466,POINT (-72.520466 42.115017)
168421,1972,1533,439,0.28636660143509457,Worcester Polytechnic Institute,Worcester,MA,01609-2280,42.274853,-71.808339,POINT (-71.808339 42.274853)
168740,50,46,4,0.08695652173913043,Andrews University,Berrien Springs,MI,49104,41.963859,-86.355815,POINT (-86.35581500000001 41.963859)
168847,73,62,11,0.1774193548387097,Baker College,Owosso,MI,48867,42.984804,-84.172404,POINT (-84.172404 42.984804)
169080,360,309,51,0.1650485436893204,Calvin University,Grand Rapids,MI,49546,42.929916,-85.587548,POINT (-85.587548 42.929916)
169248,94,78,16,0.20512820512820512,Central Michigan University,Mount Pleasant,MI,48859,43.591203,-84.77525,POINT (-84.77525 43.591203)
169716,173,133,40,0.3007518796992481,University of Detroit Mercy,Detroit,MI,48221-3038,42.414222,-83.139158,POINT (-83.13915799999999 42.414222)
169798,37,33,4,0.12121212121212122,Eastern Michigan University,Ypsilanti,MI,48197,42.251675,-83.627443,POINT (-83.627443 42.251675)
169910,5,4,1,0.25,Ferris State University,Big Rapids,MI,49307-2251,43.687724,-85.481925,POINT (-85.481925 43.687724)
169983,1810,1546,264,0.17076326002587322,Kettering University,Flint,MI,48504-6214,43.012468,-83.71282,POINT (-83.71281999999999 43.012468)
170082,699,615,84,0.13658536585365855,Grand Valley State University,Allendale,MI,49401-9403,42.963001,-85.889826,POINT (-85.889826 42.963001)
170301,49,45,4,0.08888888888888889,Hope College,Holland,MI,49422-9000,42.787298,-86.102089,POINT (-86.10208900000001 42.787298)
170639,131,122,9,0.07377049180327869,Lake Superior State University,Sault Ste Marie,MI,49783,46.492849,-84.365573,POINT (-84.365573 46.492849)
170675,736,650,86,0.13230769230769232,Lawrence Technological University,Southfield,MI,48075-1058,42.474072,-83.25003,POINT (-83.25003 42.474072)
170976,4937,3767,1170,0.31059198301035307,University of Michigan-Ann Arbor,Ann Arbor,MI,48109,42.275921,-83.742769,POINT (-83.742769 42.275921)
171100,2803,2257,546,0.2419140451927337,Michigan State University,East Lansing,MI,48824-1046,42.73212,-84.476111,POINT (-84.476111 42.73212)
171128,3418,2877,541,0.18804310045185957,Michigan Technological University,Houghton,MI,49931-1295,47.11866,-88.548092,POINT (-88.548092 47.11866)
171137,822,696,126,0.1810344827586207,University of Michigan-Dearborn,Dearborn,MI,48128-1491,42.317287,-83.231417,POINT (-83.23141699999999 42.317287)
171146,134,111,23,0.2072072072072072,University of Michigan-Flint,Flint,MI,48502-1950,43.01875,-83.690276,POINT (-83.690276 43.01875)
171571,613,516,97,0.187984496124031,Oakland University,Rochester Hills,MI,48309-4401,42.674573,-83.216418,POINT (-83.216418 42.674573)
172051,344,309,35,0.11326860841423948,Saginaw Valley State University,University Center,MI,48710,43.51176,-83.964273,POINT (-83.96427300000001 43.51176)
172264,11,11,0,0.0,Siena Heights University,Adrian,MI,49221,41.905624,-84.018841,POINT (-84.01884099999999 41.905624)
172644,897,719,178,0.24756606397774686,Wayne State University,Detroit,MI,48202,42.358994,-83.068998,POINT (-83.06899799999999 42.358994)
172699,1712,1486,226,0.15208613728129206,Western Michigan University,Kalamazoo,MI,49008-5200,42.282194,-85.613759,POINT (-85.613759 42.282194)
173045,29,29,0,0.0,Augsburg University,Minneapolis,MN,55454,44.966307,-93.240436,POINT (-93.240436 44.966307)
173124,135,121,14,0.11570247933884298,Bemidji State University,Bemidji,MN,56601,47.482341,-94.874119,POINT (-94.87411899999999 47.482341)
173160,37,27,10,0.37037037037037035,Bethel University,Saint Paul,MN,55112,45.057655,-93.161663,POINT (-93.161663 45.057655)
173920,534,494,40,0.08097165991902834,Minnesota State University-Mankato,Mankato,MN,56001,44.146712,-93.99945,POINT (-93.99945 44.146712)
174066,1589,1355,234,0.17269372693726937,University of Minnesota-Twin Cities,Minneapolis,MN,55455-0213,44.972851,-93.235464,POINT (-93.23546399999999 44.972851)
174075,86,80,6,0.075,University of Minnesota-Crookston,Crookston,MN,56716-5001,47.802536,-96.606188,POINT (-96.606188 47.802536)
174233,235,209,26,0.12440191387559808,University of Minnesota-Duluth,Duluth,MN,55812,46.817126,-92.084385,POINT (-92.084385 46.817126)
174358,28,21,7,0.3333333333333333,Minnesota State University Moorhead,Moorhead,MN,56563,46.867153,-96.759532,POINT (-96.75953199999999 46.867153)
174491,33,26,7,0.2692307692307692,University of Northwestern-St Paul,Saint Paul,MN,55113-1598,45.033703,-93.167822,POINT (-93.167822 45.033703)
174783,110,97,13,0.13402061855670103,Saint Cloud State University,Saint Cloud,MN,56301-4498,45.553227,-94.152657,POINT (-94.152657 45.553227)
174817,4,3,1,0.3333333333333333,Saint Mary's University of Minnesota,Winona,MN,55987-1399,44.044736,-91.695449,POINT (-91.695449 44.044736)
174914,347,294,53,0.18027210884353742,University of St Thomas,Saint Paul,MN,55105-1078,44.943439,-93.188986,POINT (-93.188986 44.943439)
175227,75,71,4,0.056338028169014086,Dunwoody College of Technology,Minneapolis,MN,55403-1192,44.97281,-93.290608,POINT (-93.29060800000001 44.97281)
175272,166,155,11,0.07096774193548387,Winona State University,Winona,MN,55987-5838,44.046159,-91.643723,POINT (-91.64372299999999 44.046159)
175856,262,207,55,0.26570048309178745,Jackson State University,Jackson,MS,39217,32.296105,-90.207405,POINT (-90.20740499999999 32.296105)
176017,563,466,97,0.20815450643776823,University of Mississippi,University,MS,38677-1848,34.365529,-89.537434,POINT (-89.537434 34.365529)
176053,10,8,2,0.25,Mississippi College,Clinton,MS,39058,32.335515,-90.329821,POINT (-90.329821 32.335515)
176080,1988,1649,339,0.20557913887204365,Mississippi State University,Mississippi State,MS,39762,33.454852,-88.790139,POINT (-88.790139 33.454852)
178059,5,3,2,0.6666666666666666,Maryville University of Saint Louis,Saint Louis,MO,63141-7299,38.644774,-90.505998,POINT (-90.50599800000001 38.644774)
178396,1853,1593,260,0.16321406151914628,University of Missouri-Columbia,Columbia,MO,65211,38.94531,-92.328843,POINT (-92.32884300000001 38.94531)
178402,283,247,36,0.145748987854251,University of Missouri-Kansas City,Kansas City,MO,64110,39.034179,-94.582141,POINT (-94.58214099999999 39.034179)
178411,3749,3041,708,0.2328181519237093,Missouri University of Science and Technology,Rolla,MO,65409,37.953426,-91.775583,POINT (-91.775583 37.953426)
178420,327,281,46,0.16370106761565836,University of Missouri-St Louis,Saint Louis,MO,63121-4400,38.710312,-90.311091,POINT (-90.311091 38.710312)
178697,2,2,0,0.0,College of the Ozarks,Point Lookout,MO,65726-0017,36.616019,-93.238174,POINT (-93.238174 36.616019)
178721,36,33,3,0.09090909090909091,Park University,Parkville,MO,64152-3795,39.189256,-94.679041,POINT (-94.679041 39.189256)
179159,393,321,72,0.22429906542056074,Saint Louis University,Saint Louis,MO,63103-2097,38.636801,-90.2351,POINT (-90.2351 38.636801)
179557,47,40,7,0.175,Southeast Missouri State University,Cape Girardeau,MO,63701,37.311107,-89.531187,POINT (-89.531187 37.311107)
179566,34,32,2,0.0625,Missouri State University-Springfield,Springfield,MO,65897,37.199258,-93.281281,POINT (-93.28128100000001 37.199258)
179867,933,654,279,0.42660550458715596,Washington University in St Louis,Saint Louis,MO,63130-4899,38.647929,-90.310604,POINT (-90.310604 38.647929)
180106,56,46,10,0.21739130434782608,Carroll College,Helena,MT,59625-0002,46.600771,-112.040285,POINT (-112.040285 46.600771)
180416,922,764,158,0.20680628272251309,Montana Technological University,Butte,MT,59701-8997,46.012868,-112.559511,POINT (-112.559511 46.012868)
180461,1317,1105,212,0.19185520361990951,Montana State University,Bozeman,MT,59717,45.666726,-111.048812,POINT (-111.048812 45.666726)
181464,2061,1776,285,0.16047297297297297,University of Nebraska-Lincoln,Lincoln,NE,68588-0419,40.817598,-96.700508,POINT (-96.700508 40.817598)
182005,173,142,31,0.21830985915492956,College of Southern Nevada,Las Vegas,NV,89146-1164,36.158114,-115.233099,POINT (-115.233099 36.158114)
182281,1104,912,192,0.21052631578947367,University of Nevada-Las Vegas,Las Vegas,NV,89154,36.106047,-115.138462,POINT (-115.138462 36.106047)
182290,1257,1024,233,0.2275390625,University of Nevada-Reno,Reno,NV,89557,39.543642,-119.815377,POINT (-119.815377 39.543642)
182564,86,68,18,0.2647058823529412,Western Nevada College,Carson City,NV,89703-7399,39.186158,-119.79036,POINT (-119.79036 39.186158)
182670,115,91,24,0.26373626373626374,Dartmouth College,Hanover,NH,03755-3529,43.704115,-72.289949,POINT (-72.28994899999999 43.704115)
183044,1092,926,166,0.17926565874730022,University of New Hampshire-Main Campus,Durham,NH,03824-3547,43.135934,-70.932465,POINT (-70.93246499999999 43.135934)
183239,12,12,0,0.0,Saint Anselm College,Manchester,NH,03102-1310,42.986889,-71.503622,POINT (-71.50362199999999 42.986889)
184603,36,34,2,0.058823529411764705,Fairleigh Dickinson University-Metropolitan Campus,Teaneck,NJ,7666,40.897209,-74.028986,POINT (-74.028986 40.897209)
184782,499,429,70,0.16317016317016317,Rowan University,Glassboro,NJ,8028,39.709108,-75.119119,POINT (-75.119119 39.709108)
185572,44,39,5,0.1282051282051282,Monmouth University,West Long Branch,NJ,07764-1898,40.280066,-74.006447,POINT (-74.00644699999999 40.280066)
185828,1953,1651,302,0.18291944276196245,New Jersey Institute of Technology,Newark,NJ,7102,40.741997,-74.177113,POINT (-74.17711300000001 40.741997)
186131,639,438,201,0.4589041095890411,Princeton University,Princeton,NJ,08544-0070,40.348732,-74.659365,POINT (-74.65936499999999 40.348732)
186380,1832,1542,290,0.1880674448767834,Rutgers University-New Brunswick,New Brunswick,NJ,08901-1281,40.498769,-74.446251,POINT (-74.446251 40.498769)
186399,3,3,0,0.0,Rutgers University-Newark,Newark,NJ,7102,40.739122,-74.175809,POINT (-74.175809 40.739122)
186867,1374,1063,311,0.2925682031984948,Stevens Institute of Technology,Hoboken,NJ,07030-5991,40.744776,-74.025334,POINT (-74.025334 40.744776)
187134,414,324,90,0.2777777777777778,The College of New Jersey,Ewing,NJ,08628-7718,40.268651,-74.778791,POINT (-74.778791 40.268651)
187897,28,19,9,0.47368421052631576,New Mexico Highlands University,Las Vegas,NM,87701,35.596233,-105.219197,POINT (-105.219197 35.596233)
187967,663,561,102,0.18181818181818182,New Mexico Institute of Mining and Technology,Socorro,NM,87801,34.067041,-106.905211,POINT (-106.905211 34.067041)
187985,1492,1242,250,0.20128824476650564,University of New Mexico-Main Campus,Albuquerque,NM,87106,35.083868,-106.620155,POINT (-106.620155 35.083868)
188030,1252,1007,245,0.24329692154915591,New Mexico State University-Main Campus,Las Cruces,NM,88003-8001,32.281568,-106.752069,POINT (-106.752069 32.281568)
188058,22,14,8,0.5714285714285714,Northern New Mexico College,Espanola,NM,87532,36.004073,-106.084395,POINT (-106.084395 36.004073)
188340,10,7,3,0.42857142857142855,Vaughn College of Aeronautics and Technology,Flushing,NY,11369,40.768348,-73.881721,POINT (-73.881721 40.768348)
188641,290,239,51,0.21338912133891214,Alfred University,Alfred,NY,14802-1205,42.254476,-77.788106,POINT (-77.788106 42.254476)
190044,1269,1064,205,0.19266917293233082,Clarkson University,Potsdam,NY,13699,44.662716,-74.999359,POINT (-74.999359 44.662716)
190150,1347,914,433,0.4737417943107221,Columbia University in the City of New York,New York,NY,10027,40.808286,-73.961885,POINT (-73.961885 40.808286)
190372,488,364,124,0.34065934065934067,Cooper Union for the Advancement of Science and Art,New York,NY,10003-7120,40.728148,-73.991609,POINT (-73.991609 40.728148)
190415,2760,1906,854,0.44805876180482684,Cornell University,Ithaca,NY,14853,42.4472,-76.483084,POINT (-76.48308400000001 42.4472)
190512,12,5,7,1.4,CUNY Bernard M Baruch College,New York,NY,10010,40.740238,-73.983417,POINT (-73.983417 40.740238)
190558,257,231,26,0.11255411255411256,College of Staten Island CUNY,Staten Island,NY,10314,40.601831,-74.14849,POINT (-74.14849 40.601831)
190567,1736,1446,290,0.20055325034578148,CUNY City College,New York,NY,10031,40.819846,-73.948542,POINT (-73.948542 40.819846)
191241,28,24,4,0.16666666666666666,Fordham University,Bronx,NY,10458,40.859354,-73.882705,POINT (-73.882705 40.859354)
191649,188,165,23,0.1393939393939394,Hofstra University,Hempstead,NY,11549,40.715959,-73.60078,POINT (-73.60078 40.715959)
192703,757,616,141,0.2288961038961039,Manhattan College,Riverdale,NY,10471-4098,40.889756,-73.901893,POINT (-73.901893 40.889756)
193973,1,1,0,0.0,Niagara University,Niagara University,NY,14109,43.137279,-79.036689,POINT (-79.036689 43.137279)
194091,528,449,79,0.1759465478841871,New York Institute of Technology,Old Westbury,NY,11568-8000,40.812447,-73.6078,POINT (-73.6078 40.812447)
194310,3,3,0,0.0,Pace University,New York,NY,10038-1598,40.711014,-74.004719,POINT (-74.00471899999999 40.711014)
194824,3087,2387,700,0.2932551319648094,Rensselaer Polytechnic Institute,Troy,NY,12180-3590,42.729978,-73.676646,POINT (-73.67664600000001 42.729978)
195003,2165,1894,271,0.14308342133051744,Rochester Institute of Technology,Rochester,NY,14623-5603,43.084188,-77.67386,POINT (-77.67386 43.084188)
195030,594,421,173,0.41092636579572445,University of Rochester,Rochester,NY,14627-0011,43.126397,-77.631202,POINT (-77.631202 43.126397)
196006,27,24,3,0.125,SUNY College of Technology at Alfred,Alfred,NY,14802,42.255262,-77.794632,POINT (-77.79463199999999 42.255262)
196015,25,23,2,0.08695652173913043,SUNY College of Technology at Canton,Canton,NY,13617-1098,44.604096,-75.182906,POINT (-75.182906 44.604096)
196024,9,8,1,0.125,SUNY College of Technology at Delhi,Delhi,NY,13753-1100,42.269859,-74.924612,POINT (-74.924612 42.269859)
196051,5,5,0,0.0,SUNY Morrisville,Morrisville,NY,13408,42.893962,-75.640583,POINT (-75.64058300000001 42.893962)
196079,735,636,99,0.15566037735849056,Binghamton University,Vestal,NY,13850-6000,42.087868,-75.966889,POINT (-75.96688899999999 42.087868)
196088,1904,1665,239,0.14354354354354354,University at Buffalo,Buffalo,NY,14260-1660,43.000942,-78.789458,POINT (-78.789458 43.000942)
196097,954,791,163,0.20606826801517067,Stony Brook University,Stony Brook,NY,11794-0701,40.91476,-73.12046,POINT (-73.12045999999999 40.91476)
196103,175,137,38,0.2773722627737226,SUNY College of Environmental Science and Forestry,Syracuse,NY,13210,43.034765,-76.138724,POINT (-76.138724 43.034765)
196112,21,19,2,0.10526315789473684,SUNY Polytechnic Institute,Utica,NY,13502,43.137701,-75.229841,POINT (-75.22984099999999 43.137701)
196176,97,87,10,0.11494252873563218,State University of New York at New Paltz,New Paltz,NY,12561-2443,41.740936,-74.082188,POINT (-74.082188 41.740936)
196291,627,584,43,0.07363013698630137,SUNY Maritime College,Throggs Neck,NY,10465-4198,40.807217,-73.795309,POINT (-73.795309 40.807217)
196413,1086,806,280,0.34739454094292804,Syracuse University,Syracuse,NY,13244,43.040176,-76.136975,POINT (-76.13697500000001 43.040176)
196866,250,196,54,0.2755102040816326,Union College,Schenectady,NY,12308-2311,42.818097,-73.928788,POINT (-73.928788 42.818097)
197027,475,433,42,0.09699769053117784,United States Merchant Marine Academy,Kings Point,NY,11024-1634,40.81357,-73.763004,POINT (-73.763004 40.81357)
197036,735,672,63,0.09375,United States Military Academy,West  Point,NY,10996-1905,41.390479,-73.956603,POINT (-73.956603 41.390479)
197221,90,74,16,0.21621621621621623,Webb Institute,Glen Cove,NY,11542-1398,40.884444,-73.644909,POINT (-73.644909 40.884444)
198419,1119,807,312,0.38661710037174724,Duke University,Durham,NC,27708,36.001135,-78.937624,POINT (-78.937624 36.001135)
198464,215,189,26,0.13756613756613756,East Carolina University,Greenville,NC,27858-4353,35.607186,-77.368291,POINT (-77.368291 35.607186)
198516,48,40,8,0.2,Elon University,Elon,NC,27244-2010,36.104148,-79.50344,POINT (-79.50344 36.104148)
198756,47,29,18,0.6206896551724138,Johnson C Smith University,Charlotte,NC,28216-5398,35.243033,-80.857251,POINT (-80.85725100000001 35.243033)
198835,18,16,2,0.125,Lenoir-Rhyne University,Hickory,NC,28601,35.739968,-81.327598,POINT (-81.32759799999999 35.739968)
199102,1101,788,313,0.39720812182741116,North Carolina A & T State University,Greensboro,NC,27411,36.07282,-79.773375,POINT (-79.773375 36.07282)
199111,11,9,2,0.2222222222222222,University of North Carolina at Asheville,Asheville,NC,28804-8510,35.617068,-82.565392,POINT (-82.565392 35.617068)
199139,1554,1415,139,0.09823321554770319,University of North Carolina at Charlotte,Charlotte,NC,28223-0001,35.306022,-80.730919,POINT (-80.730919 35.306022)
199193,6235,4754,1481,0.31152713504417334,North Carolina State University at Raleigh,Raleigh,NC,27695-7001,35.785111,-78.674517,POINT (-78.67451699999999 35.785111)
199306,18,18,0,0.0,Pfeiffer University,Misenheimer,NC,28109-0960,35.484696,-80.283168,POINT (-80.283168 35.484696)
200004,35,34,1,0.029411764705882353,Western Carolina University,Cullowhee,NC,28723-9646,35.308979,-83.186258,POINT (-83.186258 35.308979)
200217,13,10,3,0.3,University of Mary,Bismarck,ND,58504,46.723767,-100.75274,POINT (-100.75274 46.723767)
200280,993,889,104,0.11698537682789652,University of North Dakota,Grand Forks,ND,58202-8193,47.921654,-97.071738,POINT (-97.071738 47.921654)
200332,1767,1605,162,0.10093457943925234,North Dakota State University-Main Campus,Fargo,ND,58108-6050,46.893127,-96.800838,POINT (-96.800838 46.893127)
200800,1864,1607,257,0.15992532669570628,University of Akron Main Campus,Akron,OH,44325-4702,41.078551,-81.511679,POINT (-81.511679 41.078551)
201645,856,664,192,0.2891566265060241,Case Western Reserve University,Cleveland,OH,44106,41.507419,-81.609596,POINT (-81.609596 41.507419)
201654,296,274,22,0.08029197080291971,Cedarville University,Cedarville,OH,45314-0601,39.749237,-83.814692,POINT (-83.81469199999999 39.749237)
201690,83,62,21,0.3387096774193548,Central State University,Wilberforce,OH,45384-1004,39.715787,-83.880186,POINT (-83.88018599999999 39.715787)
201885,2594,2198,396,0.18016378525932666,University of Cincinnati-Main Campus,Cincinnati,OH,45221-0063,39.131159,-84.51428,POINT (-84.51428 39.131159)
201946,35,32,3,0.09375,University of Cincinnati-Clermont College,Batavia,OH,45103,39.080645,-84.19437,POINT (-84.19437000000001 39.080645)
201955,51,48,3,0.0625,University of Cincinnati-Blue Ash College,Blue Ash,OH,45236-1096,39.234333,-84.399956,POINT (-84.399956 39.234333)
202134,633,543,90,0.16574585635359115,Cleveland State University,Cleveland,OH,44115-2214,41.502281,-81.674355,POINT (-81.67435500000001 41.502281)
202480,1145,891,254,0.2850729517396184,University of Dayton,Dayton,OH,45469,39.739547,-84.176113,POINT (-84.176113 39.739547)
203368,14,13,1,0.07692307692307693,John Carroll University,University Heights,OH,44118-4538,41.491321,-81.531338,POINT (-81.53133800000001 41.491321)
203492,22,13,9,0.6923076923076923,Kent State University at Salem,Salem,OH,44460,40.86408,-80.835458,POINT (-80.835458 40.86408)
203517,252,224,28,0.125,Kent State University at Kent,Kent,OH,44242-0001,41.146653,-81.342533,POINT (-81.342533 41.146653)
203845,142,126,16,0.12698412698412698,Marietta College,Marietta,OH,45750,39.41668,-81.450045,POINT (-81.450045 39.41668)
204006,54,49,5,0.10204081632653061,Miami University-Hamilton,Hamilton,OH,45011,39.377448,-84.563385,POINT (-84.563385 39.377448)
204015,21,21,0,0.0,Miami University-Middletown,Middletown,OH,45042,39.523776,-84.35724,POINT (-84.35724 39.523776)
204024,515,418,97,0.23205741626794257,Miami University-Oxford,Oxford,OH,45056,39.507757,-84.732954,POINT (-84.73295400000001 39.507757)
204264,5,3,2,0.6666666666666666,Muskingum University,New Concord,OH,43762,39.996585,-81.737127,POINT (-81.737127 39.996585)
204468,5,5,0,0.0,Notre Dame College,Cleveland,OH,44121-4293,41.506894,-81.516617,POINT (-81.516617 41.506894)
204501,4,4,0,0.0,Oberlin College,Oberlin,OH,44074,41.291992,-82.216795,POINT (-82.216795 41.291992)
204635,455,388,67,0.17268041237113402,Ohio Northern University,Ada,OH,45810-1599,40.7662,-83.827441,POINT (-83.82744099999999 40.7662)
204671,52,46,6,0.13043478260869565,Ohio State University-Lima Campus,Lima,OH,45804,40.738521,-84.02384,POINT (-84.02384000000001 40.738521)
204699,7,6,1,0.16666666666666666,Ohio State University-Marion Campus,Marion,OH,43302-5695,40.577779,-83.090597,POINT (-83.090597 40.577779)
204705,12,11,1,0.09090909090909091,Ohio State University-Newark Campus,Newark,OH,43055,40.069314,-82.447441,POINT (-82.447441 40.069314)
204796,4438,3761,677,0.18000531773464504,Ohio State University-Main Campus,Columbus,OH,43210,39.999324,-83.014853,POINT (-83.014853 39.999324)
204802,13,13,0,0.0,Ohio University-Eastern Campus,Saint Clairsville,OH,43950,40.073392,-80.976073,POINT (-80.976073 40.073392)
204820,12,11,1,0.09090909090909091,Ohio University-Chillicothe Campus,Chillicothe,OH,45601-0629,39.329404,-83.002175,POINT (-83.00217499999999 39.329404)
204839,5,5,0,0.0,Ohio University-Southern Campus,Ironton,OH,45638,38.524781,-82.666876,POINT (-82.666876 38.524781)
204848,10,9,1,0.1111111111111111,Ohio University-Lancaster Campus,Lancaster,OH,43130-1037,39.738752,-82.586069,POINT (-82.58606899999999 39.738752)
204857,955,866,89,0.10277136258660508,Ohio University-Main Campus,Athens,OH,45701-2979,39.326798,-82.100985,POINT (-82.10098499999999 39.326798)
204866,9,9,0,0.0,Ohio University-Zanesville Campus,Zanesville,OH,43701,39.96098,-82.031063,POINT (-82.031063 39.96098)
205443,49,37,12,0.32432432432432434,Shawnee State University,Portsmouth,OH,45662,38.730867,-82.993769,POINT (-82.993769 38.730867)
205957,1,0,1,inf,Franciscan University of Steubenville,Steubenville,OH,43952-1763,40.376919,-80.620524,POINT (-80.620524 40.376919)
206084,1752,1532,220,0.14360313315926893,University of Toledo,Toledo,OH,43606-3390,41.660572,-83.614714,POINT (-83.61471400000001 41.660572)
206491,43,29,14,0.4827586206896552,Wilberforce University,Wilberforce,OH,45384-1001,39.707291,-83.880595,POINT (-83.880595 39.707291)
206622,1,1,0,0.0,Xavier University,Cincinnati,OH,45207-1092,39.149547,-84.47465,POINT (-84.47465 39.149547)
206695,644,558,86,0.15412186379928317,Youngstown State University,Youngstown,OH,44555-0001,41.104928,-80.64659,POINT (-80.64659 41.104928)
206941,234,196,38,0.19387755102040816,University of Central Oklahoma,Edmond,OK,73034,35.6552,-97.471508,POINT (-97.471508 35.6552)
207263,36,23,13,0.5652173913043478,Northeastern State University,Tahlequah,OK,74464-2399,35.919939,-94.967229,POINT (-94.967229 35.919939)
207324,202,176,26,0.14772727272727273,Oklahoma Christian University,Edmond,OK,73013,35.611412,-97.469526,POINT (-97.469526 35.611412)
207388,1717,1409,308,0.21859474804826118,Oklahoma State University-Main Campus,Stillwater,OK,74078-1015,36.123085,-97.069743,POINT (-97.069743 36.123085)
207500,1983,1607,376,0.23397635345364032,University of Oklahoma-Norman Campus,Norman,OK,73019-3072,35.209407,-97.444211,POINT (-97.444211 35.209407)
207582,71,58,13,0.22413793103448276,Oral Roberts University,Tulsa,OK,74171,36.049129,-95.952547,POINT (-95.952547 36.049129)
207865,106,98,8,0.08163265306122448,Southwestern Oklahoma State University,Weatherford,OK,73096-3001,35.535281,-98.707768,POINT (-98.707768 35.535281)
207971,653,515,138,0.26796116504854367,University of Tulsa,Tulsa,OK,74104-3189,36.152324,-95.945941,POINT (-95.945941 36.152324)
208822,96,86,10,0.11627906976744186,George Fox University,Newberg,OR,97132,45.303629,-122.967494,POINT (-122.967494 45.303629)
209506,238,206,32,0.1553398058252427,Oregon Institute of Technology,Klamath Falls,OR,97601-8801,42.257152,-121.785177,POINT (-121.785177 42.257152)
209542,3108,2655,453,0.17062146892655367,Oregon State University,Corvallis,OR,97331,44.56395,-123.274723,POINT (-123.274723 44.56395)
209551,38,31,7,0.22580645161290322,University of Oregon,Eugene,OR,97403,44.045146,-123.075792,POINT (-123.075792 44.045146)
209807,1050,907,143,0.15766262403528114,Portland State University,Portland,OR,97201,45.511601,-122.686289,POINT (-122.686289 45.511601)
209825,441,343,98,0.2857142857142857,University of Portland,Portland,OR,97203-5798,45.572724,-122.726691,POINT (-122.726691 45.572724)
210146,16,16,0,0.0,Southern Oregon University,Ashland,OR,97520,42.185077,-122.695081,POINT (-122.695081 42.185077)
210669,1,1,0,0.0,Allegheny College,Meadville,PA,16335-3902,41.64869,-80.147168,POINT (-80.14716799999999 41.64869)
211158,47,43,4,0.09302325581395349,Bloomsburg University of Pennsylvania,Bloomsburg,PA,17815,41.00782,-76.447844,POINT (-76.447844 41.00782)
211291,602,437,165,0.37757437070938216,Bucknell University,Lewisburg,PA,17837,40.954317,-76.882616,POINT (-76.882616 40.954317)
211440,1645,1202,443,0.3685524126455907,Carnegie Mellon University,Pittsburgh,PA,15213-3890,40.44357,-79.941993,POINT (-79.941993 40.44357)
212054,3240,2665,575,0.21575984990619138,Drexel University,Philadelphia,PA,19104,39.955217,-75.190051,POINT (-75.190051 39.955217)
212197,37,31,6,0.1935483870967742,Elizabethtown College,Elizabethtown,PA,17022-2298,40.149236,-76.593224,POINT (-76.59322400000001 40.149236)
212601,123,104,19,0.18269230769230768,Gannon University,Erie,PA,16541-0001,42.128403,-80.087166,POINT (-80.087166 42.128403)
212656,141,123,18,0.14634146341463414,Geneva College,Beaver Falls,PA,15010-3599,40.772518,-80.321826,POINT (-80.321826 40.772518)
212805,258,222,36,0.16216216216216217,Grove City College,Grove City,PA,16127-2104,41.1558,-80.081481,POINT (-80.081481 41.1558)
213251,8,8,0,0.0,Juniata College,Huntingdon,PA,16652-2196,40.500523,-78.017292,POINT (-78.017292 40.500523)
213385,567,439,128,0.29157175398633256,Lafayette College,Easton,PA,18042-1768,40.69956,-75.209786,POINT (-75.20978599999999 40.69956)
213543,822,661,161,0.24357034795763993,Lehigh University,Bethlehem,PA,18015,40.606822,-75.380236,POINT (-75.380236 40.606822)
213996,122,108,14,0.12962962962962962,Messiah University,Mechanicsburg,PA,17055,40.156579,-76.988269,POINT (-76.988269 40.156579)
214157,1,1,0,0.0,Moravian College,Bethlehem,PA,18018-6650,40.630947,-75.383638,POINT (-75.383638 40.630947)
214591,918,822,96,0.11678832116788321,Pennsylvania State University-Penn State Erie-Behrend College,Erie,PA,16563-0001,42.119433,-79.983773,POINT (-79.983773 42.119433)
214625,109,102,7,0.06862745098039216,Pennsylvania State University-Penn State New Kensington,New Kensington,PA,15068-1765,40.551159,-79.697232,POINT (-79.697232 40.551159)
214634,12,12,0,0.0,Pennsylvania State University-Penn State Shenango,Sharon,PA,16146-1537,41.235053,-80.508764,POINT (-80.508764 41.235053)
214643,123,116,7,0.0603448275862069,Pennsylvania State University-Penn State Wilkes-Barre,Lehman,PA,18627-0217,41.306003,-76.016599,POINT (-76.016599 41.306003)
214652,89,80,9,0.1125,Pennsylvania State University-Penn State Scranton,Dunmore,PA,18512-1602,41.440258,-75.620583,POINT (-75.620583 41.440258)
214670,92,85,7,0.08235294117647059,Pennsylvania State University-Penn State Lehigh Valley,Center Valley,PA,18034-8447,40.559208,-75.402507,POINT (-75.402507 40.559208)
214689,340,308,32,0.1038961038961039,Pennsylvania State University-Penn State Altoona,Altoona,PA,16601-3777,40.54092,-78.408247,POINT (-78.408247 40.54092)
214698,97,91,6,0.06593406593406594,Pennsylvania State University-Penn State Beaver,Monaca,PA,15061-2764,40.678254,-80.296235,POINT (-80.296235 40.678254)
214704,331,318,13,0.040880503144654086,Pennsylvania State University-Penn State Berks,Reading,PA,19610-1016,40.357987,-75.972141,POINT (-75.97214099999999 40.357987)
214713,486,442,44,0.09954751131221719,Pennsylvania State University-Penn State Harrisburg,Middletown,PA,17057-4846,40.203766,-76.7423,POINT (-76.7423 40.203766)
214731,90,84,6,0.07142857142857142,Pennsylvania State University-Penn State Brandywine,Media,PA,19063-5522,39.926381,-75.446983,POINT (-75.446983 39.926381)
214740,46,39,7,0.1794871794871795,Pennsylvania State University-Penn State DuBois,DuBois,PA,15801-2549,41.126941,-78.751784,POINT (-78.751784 41.126941)
214759,71,57,14,0.24561403508771928,Pennsylvania State University-Penn State Fayette- Eberly,Lemont Furnace,PA,15456-1025,39.947217,-79.657769,POINT (-79.657769 39.947217)
214768,136,121,15,0.12396694214876033,Pennsylvania State University-Penn State Hazleton,Hazleton,PA,18202-8025,40.983958,-76.031061,POINT (-76.03106099999999 40.983958)
214777,5748,4801,947,0.19725057279733388,Pennsylvania State University-Main Campus,University Park,PA,16802-1503,40.7965,-77.862848,POINT (-77.862848 40.7965)
214786,85,77,8,0.1038961038961039,Pennsylvania State University-Penn State Greater Allegheny,McKeesport,PA,15132-7644,40.345582,-79.827447,POINT (-79.82744700000001 40.345582)
214795,70,63,7,0.1111111111111111,Pennsylvania State University-Penn State Mont Alto,Mont Alto,PA,17237-9700,39.842047,-77.542355,POINT (-77.542355 39.842047)
214801,197,180,17,0.09444444444444444,Pennsylvania State University-Penn State Abington,Abington,PA,19001-3918,40.11683,-75.109083,POINT (-75.109083 40.11683)
214810,52,45,7,0.15555555555555556,Pennsylvania State University-Penn State Schuylkill,Schuylkill Haven,PA,17972-2202,40.640499,-76.166326,POINT (-76.166326 40.640499)
214829,122,117,5,0.042735042735042736,Pennsylvania State University-Penn State York,York,PA,17403-3326,39.952327,-76.702835,POINT (-76.70283499999999 39.952327)
215062,1246,902,344,0.38137472283813745,University of Pennsylvania,Philadelphia,PA,19104-6303,39.950929,-75.19391,POINT (-75.19391 39.950929)
215266,59,53,6,0.11320754716981132,University of Pittsburgh-Bradford,Bradford,PA,16701,41.943415,-78.673701,POINT (-78.67370099999999 41.943415)
215275,1,1,0,0.0,University of Pittsburgh-Greensburg,Greensburg,PA,15601-5860,40.276447,-79.532676,POINT (-79.532676 40.276447)
215293,2014,1591,423,0.26587052168447517,University of Pittsburgh-Pittsburgh Campus,Pittsburgh,PA,15260,40.444388,-79.953254,POINT (-79.953254 40.444388)
215655,78,69,9,0.13043478260869565,Robert Morris University,Moon Township,PA,15108-1189,40.520415,-80.210468,POINT (-80.21046800000001 40.520415)
215743,10,6,4,0.6666666666666666,Saint Francis University,Loretto,PA,15940,40.506734,-78.63904,POINT (-78.63903999999999 40.506734)
215798,34,30,4,0.13333333333333333,Saint Vincent College,Latrobe,PA,15650-2690,40.29265,-79.403762,POINT (-79.403762 40.29265)
215929,24,21,3,0.14285714285714285,University of Scranton,Scranton,PA,18510-4699,41.406556,-75.656915,POINT (-75.656915 41.406556)
216287,50,34,16,0.47058823529411764,Swarthmore College,Swarthmore,PA,19081,39.905159,-75.354278,POINT (-75.35427799999999 39.905159)
216339,709,612,97,0.15849673202614378,Temple University,Philadelphia,PA,19122-6096,39.980546,-75.156859,POINT (-75.156859 39.980546)
216597,899,697,202,0.2898134863701578,Villanova University,Villanova,PA,19085-1699,40.039388,-75.345457,POINT (-75.345457 40.039388)
216694,14,14,0,0.0,Waynesburg University,Waynesburg,PA,15370-1257,39.899871,-80.186205,POINT (-80.186205 39.899871)
216852,370,329,41,0.12462006079027356,Widener University,Chester,PA,19013-5792,39.861689,-75.355363,POINT (-75.355363 39.861689)
216931,204,192,12,0.0625,Wilkes University,Wilkes-Barre,PA,18766,41.244199,-75.890262,POINT (-75.89026200000001 41.244199)
217059,199,184,15,0.08152173913043478,York College of Pennsylvania,York,PA,17403-3651,39.94614,-76.727984,POINT (-76.72798400000001 39.94614)
217156,449,289,160,0.5536332179930796,Brown University,Providence,RI,2912,41.82617,-71.40385,POINT (-71.40385000000001 41.82617)
217235,94,91,3,0.03296703296703297,Johnson & Wales University-Providence,Providence,RI,02903-3703,41.819956,-71.41277,POINT (-71.41276999999999 41.819956)
217402,41,32,9,0.28125,Providence College,Providence,RI,02918-0001,41.842742,-71.437446,POINT (-71.43744599999999 41.842742)
217484,944,804,140,0.17412935323383086,University of Rhode Island,Kingston,RI,2881,41.484691,-71.527356,POINT (-71.527356 41.484691)
217518,163,138,25,0.18115942028985507,Roger Williams University,Bristol,RI,02809-2921,41.650214,-71.260374,POINT (-71.260374 41.650214)
217633,5,4,1,0.25,Anderson University,Anderson,SC,29621-4035,34.5152,-82.640358,POINT (-82.64035800000001 34.5152)
217721,98,78,20,0.2564102564102564,Benedict College,Columbia,SC,29204-1086,34.012941,-81.020403,POINT (-81.020403 34.012941)
217749,64,62,2,0.03225806451612903,Bob Jones University,Greenville,SC,29614-0001,34.874016,-82.365838,POINT (-82.365838 34.874016)
217864,382,370,12,0.032432432432432434,Citadel Military College of South Carolina,Charleston,SC,29409,32.797183,-79.958775,POINT (-79.958775 32.797183)
217873,33,23,10,0.43478260869565216,Claflin University,Orangeburg,SC,29115-4498,33.498444,-80.854319,POINT (-80.854319 33.498444)
217882,1859,1522,337,0.221419185282523,Clemson University,Clemson,SC,29634,34.679381,-82.835114,POINT (-82.835114 34.679381)
218070,1,1,0,0.0,Furman University,Greenville,SC,29613-6162,34.924676,-82.440458,POINT (-82.44045800000001 34.924676)
218663,1201,1031,170,0.16488845780795344,University of South Carolina-Columbia,Columbia,SC,29208,33.996788,-81.026935,POINT (-81.02693499999999 33.996788)
218733,39,23,16,0.6956521739130435,South Carolina State University,Orangeburg,SC,29117-0001,33.497968,-80.848722,POINT (-80.848722 33.497968)
219000,9,9,0,0.0,Augustana University,Sioux Falls,SD,57197-0001,43.525148,-96.736975,POINT (-96.736975 43.525148)
219347,1188,985,203,0.20609137055837565,South Dakota School of Mines and Technology,Rapid City,SD,57701-3995,44.075439,-103.205753,POINT (-103.205753 44.075439)
219356,842,773,69,0.08926261319534282,South Dakota State University,Brookings,SD,57007-1898,44.317485,-96.782139,POINT (-96.782139 44.317485)
219718,13,13,0,0.0,Bethel University,McKenzie,TN,38201,36.137848,-88.516762,POINT (-88.516762 36.137848)
219833,208,175,33,0.18857142857142858,Christian Brothers University,Memphis,TN,38104,35.127437,-89.983241,POINT (-89.98324100000001 35.127437)
219949,3,1,2,2.0,Cumberland University,Lebanon,TN,37087,36.204514,-86.298782,POINT (-86.298782 36.204514)
219976,96,88,8,0.09090909090909091,Lipscomb University,Nashville,TN,37204-3951,36.106253,-86.799791,POINT (-86.799791 36.106253)
220598,54,45,9,0.2,Lane College,Jackson,TN,38301-4598,35.627378,-88.806535,POINT (-88.806535 35.627378)
220710,12,12,0,0.0,Maryville College,Maryville,TN,37804-5907,35.751505,-83.964223,POINT (-83.964223 35.751505)
220862,509,425,84,0.1976470588235294,University of Memphis,Memphis,TN,38152,35.118878,-89.938068,POINT (-89.938068 35.118878)
221661,17,15,2,0.13333333333333333,Southern Adventist University,Collegedale,TN,37315-0370,35.048254,-85.052088,POINT (-85.052088 35.048254)
221740,415,356,59,0.16573033707865167,The University of Tennessee-Chattanooga,Chattanooga,TN,37403-2598,35.047519,-85.300247,POINT (-85.300247 35.047519)
221759,1856,1563,293,0.18746001279590532,The University of Tennessee-Knoxville,Knoxville,TN,37996,35.952082,-83.925852,POINT (-83.92585200000001 35.952082)
221768,272,251,21,0.08366533864541832,The University of Tennessee-Martin,Martin,TN,38238,36.340338,-88.864211,POINT (-88.864211 36.340338)
221838,593,457,136,0.2975929978118162,Tennessee State University,Nashville,TN,37209-1561,36.166321,-86.828275,POINT (-86.828275 36.166321)
221847,1380,1227,153,0.12469437652811736,Tennessee Technological University,Cookeville,TN,38505-0001,36.174754,-85.504039,POINT (-85.50403900000001 36.174754)
221971,2,2,0,0.0,Union University,Jackson,TN,38305-3697,35.676896,-88.858524,POINT (-88.858524 35.676896)
221999,1196,830,366,0.44096385542168676,Vanderbilt University,Nashville,TN,37240,36.14659,-86.803369,POINT (-86.803369 36.14659)
222178,26,21,5,0.23809523809523808,Abilene Christian University,Abilene,TX,79699,32.468943,-99.709797,POINT (-99.70979699999999 32.468943)
223232,502,407,95,0.2334152334152334,Baylor University,Waco,TX,76798,31.546872,-97.121041,POINT (-97.12104100000001 31.546872)
224545,4,3,1,0.3333333333333333,Texas A&M University-Texarkana,Texarkana,TX,75503,33.490482,-94.103617,POINT (-94.103617 33.490482)
224554,77,66,11,0.16666666666666666,Texas A & M University-Commerce,Commerce,TX,75428-3011,33.243745,-95.908451,POINT (-95.908451 33.243745)
225414,40,34,6,0.17647058823529413,University of Houston-Clear Lake,Houston,TX,77058-1002,29.582523,-95.098129,POINT (-95.098129 29.582523)
225511,1842,1445,397,0.27474048442906573,University of Houston,Houston,TX,77204-2018,29.720393,-95.343537,POINT (-95.343537 29.720393)
225627,65,48,17,0.3541666666666667,University of the Incarnate Word,San Antonio,TX,78209,29.46708,-98.46583,POINT (-98.46583 29.46708)
226091,809,681,128,0.18795888399412627,Lamar University,Beaumont,TX,77705,30.042738,-94.072244,POINT (-94.072244 30.042738)
226152,5,4,1,0.25,Texas A & M International University,Laredo,TX,78041-1900,27.571172,-99.436043,POINT (-99.436043 27.571172)
226231,425,375,50,0.13333333333333333,LeTourneau University,Longview,TX,75602,32.46632,-94.726394,POINT (-94.726394 32.46632)
226383,24,19,5,0.2631578947368421,Lubbock Christian University,Lubbock,TX,79407-2099,33.575973,-101.934426,POINT (-101.934426 33.575973)
226833,170,152,18,0.11842105263157894,Midwestern State University,Wichita Falls,TX,76308-2099,33.874809,-98.519386,POINT (-98.519386 33.874809)
227216,633,550,83,0.1509090909090909,University of North Texas,Denton,TX,76203-1277,33.211178,-97.148422,POINT (-97.148422 33.211178)
227368,1052,888,164,0.18468468468468469,The University of Texas Rio Grande Valley,Edinburg,TX,78539-2999,26.306759,-98.173567,POINT (-98.17356700000001 26.306759)
227377,138,122,16,0.13114754098360656,Texas Southmost College,Brownsville,TX,78520,25.899628,-97.492241,POINT (-97.49224100000001 25.899628)
227526,672,513,159,0.30994152046783624,Prairie View A & M University,Prairie View,TX,77446,30.092425,-95.989475,POINT (-95.989475 30.092425)
227757,409,282,127,0.450354609929078,Rice University,Houston,TX,77005-1827,29.717897,-95.402035,POINT (-95.402035 29.717897)
228042,6,6,0,0.0,Schreiner University,Kerrville,TX,78028-5697,30.031458,-99.130586,POINT (-99.13058599999999 30.031458)
228149,125,92,33,0.358695652173913,St. Mary's University,San Antonio,TX,78228,29.453244,-98.562778,POINT (-98.56277799999999 29.453244)
228246,472,333,139,0.4174174174174174,Southern Methodist University,Dallas,TX,75275-0221,32.843612,-96.783365,POINT (-96.783365 32.843612)
228459,318,282,36,0.1276595744680851,Texas State University,San Marcos,TX,78666,29.888885,-97.943029,POINT (-97.943029 29.888885)
228529,113,106,7,0.0660377358490566,Tarleton State University,Stephenville,TX,76401-0000,32.214988,-98.214866,POINT (-98.214866 32.214988)
228705,717,615,102,0.16585365853658537,Texas A & M University-Kingsville,Kingsville,TX,78363,27.525168,-97.882387,POINT (-97.88238699999999 27.525168)
228723,6549,5285,1264,0.2391674550614948,Texas A & M University-College Station,College Station,TX,77843-1248,30.618726,-96.336475,POINT (-96.33647499999999 30.618726)
228769,1762,1531,231,0.15088177661659047,The University of Texas at Arlington,Arlington,TX,76013,32.729718,-97.11296,POINT (-97.11296 32.729718)
228778,5286,4173,1113,0.26671459381739754,The University of Texas at Austin,Austin,TX,78705,30.282825,-97.738273,POINT (-97.73827300000001 30.282825)
228787,979,870,109,0.12528735632183907,The University of Texas at Dallas,Richardson,TX,75080-3021,32.984673,-96.749702,POINT (-96.749702 32.984673)
228796,2027,1622,405,0.249691738594328,The University of Texas at El Paso,El Paso,TX,79968-0691,31.77015,-106.504098,POINT (-106.504098 31.77015)
228802,293,269,24,0.08921933085501858,The University of Texas at Tyler,Tyler,TX,75799-6699,32.315772,-95.254337,POINT (-95.25433700000001 32.315772)
228875,189,153,36,0.23529411764705882,Texas Christian University,Fort Worth,TX,76129,32.70961,-97.364758,POINT (-97.36475799999999 32.70961)
229018,61,53,8,0.1509433962264151,The University of Texas Permian Basin,Odessa,TX,79762-0001,31.889509,-102.329634,POINT (-102.329634 31.889509)
229027,1586,1406,180,0.12802275960170698,The University of Texas at San Antonio,San Antonio,TX,78249-1644,29.583709,-98.620657,POINT (-98.62065699999999 29.583709)
229115,2703,2393,310,0.12954450480568325,Texas Tech University,Lubbock,TX,79409-5005,33.583448,-101.874783,POINT (-101.874783 33.583448)
229267,59,47,12,0.2553191489361702,Trinity University,San Antonio,TX,78212-7200,29.462682,-98.48186,POINT (-98.48186 29.462682)
229814,39,38,1,0.02631578947368421,West Texas A & M University,Canyon,TX,79016-0001,34.982789,-101.914736,POINT (-101.914736 34.982789)
230038,2341,2059,282,0.13695968916949977,Brigham Young University,Provo,UT,84602,40.250851,-111.649281,POINT (-111.649281 40.250851)
230171,66,62,4,0.06451612903225806,Dixie State University,Saint George,UT,84770-3876,37.102769,-113.565903,POINT (-113.565903 37.102769)
230603,110,96,14,0.14583333333333334,Southern Utah University,Cedar City,UT,84720,37.674617,-113.070146,POINT (-113.070146 37.674617)
230728,1433,1256,177,0.1409235668789809,Utah State University,Logan,UT,84322-1400,41.740748,-111.81391,POINT (-111.81391 41.740748)
230737,355,337,18,0.05341246290801187,Utah Valley University,Orem,UT,84058-5999,40.281078,-111.716456,POINT (-111.716456 40.281078)
230764,1854,1624,230,0.1416256157635468,University of Utah,Salt Lake City,UT,84112-9008,40.762484,-111.846044,POINT (-111.846044 40.762484)
230782,189,176,13,0.07386363636363637,Weber State University,Ogden,UT,84408-1031,41.192591,-111.944845,POINT (-111.944845 41.192591)
230995,179,149,30,0.20134228187919462,Norwich University,Northfield,VT,05663-1035,44.140237,-72.659783,POINT (-72.659783 44.140237)
231059,28,21,7,0.3333333333333333,Saint Michael's College,Colchester,VT,5439,44.494558,-73.167069,POINT (-73.167069 44.494558)
231165,51,45,6,0.13333333333333333,Vermont Technical College,Randolph,VT,5061,43.939623,-72.604498,POINT (-72.60449800000001 43.939623)
231174,615,516,99,0.19186046511627908,University of Vermont,Burlington,VT,05405-0160,44.477325,-73.196646,POINT (-73.196646 44.477325)
231712,79,74,5,0.06756756756756757,Christopher Newport University,Newport News,VA,23606-3072,37.062495,-76.494364,POINT (-76.494364 37.062495)
232186,1613,1338,275,0.2055306427503737,George Mason University,Fairfax,VA,22030-4444,38.829976,-77.307428,POINT (-77.307428 38.829976)
232265,105,74,31,0.4189189189189189,Hampton University,Hampton,VA,23668-0099,37.019944,-76.339161,POINT (-76.339161 37.019944)
232423,120,100,20,0.2,James Madison University,Harrisonburg,VA,22807,38.436311,-78.870484,POINT (-78.870484 38.436311)
232557,123,110,13,0.11818181818181818,Liberty University,Lynchburg,VA,24515,37.350232,-79.18222,POINT (-79.18222 37.350232)
232937,135,108,27,0.25,Norfolk State University,Norfolk,VA,23504-8000,36.848429,-76.261375,POINT (-76.261375 36.848429)
232982,481,374,107,0.28609625668449196,Old Dominion University,Norfolk,VA,23529,36.886418,-76.30666,POINT (-76.30665999999999 36.886418)
233718,6,0,6,inf,Sweet Briar College,Sweet Briar,VA,24595-9998,37.556725,-79.081014,POINT (-79.081014 37.556725)
233897,11,10,1,0.1,The University of Virginia's College at Wise,Wise,VA,24293-4400,36.970602,-82.559656,POINT (-82.559656 36.970602)
233921,3516,2920,596,0.20410958904109588,Virginia Polytechnic Institute and State University,Blacksburg,VA,24061-0131,37.229012,-80.423675,POINT (-80.423675 37.229012)
234030,905,731,174,0.23803009575923392,Virginia Commonwealth University,Richmond,VA,23284-2512,37.54962,-77.452697,POINT (-77.452697 37.54962)
234076,1964,1383,581,0.4201012292118583,University of Virginia-Main Campus,Charlottesville,VA,22903-2628,38.035665,-78.503428,POINT (-78.503428 38.035665)
234085,408,394,14,0.03553299492385787,Virginia Military Institute,Lexington,VA,24450-0304,37.7896,-79.437067,POINT (-79.437067 37.7896)
234155,120,97,23,0.23711340206185566,Virginia State University,Petersburg,VA,23806,37.234692,-77.419026,POINT (-77.419026 37.234692)
234207,14,8,6,0.75,Washington and Lee University,Lexington,VA,24450-2116,37.788939,-79.443018,POINT (-79.443018 37.788939)
235097,81,73,8,0.1095890410958904,Eastern Washington University,Cheney,WA,99004-2496,47.490667,-117.583808,POINT (-117.583808 47.490667)
235316,512,432,80,0.18518518518518517,Gonzaga University,Spokane,WA,99258-0001,47.666531,-117.400625,POINT (-117.400625 47.666531)
236230,10,10,0,0.0,Pacific Lutheran University,Tacoma,WA,98447-0003,47.14516,-122.440421,POINT (-122.440421 47.14516)
236452,132,107,25,0.2336448598130841,Saint Martin's University,Lacey,WA,98503-7500,47.041068,-122.816354,POINT (-122.816354 47.041068)
236577,42,35,7,0.2,Seattle Pacific University,Seattle,WA,98119-1997,47.650214,-122.361667,POINT (-122.361667 47.650214)
236595,272,213,59,0.27699530516431925,Seattle University,Seattle,WA,98122-4340,47.608859,-122.318851,POINT (-122.318851 47.608859)
236896,195,175,20,0.11428571428571428,Walla Walla University,College Place,WA,99324-1198,46.048088,-118.389555,POINT (-118.389555 46.048088)
236939,722,608,114,0.1875,Washington State University,Pullman,WA,99164-5910,46.730448,-117.158168,POINT (-117.158168 46.730448)
236948,3450,2743,707,0.2577469923441487,University of Washington-Seattle Campus,Seattle,WA,98195-4550,47.65538,-122.30514,POINT (-122.30514 47.65538)
237367,5,5,0,0.0,Fairmont State University,Fairmont,WV,26554-2470,39.483079,-80.162433,POINT (-80.16243299999999 39.483079)
237525,142,117,25,0.21367521367521367,Marshall University,Huntington,WV,25755,38.422482,-82.428964,POINT (-82.42896399999999 38.422482)
237792,8,8,0,0.0,Shepherd University,Shepherdstown,WV,25443,39.433071,-77.804101,POINT (-77.804101 39.433071)
237950,336,298,38,0.12751677852348994,West Virginia University Institute of Technology,Beckley,WV,25801,37.775924,-81.184072,POINT (-81.184072 37.775924)
237969,19,18,1,0.05555555555555555,West Virginia Wesleyan College,Buckhannon,WV,26201-2994,38.990661,-80.218969,POINT (-80.218969 38.990661)
238032,2165,1919,246,0.12819176654507555,West Virginia University,Morgantown,WV,26506,39.634371,-79.954391,POINT (-79.954391 39.634371)
238458,3,3,0,0.0,Carroll University,Waukesha,WI,53186,43.004527,-88.228114,POINT (-88.22811400000001 43.004527)
238980,3,3,0,0.0,Lakeland University,Plymouth,WI,53073,43.841573,-87.883414,POINT (-87.883414 43.841573)
239105,1091,862,229,0.265661252900232,Marquette University,Milwaukee,WI,53233,43.03903,-87.927961,POINT (-87.927961 43.03903)
239318,1719,1527,192,0.12573673870333987,Milwaukee School of Engineering,Milwaukee,WI,53202-3109,43.045364,-87.907691,POINT (-87.907691 43.045364)
239512,4,2,2,1.0,Northland College,Ashland,WI,54806-3999,46.579087,-90.87476,POINT (-90.87475999999999 46.579087)
240392,57,45,12,0.26666666666666666,Herzing University-Madison,Madison,WI,53718,43.14415,-89.291561,POINT (-89.291561 43.14415)
240417,208,191,17,0.08900523560209424,University of Wisconsin-Stout,Menomonie,WI,54751,44.873187,-91.926653,POINT (-91.926653 44.873187)
240444,3096,2527,569,0.22516818361693708,University of Wisconsin-Madison,Madison,WI,53706-1380,43.075409,-89.404098,POINT (-89.404098 43.075409)
240453,1157,1056,101,0.09564393939393939,University of Wisconsin-Milwaukee,Milwaukee,WI,53211,43.076848,-87.880488,POINT (-87.880488 43.076848)
240462,779,696,83,0.11925287356321838,University of Wisconsin-Platteville,Platteville,WI,53818-3099,42.733451,-90.48622,POINT (-90.48622 42.733451)
240727,1095,921,174,0.18892508143322476,University of Wyoming,Laramie,WY,82071,41.311773,-105.57931,POINT (-105.57931 41.311773)
240754,16,13,3,0.23076923076923078,University of Guam,Mangilao,GU,96923,13.433047,144.803978,POINT (144.803978 13.433047)
241377,184,163,21,0.12883435582822086,Caribbean University-Bayamon,Bayamon,PR,00960-0493,18.383136,-66.168315,POINT (-66.16831500000001 18.383136)
242705,999,820,179,0.21829268292682927,Inter American University of Puerto Rico-Bayamon,Bayamon,PR,00957-6257,18.351631,-66.182473,POINT (-66.182473 18.351631)
243142,109,102,7,0.06862745098039216,University of Puerto Rico-Carolina,Carolina,PR,00984-4800,18.392069,-65.990165,POINT (-65.990165 18.392069)
243151,13,7,6,0.8571428571428571,University of Puerto Rico-Cayey,Cayey,PR,00737-2230,18.11882,-66.162066,POINT (-66.162066 18.11882)
243179,41,23,18,0.782608695652174,University of Puerto Rico-Humacao,Humacao,PR,792,18.146589,-65.838602,POINT (-65.83860199999999 18.146589)
243197,2859,1676,1183,0.7058472553699284,University of Puerto Rico-Mayaguez,Mayaguez,PR,681,18.211142,-67.139172,POINT (-67.139172 18.211142)
243577,3430,2813,617,0.21933878421613937,Universidad Politecnica de Puerto Rico,Hato Rey,PR,919,18.422195,-66.056084,POINT (-66.056084 18.422195)
243601,502,433,69,0.15935334872979215,Universidad Ana G. Mendez-Gurabo Campus,Gurabo,PR,00778-3030,18.239647,-66.006259,POINT (-66.006259 18.239647)
243744,531,353,178,0.5042492917847026,Stanford University,Stanford,CA,94305,37.429434,-122.167359,POINT (-122.167359 37.429434)
243780,6733,5459,1274,0.23337607620443304,Purdue University-Main Campus,West Lafayette,IN,47907-2040,40.428206,-86.914435,POINT (-86.914435 40.428206)
363907,174,152,22,0.14473684210526316,Caribbean University-Ponce,Ponce,PR,00716-7733,18.006633,-66.59425,POINT (-66.59425 18.006633)
377564,1,1,0,0.0,University of Washington-Tacoma Campus,Tacoma,WA,98402-3100,47.244594,-122.438541,POINT (-122.438541 47.244594)
399869,400,395,5,0.012658227848101266,Southern California Institute of Technology,Anaheim,CA,92801-3758,33.8381,-117.950661,POINT (-117.950661 33.8381)
409315,307,261,46,0.17624521072796934,South Texas College,McAllen,TX,78502-9701,26.217591,-98.253634,POINT (-98.25363400000001 26.217591)
433660,205,159,46,0.2893081761006289,Florida Gulf Coast University,Fort Myers,FL,33965-6565,26.463638,-81.7726,POINT (-81.7726 26.463638)
436818,6,5,1,0.2,University of Connecticut-Waterbury Campus,Waterbury,CT,6702,41.555617,-73.039242,POINT (-73.039242 41.555617)
436827,1,0,1,inf,University of Connecticut-Avery Point,Groton,CT,06340-6097,41.316419,-72.065336,POINT (-72.065336 41.316419)
436836,8,7,1,0.14285714285714285,University of Connecticut-Stamford,Stamford,CT,06901-2315,41.056081,-73.542206,POINT (-73.54220599999999 41.056081)
438498,50,43,7,0.16279069767441862,Stratford University,Alexandria,VA,22314,38.801799,-77.083035,POINT (-77.083035 38.801799)
441982,308,185,123,0.6648648648648648,Franklin W Olin College of Engineering,Needham,MA,02492-1200,42.293527,-71.263378,POINT (-71.263378 42.293527)
443410,22,22,0,0.0,DigiPen Institute of Technology,Redmond,WA,98052,47.68871,-122.150603,POINT (-122.150603 47.68871)
443562,87,65,22,0.3384615384615385,Dewey University-Hato Rey,Hato Rey,PR,910,18.417614,-66.043033,POINT (-66.04303299999999 18.417614)
445188,446,377,69,0.1830238726790451,University of California-Merced,Merced,CA,95343-5603,37.366237,-120.424944,POINT (-120.424944 37.366237)
